<?xml version="1.0" encoding="UTF-8"?>
<kml xmlns="http://www.opengis.net/kml/2.2" xmlns:gx="http://www.google.com/kml/ext/2.2" xmlns:kml="http://www.opengis.net/kml/2.2" xmlns:atom="http://www.w3.org/2005/Atom">
<Document id="10NSS7lz5uPMZSSnYmW7SrtBM0BkovTVd">
	<name>Percorso Camminatori</name>
	<gx:CascadingStyle kml:id="__managed_style_88F15FF597377374609C">
		<Style>
			<IconStyle>
				<scale>1.2</scale>
				<Icon>
					<href>https://earth.google.com/earth/document/icon?color=d32f2f&amp;id=2006&amp;scale=4</href>
				</Icon>
				<hotSpot x="64" y="128" xunits="pixels" yunits="insetPixels"/>
			</IconStyle>
			<LabelStyle>
			</LabelStyle>
			<LineStyle>
				<color>ff2dc0fb</color>
				<width>6</width>
			</LineStyle>
			<PolyStyle>
				<color>40ffffff</color>
			</PolyStyle>
			<BalloonStyle>
			</BalloonStyle>
		</Style>
	</gx:CascadingStyle>
	<gx:CascadingStyle kml:id="__managed_style_77F4494504377374609C">
		<Style>
			<IconStyle>
				<Icon>
					<href>https://earth.google.com/earth/document/icon?color=d32f2f&amp;id=2006&amp;scale=4</href>
				</Icon>
				<hotSpot x="64" y="128" xunits="pixels" yunits="insetPixels"/>
			</IconStyle>
			<LabelStyle>
			</LabelStyle>
			<LineStyle>
				<color>ff2dc0fb</color>
				<width>4</width>
			</LineStyle>
			<PolyStyle>
				<color>40ffffff</color>
			</PolyStyle>
			<BalloonStyle>
			</BalloonStyle>
		</Style>
	</gx:CascadingStyle>
	<StyleMap id="__managed_style_690B7C81C2377374609C">
		<Pair>
			<key>normal</key>
			<styleUrl>#__managed_style_77F4494504377374609C</styleUrl>
		</Pair>
		<Pair>
			<key>highlight</key>
			<styleUrl>#__managed_style_88F15FF597377374609C</styleUrl>
		</Pair>
	</StyleMap>
	<StyleMap id="__managed_style_9C67D54EF5377372E870">
		<Pair>
			<key>normal</key>
			<styleUrl>#__managed_style_A2A9C96FDD377372E870</styleUrl>
		</Pair>
		<Pair>
			<key>highlight</key>
			<styleUrl>#__managed_style_B254D57F80377372E870</styleUrl>
		</Pair>
	</StyleMap>
	<gx:CascadingStyle kml:id="__managed_style_B254D57F80377372E870">
		<Style>
			<IconStyle>
				<scale>1.8</scale>
				<Icon>
					<href>https://earth.google.com/earth/document/icon?color=f57c00&amp;id=2000&amp;scale=4</href>
				</Icon>
				<hotSpot x="64" y="128" xunits="pixels" yunits="insetPixels"/>
			</IconStyle>
			<LabelStyle>
			</LabelStyle>
			<LineStyle>
				<color>ff2dc0fb</color>
				<width>6</width>
			</LineStyle>
			<PolyStyle>
				<color>40ffffff</color>
			</PolyStyle>
			<BalloonStyle>
			</BalloonStyle>
		</Style>
	</gx:CascadingStyle>
	<gx:CascadingStyle kml:id="__managed_style_05CB473E56377372E86E">
		<Style>
			<IconStyle>
				<scale>1.2</scale>
				<Icon>
					<href>https://earth.google.com/earth/document/icon?color=1976d2&amp;id=2000&amp;scale=4</href>
				</Icon>
				<hotSpot x="64" y="128" xunits="pixels" yunits="insetPixels"/>
			</IconStyle>
			<LabelStyle>
			</LabelStyle>
			<LineStyle>
				<color>ff2dc0fb</color>
				<width>6</width>
			</LineStyle>
			<PolyStyle>
				<color>40ffffff</color>
			</PolyStyle>
			<BalloonStyle>
			</BalloonStyle>
		</Style>
	</gx:CascadingStyle>
	<gx:CascadingStyle kml:id="__managed_style_A2A9C96FDD377372E870">
		<Style>
			<IconStyle>
				<scale>1.5</scale>
				<Icon>
					<href>https://earth.google.com/earth/document/icon?color=f57c00&amp;id=2000&amp;scale=4</href>
				</Icon>
				<hotSpot x="64" y="128" xunits="pixels" yunits="insetPixels"/>
			</IconStyle>
			<LabelStyle>
			</LabelStyle>
			<LineStyle>
				<color>ff2dc0fb</color>
				<width>4</width>
			</LineStyle>
			<PolyStyle>
				<color>40ffffff</color>
			</PolyStyle>
			<BalloonStyle>
			</BalloonStyle>
		</Style>
	</gx:CascadingStyle>
	<gx:CascadingStyle kml:id="__managed_style_1CEBBE70DB377372E86C">
		<Style>
			<IconStyle>
				<Icon>
					<href>https://earth.google.com/earth/document/icon?color=1976d2&amp;id=2000&amp;scale=4</href>
				</Icon>
				<hotSpot x="64" y="128" xunits="pixels" yunits="insetPixels"/>
			</IconStyle>
			<LabelStyle>
			</LabelStyle>
			<LineStyle>
				<color>ff2dc0fb</color>
				<width>4</width>
			</LineStyle>
			<PolyStyle>
				<color>40ffffff</color>
			</PolyStyle>
			<BalloonStyle>
			</BalloonStyle>
		</Style>
	</gx:CascadingStyle>
	<StyleMap id="__managed_style_0FE7AAEB78377372E86C">
		<Pair>
			<key>normal</key>
			<styleUrl>#__managed_style_1CEBBE70DB377372E86C</styleUrl>
		</Pair>
		<Pair>
			<key>highlight</key>
			<styleUrl>#__managed_style_05CB473E56377372E86E</styleUrl>
		</Pair>
	</StyleMap>
	<Folder id="53EC34D32C000001">
		<name>Camminatori</name>
		<open>1</open>
		<styleUrl>#__managed_style_0FE7AAEB78377372E86C</styleUrl>
		<Placemark id="53EC34D32C000002">
			<name>traccia camminatori</name>
			<styleUrl>#__managed_style_0FE7AAEB78377372E86C</styleUrl>
			<LineString>
				<coordinates>
					14.777802,41.131418,197.636 14.777845,41.131469,197.617 14.777921,41.1315,197.618 14.777968,41.131549,197.609 14.778008,41.131598,197.615 14.778034,41.131644,197.653 14.778076,41.131682,197.629 14.778123,41.13172,197.663 14.778175,41.131757,197.872 14.778224,41.131803,199.844 14.778268,41.13184,200.322 14.778332,41.131859,198.494 14.778384,41.131883,198.024 14.778429,41.131923,200.442 14.778469,41.13196,201.122 14.77845,41.132004,202.014 14.778391,41.131974,198.109 14.778341,41.132017,199.476 14.778286,41.131988,201.964 14.77823,41.132009,203.42 14.778326,41.131972,202.314 14.778398,41.131967,201.543 14.778465,41.13196,196.485 14.778522,41.131982,194.433 14.778561,41.13202,194.065 14.778604,41.132054,192.945 14.778644,41.132095,193.143 14.778685,41.132128,193.164 14.778725,41.132168,195.71 14.778773,41.132198,196.809 14.778818,41.13223,198.426 14.778869,41.132268,197.314 14.778919,41.132306,196.27 14.77897,41.132339,195.714 14.77903,41.132364,194.663 14.779086,41.132395,194.015 14.779151,41.132412,193.983 14.779219,41.132408,193.125 14.779281,41.132413,192.915 14.779347,41.132433,191.881 14.779396,41.132463,191.361 14.77944,41.132502,191.817 14.779473,41.132544,192.009 14.779463,41.132595,192.31 14.779485,41.132643,191.538 14.779527,41.132683,190.944 14.779587,41.132698,191.218 14.779649,41.132723,191.087 14.779716,41.132733,191.679 14.779776,41.132735,190.527 14.779847,41.13273,190.989 14.779915,41.13272,192.499 14.779974,41.13271,192.016 14.780048,41.132704,191.876 14.78012,41.1327,191.613 14.780187,41.132696,191.509 14.780247,41.132692,192.093 14.780309,41.132675,192.861 14.780363,41.13264,195.437 14.78043,41.132618,196.261 14.78049,41.132604,197.12 14.780547,41.132575,198.512 14.780607,41.13255,199.96 14.780661,41.132528,200.112 14.780722,41.132519,200.142 14.78078,41.132507,200.549 14.780847,41.132487,201.402 14.780904,41.132469,202.622 14.780966,41.132448,203.209 14.781029,41.13244,202.386 14.781099,41.132424,201.784 14.781164,41.132404,200.61 14.781236,41.132383,199.254 14.781301,41.132369,198.883 14.781362,41.132356,198.525 14.781425,41.132343,199.183 14.781483,41.132327,200.025 14.781542,41.132311,200.635 14.781599,41.132293,200.417 14.781661,41.132278,200.287 14.781723,41.132266,201.015 14.78178,41.132253,201.509 14.781839,41.132235,202.973 14.781897,41.132223,202.711 14.781957,41.132203,201.347 14.782029,41.132207,201.531 14.78209,41.132176,201.81 14.782151,41.132152,202.042 14.78221,41.132133,203.02 14.782271,41.132116,203.722 14.782329,41.132093,204.012 14.782387,41.132075,203.921 14.782449,41.132059,204.141 14.782509,41.132041,204.405 14.782567,41.132021,204.509 14.782626,41.132002,204.334 14.782689,41.13199,204.052 14.782758,41.131968,201.938 14.78282,41.131954,200.952 14.782884,41.13195,200.821 14.782949,41.131947,200.533 14.783016,41.131946,200.661 14.783083,41.131944,201.063 14.783154,41.131941,201.063 14.783222,41.131935,201.042 14.783286,41.13193,200.722 14.78335,41.131927,200.914 14.783418,41.131916,202.209 14.783482,41.131915,202.516 14.783545,41.131913,202.144 14.783613,41.131915,201.92 14.783678,41.131924,200.514 14.783743,41.131931,200.243 14.783807,41.131937,200.195 14.783868,41.13195,200.643 14.783928,41.131963,200.995 14.783985,41.131977,200.815 14.784046,41.131987,200.848 14.784104,41.131999,200.261 14.784174,41.132017,200.317 14.784247,41.132031,200.209 14.784321,41.132035,199.826 14.784388,41.132041,199.334 14.78445,41.132049,198.88 14.784514,41.132062,198.484 14.784571,41.132076,197.923 14.784649,41.132089,198.495 14.78472,41.132098,197.633 14.784791,41.132104,197.985 14.78486,41.132109,197.845 14.78492,41.132115,198.117 14.784992,41.132123,198.887 14.785066,41.13213,199.415 14.785135,41.13213,199.709 14.785205,41.132132,200.273 14.785276,41.132128,200.541 14.785346,41.132122,201.937 14.785412,41.132116,201.751 14.785478,41.13211,202.89 14.785549,41.132095,203.152 14.785619,41.132075,204.09 14.785679,41.132052,203.192 14.785743,41.132026,203.612 14.785807,41.131997,204.642 14.785864,41.131973,203.822 14.785933,41.131953,203.214 14.785996,41.131941,202.709 14.786046,41.131912,202.356 14.786094,41.131876,202.054 14.786129,41.131838,201.64 14.786179,41.131806,201.654 14.786229,41.131773,202.183 14.786281,41.131742,202.945 14.786331,41.131709,203.763 14.786378,41.131676,204.595 14.786426,41.131634,205.655 14.786475,41.131601,206.724 14.78653,41.131572,208.104 14.786585,41.131543,207.814 14.786631,41.13151,207.509 14.786671,41.131476,206.844 14.786734,41.131459,206.592 14.786788,41.131436,207.488 14.786837,41.131408,207.532 14.786891,41.131382,207.941 14.786942,41.13135,207.713 14.787001,41.131323,207.211 14.787061,41.131307,207.493 14.787128,41.1313,208.053 14.787196,41.131295,207.691 14.787263,41.131286,206.581 14.787314,41.131257,206.219 14.787361,41.131219,206.909 14.78737,41.131174,204.941 14.787381,41.131128,204.279 14.787416,41.13108,203.785 14.787459,41.131048,204.179 14.787504,41.131017,204.918 14.78755,41.130984,205.39 14.787594,41.130952,205.628 14.787642,41.130921,205.67 14.787692,41.130895,206.06 14.78774,41.130867,206.594 14.787794,41.130833,207.457 14.787839,41.130801,209.722 14.787882,41.130764,212.809 14.787933,41.130729,213.831 14.787989,41.130696,216.339 14.788047,41.130662,217.485 14.788098,41.130624,219.099 14.788147,41.130586,220.498 14.788198,41.130548,221.79 14.788244,41.130517,221.748 14.788288,41.130479,223.83 14.788335,41.130441,223.11 14.788391,41.130406,220.536 14.788444,41.130384,218.217 14.788508,41.130353,216.718 14.788565,41.130323,215.709 14.788626,41.130296,215.675 14.78868,41.130258,216.133 14.788727,41.130226,216.139 14.788783,41.1302,215.273 14.788836,41.130173,216.272 14.788895,41.130149,217.494 14.788951,41.130129,216.872 14.789009,41.130104,216.914 14.789066,41.130079,218.744 14.789121,41.130054,220.785 14.789174,41.130022,221.989 14.789219,41.129987,223.617 14.78927,41.129961,223.209 14.789335,41.129973,221.82 14.789398,41.129944,221.188 14.789457,41.129916,220.584 14.789514,41.129885,220.778 14.789573,41.129862,220.247 14.789628,41.129838,218.179 14.789695,41.129819,217.387 14.789758,41.129799,217.569 14.78982,41.129774,216.479 14.789887,41.129758,215.213 14.789952,41.129745,215.343 14.790016,41.129738,216.007 14.79007,41.129718,215.309 14.790133,41.129708,215.453 14.790192,41.129686,216.021 14.790248,41.129655,216.397 14.790304,41.129624,217.691 14.790348,41.129583,218.91 14.790408,41.129554,220.232 14.790466,41.129518,221.21 14.790526,41.129514,223.492 14.790586,41.129489,225.122 14.790639,41.129462,226.582 14.790699,41.129444,226.543 14.790754,41.12942,224.517 14.790814,41.129403,221.709 14.790869,41.129377,221.61 14.790931,41.129355,219.158 14.790979,41.129326,219.164 14.79105,41.129315,220.218 14.791115,41.129293,223.127 14.791177,41.129278,224.569 14.791234,41.129257,224.727 14.791276,41.129222,224.079 14.791346,41.129215,222.079 14.791411,41.129203,223.563 14.791466,41.129181,223.544 14.791538,41.129173,219.218 14.791582,41.129138,219.809 14.791636,41.129109,219.858 14.791691,41.129081,219.436 14.791748,41.129057,218.992 14.791799,41.129032,218.126 14.791855,41.129008,218.285 14.791914,41.128986,217.447 14.791977,41.12896,216.685 14.792043,41.128941,217.847 14.792117,41.128947,218.937 14.792181,41.128954,218.891 14.792226,41.128996,221.981 14.792277,41.129033,223.019 14.792311,41.128992,220.809 14.792357,41.128961,221.671 14.792414,41.128934,222.169 14.79248,41.128909,222.455 14.792539,41.128882,222.279 14.792597,41.128854,222.398 14.79266,41.128833,221.67 14.792725,41.128816,221.328 14.792782,41.128796,221.23 14.792853,41.12878,220.41 14.792913,41.128763,220.041 14.792973,41.12875,220.081 14.79303,41.128731,220.109 14.793094,41.128723,220.709 14.793145,41.12875,221.396 14.793206,41.128761,222.634 14.79326,41.128736,222.65 14.793317,41.128706,223.034 14.793383,41.128687,222.423 14.793447,41.128667,222.355 14.793508,41.12865,221.553 14.793568,41.128631,220.245 14.793638,41.128612,219.695 14.793697,41.128598,220.446 14.793758,41.128586,221.188 14.793818,41.128591,221.116 14.793867,41.128629,221.909 14.793893,41.128676,222.276 14.793936,41.128708,223.284 14.794003,41.128732,223.94 14.794053,41.12877,223.694 14.794072,41.128813,223.353 14.794093,41.128859,222.455 14.794113,41.128902,222.143 14.794123,41.128955,222.055 14.79416,41.129001,221.925 14.794188,41.129049,222.495 14.794244,41.129074,223.049 14.794313,41.129053,224.523 14.794368,41.129033,224.809 14.794433,41.129045,224.411 14.794483,41.129071,225.369 14.794534,41.129106,224.865 14.794592,41.129138,225.099 14.794656,41.129157,224.418 14.794718,41.129174,224.34 14.794779,41.129197,223.418 14.794845,41.129209,222.86 14.794905,41.129214,222.29 14.794975,41.129202,221.225 14.795034,41.129175,221.526 14.795091,41.12914,221.608 14.795143,41.129107,221.709 14.795194,41.129078,221.494 14.795245,41.129047,221.492 14.795302,41.129011,221.128 14.795357,41.128977,221.322 14.795402,41.128946,220.481 14.795456,41.128911,220.163 14.795522,41.128889,220.111 14.795583,41.128891,220.453 14.795644,41.128921,219.193 14.795694,41.12896,219.158 14.795734,41.128996,218.852 14.795773,41.129032,215.817 14.795809,41.12907,214.809 14.795845,41.129112,213.527 14.795886,41.129153,212.835 14.795933,41.129189,212.981 14.79598,41.129225,213.185 14.796025,41.129258,213.214 14.796086,41.129261,213.766 14.796151,41.129266,214.324 14.796213,41.129266,215.036 14.796273,41.129261,214.946 14.796341,41.129253,214.812 14.796408,41.129252,214.732 14.796475,41.129254,215.005 14.796538,41.129253,214.709 14.796607,41.129245,215.083 14.796679,41.129237,214.761 14.796749,41.12924,214.967 14.796817,41.129254,215.671 14.796884,41.129268,215.85 14.796951,41.129285,215.472 14.79702,41.129297,215.31 14.797082,41.129315,215.042 14.797144,41.129333,214.832 14.797201,41.129356,214.639 14.797253,41.129382,214.501 14.797309,41.129405,215.321 14.79736,41.12943,215.709 14.797414,41.129458,216.045 14.797481,41.129485,217.223 14.797557,41.129488,218.319 14.797623,41.129512,217.863 14.797668,41.129554,217.032 14.797713,41.129592,216.564 14.797753,41.129636,215.982 14.797789,41.129676,215.854 14.797829,41.129712,216.174 14.797866,41.129751,216.317 14.797905,41.129787,217.387 14.797949,41.129821,217.915 14.797995,41.129854,217.509 14.798038,41.12989,217.943 14.798082,41.129925,218.031 14.798129,41.129955,218.357 14.798178,41.129982,218.811 14.798227,41.130014,219.31 14.798276,41.13004,220.082 14.798325,41.130069,219.89 14.798378,41.130094,220.492 14.798432,41.130118,221.322 14.798484,41.130146,222.798 14.798538,41.13017,223.215 14.798592,41.130193,223.626 14.798646,41.130213,224.109 14.798712,41.130219,224.281 14.798775,41.130228,224.649 14.798833,41.130252,224.595 14.798881,41.130293,225.719 14.798943,41.130316,224.368 14.799001,41.130296,225.05 14.799062,41.130294,225.638 14.799126,41.130291,225.67 14.799187,41.130278,226.09 14.799239,41.130246,225.923 14.799299,41.130223,225.583 14.799371,41.130218,225.811 14.799439,41.130216,225.309 14.799505,41.130216,225.524 14.799572,41.130213,225.372 14.799639,41.130208,225.548 14.799699,41.130201,224.362 14.79976,41.130189,224.051 14.799819,41.130167,223.683 14.799876,41.130141,223.411 14.799932,41.130117,223.393 14.799988,41.130097,224.423 14.800039,41.130068,224.356 14.800092,41.130041,223.859 14.800146,41.13001,223.314 14.800199,41.129986,222.209 14.80025,41.129957,221.727 14.800297,41.129926,221.755 14.800344,41.129893,221.261 14.800391,41.129854,221.055 14.800436,41.129819,221.324 14.800473,41.129779,221.376 14.80051,41.129735,220.954 14.800548,41.129693,222.596 14.800583,41.12965,223.256 14.800622,41.129609,222.553 14.800655,41.129567,221.404 14.800672,41.129522,221.314 14.800684,41.129475,221.309 14.800693,41.129429,220.437 14.800714,41.129383,218.645 14.800716,41.129333,216.371 14.800717,41.129278,214.535 14.800714,41.129224,213.274 14.800708,41.129168,211.916 14.800712,41.129123,210.344 14.800706,41.129076,209.836 14.8007,41.129028,209.146 14.800702,41.128979,208.862 14.800696,41.128929,208.683 14.800697,41.128881,208.311 14.800697,41.128831,208.409 14.800702,41.128783,208.748 14.8007,41.128738,207.756 14.800693,41.128691,208.012 14.800686,41.128644,207.696 14.800677,41.128597,207.925 14.80067,41.12855,207.957 14.800659,41.128504,208.185 14.800643,41.128455,208.227 14.800635,41.128407,207.677 14.800623,41.128357,207.341 14.80061,41.128308,207.681 14.800596,41.128262,207.809 14.800582,41.128215,208.109 14.800569,41.128168,207.756 14.80056,41.128122,207.324 14.800539,41.128075,207.24 14.800523,41.128026,207.684 14.800509,41.127981,207.063 14.800491,41.127936,207.145 14.800471,41.127889,207.393 14.800449,41.127843,207.725 14.800441,41.127793,208.615 14.800415,41.127749,208.474 14.800398,41.127704,208.956 14.800385,41.127656,208.021 14.800371,41.127607,207.909 14.800364,41.127558,207.529 14.800355,41.127507,207.547 14.800363,41.127452,208.373 14.800373,41.127396,208.567 14.800401,41.127348,208.966 14.800434,41.127305,209.078 14.800467,41.127256,209.856 14.800509,41.127218,210.478 14.800563,41.127193,210.468 14.800619,41.127161,211.099 14.800669,41.127125,211.507 14.800739,41.127105,212.827 14.800787,41.12707,212.409 14.800854,41.127048,213.891 14.800896,41.127013,216.589 14.800962,41.127013,215.565 14.80102,41.126992,215.799 14.80108,41.126993,212.278 14.80114,41.126987,210.55 14.80121,41.126985,209.298 14.801279,41.126989,208.27 14.801348,41.126977,208.12 14.801417,41.126964,207.183 14.801481,41.126946,206.425 14.801545,41.12693,206.317 14.801593,41.126896,207.509 14.801666,41.12689,206.28 14.80174,41.126888,205.668 14.801802,41.126881,205.174 14.801869,41.126868,204.658 14.801942,41.126856,204.257 14.802013,41.126841,203.449 14.802075,41.126834,202.527 14.802134,41.126823,202.019 14.802197,41.126812,201.379 14.802257,41.126798,201.125 14.802315,41.126785,200.426 14.802374,41.126772,199.208 14.802443,41.126752,198.809 14.802501,41.126735,198.814 14.802561,41.12672,198.592 14.80263,41.126711,199.218 14.802687,41.126696,198.832 14.802749,41.126685,199.421 14.802819,41.126672,199.993 14.802876,41.126654,199.061 14.802938,41.126641,198.313 14.802999,41.126626,198.473 14.803061,41.126616,198.821 14.803123,41.126606,199.541 14.803182,41.126593,199.605 14.803243,41.126581,200.209 14.803306,41.126572,199.444 14.803372,41.126561,200.282 14.803438,41.126557,200.288 14.803499,41.126553,200.782 14.803572,41.126543,201.091 14.803634,41.126536,200.533 14.803694,41.12652,199.441 14.803755,41.126507,199.533 14.80382,41.126493,199.273 14.803885,41.12648,199.148 14.80395,41.126472,198.861 14.804016,41.126467,199.217 14.80408,41.126456,198.809 14.80414,41.126448,198.076 14.804201,41.12644,197.824 14.804265,41.126427,198.66 14.804325,41.126414,200.554 14.804388,41.126401,199.743 14.804452,41.126397,199.695 14.804518,41.12639,200.813 14.804579,41.126385,200.585 14.804646,41.126388,201.095 14.804714,41.126384,202.171 14.804783,41.126382,202.541 14.804849,41.126383,202.415 14.804913,41.126383,202.809 14.80498,41.126378,203.899 14.805045,41.126374,203.577 14.805105,41.12637,202.913 14.805169,41.126364,203.797 14.805235,41.126358,204.566 14.805298,41.126342,205.248 14.805355,41.126324,205.046 14.805416,41.12632,205.338 14.805485,41.126306,205.228 14.805557,41.126296,205.946 14.805622,41.126301,205.488 14.805684,41.126306,205.816 14.805744,41.126302,207.109 14.805817,41.126295,207.986 14.805893,41.126292,208.964 14.805959,41.126291,208.86 14.806019,41.126286,209.854 14.806086,41.12629,210.543 14.806146,41.126284,210.915 14.80621,41.126282,211.733 14.806272,41.126272,212.415 14.806336,41.126262,212.465 14.806394,41.12625,212.256 14.806467,41.126241,211.359 14.806538,41.126231,209.814 14.806598,41.126225,210.409 14.806658,41.12622,210.947 14.806721,41.126212,210.765 14.806792,41.126194,211.681 14.806863,41.126179,212.995 14.806926,41.126169,213.384 14.806993,41.126161,213.216 14.807053,41.126157,214.094 14.807122,41.12615,214.846 14.807193,41.126145,215.386 14.807262,41.126131,215.858 14.807335,41.126127,216.352 14.807399,41.126127,216.917 14.807461,41.126126,217.309 14.80752,41.126116,217.887 14.807582,41.126125,217.345 14.807639,41.12611,218.281 14.807697,41.126099,218.625 14.807762,41.126087,219.284 14.807827,41.12607,219.736 14.807884,41.126047,220.444 14.807948,41.126024,220.316 14.808012,41.12602,220.256 14.808073,41.126003,221.289 14.808133,41.125979,222.506 14.80819,41.125961,223.126 14.808256,41.125936,224.009 14.808312,41.125919,224.87 14.80837,41.125902,225.098 14.808427,41.125884,225.534 14.808478,41.125861,226.098 14.808542,41.125832,227.277 14.808594,41.125809,228.249 14.808654,41.125783,228.897 14.80872,41.125757,229.459 14.808781,41.125738,229.699 14.808846,41.125716,230.392 14.808915,41.125701,230.673 14.808973,41.125686,230.82 14.80904,41.125668,232.009 14.809108,41.125657,232.451 14.809171,41.125644,233.619 14.809242,41.12564,234.355 14.809302,41.125634,234.539 14.809375,41.12563,235.928 14.809437,41.125638,237.29 14.809502,41.125641,237.938 14.809577,41.125644,238.54 14.809638,41.125647,239.43 14.809703,41.125647,239.874 14.809768,41.125649,239.456 14.80983,41.125652,239.121 14.80989,41.125647,239.409 14.809953,41.125643,239.719 14.810016,41.125639,240.447 14.810078,41.125634,241.033 14.810139,41.125629,240.987 14.810203,41.125628,240.756 14.810263,41.125625,241.218 14.81033,41.12561,242.986 14.810391,41.125624,243.068 14.81045,41.125634,243.238 14.81051,41.125648,243.111 14.810582,41.125655,243.021 14.810653,41.125666,243.603 14.810714,41.125675,243.809 14.810786,41.125687,245.253 14.810845,41.125697,245.161 14.810908,41.125705,245.247 14.810968,41.125702,245.881 14.81103,41.125698,246.11 14.811103,41.12569,247.252 14.811164,41.125683,247.82 14.811229,41.125675,248.212 14.811289,41.125669,248.042 14.811353,41.125663,248.326 14.811417,41.125657,248.347 14.811482,41.125651,248.411 14.811545,41.125644,248.009 14.811612,41.12564,248.214 14.811678,41.125636,248.152 14.811744,41.125633,248.168 14.811807,41.125626,248.562 14.811871,41.125623,249.061 14.811938,41.125617,249.733 14.812009,41.12561,250.051 14.812072,41.125603,250.183 14.812134,41.125593,250.033 14.812201,41.125589,249.421 14.812269,41.125585,250.141 14.812334,41.125581,250.205 14.8124,41.125574,250.309 14.812466,41.125573,249.714 14.812531,41.125568,249.542 14.812598,41.125561,248.918 14.812665,41.125558,248.692 14.81273,41.125553,249.091 14.812797,41.125546,248.933 14.812865,41.125543,248.721 14.812928,41.125542,248.223 14.812995,41.125532,248.673 14.813063,41.125527,248.772 14.81313,41.125524,248.713 14.813191,41.125516,248.314 14.813256,41.125513,248.409 14.813321,41.125507,248.849 14.813385,41.125493,249.027 14.813448,41.125494,249.243 14.813513,41.125492,249.577 14.813578,41.125489,249.316 14.81364,41.125482,249.438 14.813708,41.125473,249.736 14.813777,41.125471,249.988 14.813843,41.12547,250.348 14.813908,41.125462,250.939 14.813976,41.125458,250.501 14.814046,41.125466,250.621 14.814106,41.125457,251.409 14.814168,41.125447,251.145 14.814232,41.125442,251.693 14.814294,41.125436,251.659 14.814357,41.125434,252.423 14.814422,41.125432,252.822 14.814487,41.125434,253.254 14.814547,41.12544,253.062 14.814612,41.125448,253.254 14.814677,41.125453,252.944 14.814741,41.125456,251.943 14.814809,41.125457,251.664 14.814874,41.125457,252.21 14.814947,41.12546,252.709 14.81502,41.125461,253.346 14.815082,41.125463,253.214 14.815144,41.125464,253.29 14.815215,41.12547,253.854 14.815276,41.125474,253.893 14.815336,41.125475,253.945 14.815399,41.125463,254.273 14.815464,41.125468,254.165 14.815529,41.125468,254.285 14.815591,41.125466,254.353 14.815657,41.125466,254.104 14.815726,41.12547,253.614 14.81579,41.12547,253.009 14.815852,41.125468,252.897 14.815913,41.125465,252.945 14.815972,41.12547,253.371 14.816046,41.125462,253.445 14.816116,41.125478,253.474 14.81618,41.125489,252.986 14.816246,41.125501,252.344 14.816307,41.125511,251.616 14.816368,41.125514,251.476 14.816429,41.125516,251.142 14.81649,41.125512,250.722 14.816553,41.125517,250.914 14.816617,41.125506,249.709 14.816679,41.12549,249.156 14.816744,41.125471,249.244 14.816815,41.125454,248.91 14.816878,41.125446,248.944 14.816941,41.125434,248.853 14.817002,41.125422,247.845 14.817066,41.125417,246.853 14.817139,41.125405,246.195 14.817202,41.125397,245.435 14.817271,41.125382,244.842 14.817332,41.125375,243.622 14.817394,41.125354,244.214 14.817452,41.12534,243.509 14.817516,41.125323,243.146 14.81758,41.125298,243.694 14.817639,41.125279,243.07 14.817695,41.12526,242.474 14.817748,41.125232,243.123 14.817802,41.1252,243.945 14.817857,41.125171,243.873 14.81792,41.125143,243.245 14.817987,41.125148,241.645 14.818026,41.125102,239.088 14.81808,41.125066,239.224 14.81814,41.125044,241.226 14.818203,41.125028,240.909 14.818272,41.125011,241.25 14.818334,41.124987,240.948 14.818397,41.124971,241.124 14.818454,41.124948,241.418 14.818517,41.124926,241.417 14.81859,41.124913,240.379 14.818663,41.124892,240.647 14.818732,41.124876,241.749 14.818801,41.124869,241.979 14.818874,41.124868,243.447 14.818934,41.124858,243.829 14.818995,41.124851,245.021 14.819057,41.12485,245.209 14.819122,41.124852,245.536 14.819184,41.124853,245.764 14.819244,41.12486,245.99 14.819313,41.124865,246.394 14.819382,41.124875,247.283 14.819445,41.124886,247.855 14.81951,41.124891,248.723 14.819575,41.124894,249.895 14.819635,41.124902,250.665 14.819698,41.124914,251.258 14.819766,41.124934,251.652 14.819831,41.124951,252.017 14.819888,41.124967,252.309 14.819954,41.124983,252.797 14.820015,41.124991,253.245 14.820087,41.124997,254.071 14.820157,41.12501,255.265 14.820218,41.12502,256.034 14.820284,41.125029,256.546 14.820357,41.12503,256.774 14.820417,41.125028,256.866 14.820479,41.125027,257.546 14.82054,41.12502,257.985 14.820598,41.125006,258.089 14.820663,41.125001,258.117 14.820727,41.12499,258.409 14.82079,41.124975,258.59 14.820853,41.124959,258.998 14.820915,41.124944,259.064 14.820974,41.124927,258.948 14.821034,41.124912,259.097 14.821106,41.124894,259.339 14.82117,41.124877,259.667 14.821228,41.12486,259.529 14.821289,41.124845,260.019 14.821358,41.12483,260.435 14.82142,41.124809,260.686 14.821483,41.12479,260.814 14.821547,41.124772,261.109 14.821608,41.124754,261.655 14.821671,41.124738,262.193 14.821734,41.124722,262.319 14.821794,41.124706,262.793 14.821857,41.124692,262.952 14.82192,41.124674,263.044 14.821981,41.124654,263.312 14.822039,41.124634,263.574 14.822098,41.124617,263.854 14.822154,41.1246,263.648 14.822223,41.124577,263.661 14.822285,41.12458,263.917 14.822348,41.12458,263.309 14.822405,41.124558,264.146 14.822463,41.12454,263.634 14.822392,41.124554,262.45 14.822324,41.124567,262.354 14.822257,41.124578,262.153 14.822193,41.124584,262.045 14.822133,41.124567,262.393 14.8221,41.124527,262.875 14.822093,41.12448,263.095 14.822099,41.124431,263.343 14.8221,41.124386,263.364 14.822111,41.12434,264.11 14.822131,41.124294,264.209 14.822146,41.124247,263.836 14.822164,41.124196,263.514 14.822188,41.124146,263.55 14.822206,41.124096,263.724 14.822222,41.124046,264.343 14.822235,41.123993,264.445 14.822241,41.12394,264.673 14.822251,41.123888,264.795 14.822277,41.123842,265.135 14.822296,41.123792,264.964 14.822318,41.123742,264.806 14.822339,41.123693,265.216 14.822353,41.123641,265.209 14.822368,41.12359,265.518 14.822383,41.123543,265.386 14.822396,41.123494,265.272 14.822412,41.123443,265.356 14.822429,41.123395,265.175 14.822446,41.123344,265.097 14.82246,41.123294,264.935 14.822481,41.123242,265.357 14.822496,41.12319,265.567 14.822516,41.123142,265.694 14.822526,41.123094,265.457 14.82254,41.123043,265.622 14.822554,41.12299,265.709 14.822569,41.122936,266.021 14.822586,41.122887,265.739 14.822606,41.122836,265.765 14.822622,41.122791,266.089 14.822633,41.122746,265.858 14.822647,41.122698,266.41 14.822662,41.122648,266.288 14.822678,41.122602,265.99 14.822693,41.122553,265.64 14.822711,41.122506,265.744 14.822724,41.122457,265.805 14.822736,41.122401,265.315 14.82276,41.122353,265.109 14.822776,41.122303,265.276 14.822794,41.122253,265.454 14.822799,41.122205,265.22 14.822813,41.122153,265.984 14.822828,41.122099,265.813 14.822846,41.122046,265.815 14.822866,41.121995,266.153 14.822887,41.121948,266.515 14.822907,41.121898,267.025 14.822936,41.121847,267.433 14.822963,41.121799,267.423 14.822982,41.121753,267.415 14.823004,41.121705,266.909 14.823032,41.121656,266.135 14.823054,41.121609,266.213 14.823075,41.121559,265.889 14.823101,41.121514,266.753 14.823128,41.121467,266.412 14.823154,41.121415,266.244 14.823174,41.121365,266.752 14.823199,41.121319,267.134 14.823223,41.121273,267.674 14.823246,41.121225,267.826 14.823271,41.121175,268.247 14.823292,41.121124,268.111 14.823324,41.121077,268.109 14.823345,41.121026,268.454 14.823369,41.120975,268.642 14.823395,41.120927,268.458 14.823417,41.120878,268.562 14.823441,41.120832,268.791 14.823464,41.120784,269.133 14.823488,41.120737,268.921 14.823514,41.12069,268.923 14.823536,41.12064,269.123 14.823558,41.120588,269.323 14.823583,41.120536,269.583 14.823609,41.120483,269.811 14.823633,41.120433,270.109 14.823659,41.120384,270.034 14.82369,41.120336,269.362 14.823718,41.120286,269.268 14.823745,41.120237,269.282 14.823774,41.120188,269.221 14.823795,41.120139,269.493 14.823818,41.12009,269.371 14.823846,41.12004,269.663 14.823871,41.11999,269.513 14.823899,41.11994,269.563 14.823925,41.119893,268.944 14.823956,41.119849,268.918 14.823985,41.119804,269.009 14.824013,41.119758,268.988 14.824037,41.11971,269.116 14.824055,41.119659,269.332 14.824082,41.119609,269.666 14.824104,41.119564,269.875 14.824127,41.119518,270.277 14.824148,41.119467,270.785 14.824178,41.119414,270.767 14.824203,41.119368,270.517 14.824222,41.119321,270.524 14.824244,41.11927,270.704 14.824263,41.11922,270.914 14.824271,41.119168,271.609 14.824277,41.119119,271.424 14.824281,41.11907,271.632 14.824279,41.119017,272.048 14.824278,41.118963,272.322 14.824291,41.11891,272.761 14.824285,41.118861,273.033 14.824271,41.118809,273.561 14.824281,41.118764,273.783 14.824278,41.118715,273.893 14.82427,41.118668,274.063 14.824264,41.118621,273.444 14.824262,41.118573,273.018 14.824252,41.118523,273.209 14.824241,41.118472,273.638 14.824236,41.11842,273.536 14.824224,41.118373,273.492 14.824213,41.118324,273.666 14.824211,41.118276,273.425 14.824204,41.118224,273.467 14.824204,41.118177,273.395 14.82421,41.118131,273.337 14.824198,41.118081,273.797 14.824196,41.118028,273.764 14.824206,41.117973,274.206 14.824195,41.117919,274.616 14.824181,41.117865,275.209 14.824172,41.117816,275.598 14.824155,41.117771,275.396 14.824146,41.117725,275.642 14.82413,41.117678,275.966 14.824117,41.117633,276.495 14.824109,41.117588,276.287 14.824101,41.117538,276.325 14.8241,41.11749,275.937 14.824097,41.117443,275.787 14.824093,41.117397,276.279 14.824089,41.11735,276.005 14.824089,41.117295,275.325 14.824079,41.117246,275.709 14.824079,41.117199,275.579 14.824065,41.117147,275.647 14.824056,41.117098,275.653 14.824044,41.117045,276.237 14.824028,41.116992,276.516 14.824025,41.116943,276.828 14.824013,41.116893,277.236 14.824001,41.11684,277.888 14.823997,41.116791,278.028 14.823992,41.116743,277.741 14.823983,41.116692,277.381 14.823976,41.116641,277.609 14.823968,41.116591,277.809 14.823959,41.116536,278.326 14.823951,41.116483,278.674 14.823946,41.116431,278.92 14.823941,41.11638,279.494 14.823947,41.116331,279.423 14.823955,41.116284,279.455 14.823969,41.116237,279.273 14.823983,41.116191,279.175 14.824002,41.116146,279.615 14.824018,41.116098,279.975 14.824042,41.116054,281.128 14.824073,41.116012,280.32 14.824082,41.115967,281.109 14.824099,41.115923,281.729 14.824114,41.115877,281.457 14.824132,41.115828,281.253 14.824144,41.115776,281.167 14.824157,41.115727,280.926 14.824174,41.115677,280.748 14.824191,41.115628,280.826 14.824208,41.115576,280.788 14.824226,41.115525,280.568 14.824242,41.115471,281.182 14.824263,41.11542,281.343 14.824277,41.11537,281.517 14.824293,41.115323,281.709 14.824312,41.115275,281.44 14.824328,41.115228,281.238 14.824348,41.115179,281.394 14.824372,41.115129,281.428 14.824394,41.11508,281.997 14.824417,41.115029,281.729 14.824438,41.114981,282.067 14.824458,41.114934,282.519 14.824483,41.114888,283.059 14.824508,41.114839,283.314 14.824531,41.114787,283.854 14.824551,41.114737,284.309 14.824574,41.114688,284.409 14.824588,41.114637,285.293 14.824608,41.114587,285.551 14.824629,41.114539,286.277 14.824655,41.114493,285.921 14.82469,41.114451,284.68 14.824725,41.114412,284.352 14.824755,41.114368,284.04 14.824774,41.114323,284.312 14.824793,41.114276,284.442 14.824776,41.114227,284.749 14.824801,41.114174,285.302 14.824824,41.114122,285.422 14.824845,41.114077,285.809 14.82486,41.114027,286.396 14.824881,41.113975,286.854 14.824899,41.113927,287.38 14.824918,41.113879,287.874 14.824935,41.11383,287.933 14.824962,41.113782,287.895 14.824979,41.113735,288.013 14.824998,41.113687,288.015 14.825012,41.113638,288.545 14.825027,41.11359,288.651 14.825045,41.113543,288.701 14.825064,41.113495,289.311 14.825072,41.113444,289.809 14.825077,41.113393,289.817 14.82508,41.113342,290.345 14.825079,41.11329,290.751 14.82507,41.113242,291.125 14.82506,41.113194,291.264 14.82505,41.113149,292.086 14.825012,41.113113,292.044 14.824972,41.113075,292.186 14.824934,41.113038,291.716 14.824891,41.112991,291.668 14.824835,41.112957,289.942 14.824786,41.112926,290.026 14.824737,41.112899,289.609 14.824683,41.112875,289.318 14.824625,41.112853,289.656 14.824567,41.112831,289.062 14.824507,41.112811,288.546 14.824446,41.11279,288.255 14.824387,41.112765,288.117 14.824328,41.11274,288.395 14.824272,41.112714,287.847 14.824215,41.112684,287.377 14.824156,41.112658,287.298 14.824101,41.112631,287.115 14.824047,41.112605,287.326 14.823992,41.112577,286.909 14.823937,41.112551,286.571 14.823885,41.112521,286.379 14.823837,41.112488,286.355 14.823788,41.112455,286.249 14.823738,41.112421,286.268 14.823695,41.112384,286.43 14.82365,41.11235,286.398 14.823604,41.112316,286.54 14.823565,41.112279,286.24 14.823519,41.112243,286.262 14.823486,41.112205,286.283 14.823497,41.112159,287.211 14.823533,41.112111,287.409 14.823592,41.112086,287.178 14.823662,41.112076,285.996 14.823726,41.112063,285.832 14.823793,41.112055,285.526 14.823857,41.11205,285.235 14.823919,41.112046,284.437 14.823982,41.112041,284.635 14.824053,41.11203,284.297 14.824114,41.112022,284.887 14.824178,41.112018,286.013 14.824244,41.112018,286.043 14.824311,41.112003,285.507 14.824374,41.111993,284.909 14.824447,41.111989,284.883 14.824509,41.111992,286.081 14.824572,41.111993,286.437 14.824644,41.111985,286.761 14.824717,41.111973,286.16 14.824778,41.111962,286.952 14.824838,41.111953,287.89 14.824901,41.111943,287.852 14.824967,41.111939,288.142 14.825032,41.111927,287.417 14.825107,41.111918,288.387 14.82518,41.11191,288.015 14.825235,41.111891,286.809 14.825295,41.11188,286.333 14.825359,41.111874,286.251 14.825422,41.111871,286.677 14.825495,41.111865,286.151 14.825568,41.111857,286.02 14.82564,41.111853,287.862 14.825709,41.111856,288.26 14.825774,41.111862,288.512 14.82584,41.111868,289.242 14.825903,41.111876,288.849 14.825966,41.111885,289.402 14.826036,41.11189,289.122 14.826104,41.111905,289.209 14.826175,41.11191,289.076 14.82625,41.111916,288.754 14.826318,41.111914,289.12 14.826387,41.111916,289.244 14.826446,41.111909,289.013 14.826504,41.11189,288.785 14.826563,41.111872,289.273 14.826627,41.111866,289.095 14.82669,41.111858,289.125 14.826758,41.111848,289.567 14.826821,41.111837,290.181 14.826892,41.111825,290.419 14.826963,41.111812,290.509 14.827035,41.111805,291.238 14.827097,41.111797,291.146 14.82716,41.111788,291.022 14.827228,41.111778,290.636 14.827297,41.111767,291.095 14.827368,41.111754,291.527 14.827436,41.111742,291.465 14.827506,41.111731,291.747 14.827573,41.111718,291.537 14.827641,41.111708,291.565 14.827715,41.111699,290.868 14.827784,41.111685,291.814 14.827842,41.111673,291.409 14.827915,41.111664,291.818 14.827978,41.11165,292.116 14.828043,41.111635,292.262 14.828112,41.111619,292.596 14.82818,41.111607,291.765 14.828244,41.111596,291.057 14.828309,41.111586,290.665 14.828372,41.111568,291.587 14.828434,41.111564,291.377 14.828497,41.111558,291.583 14.828557,41.111553,292.125 14.828629,41.111554,291.517 14.828703,41.111559,291.209 14.828777,41.111559,290.69 14.828843,41.111565,290.698 14.82891,41.111579,290.944 14.828976,41.111596,291.278 14.829039,41.11162,291.487 14.829099,41.111642,291.479 14.829158,41.111658,291.577 14.829222,41.111677,291.579 14.829277,41.111698,291.169 14.829332,41.111723,290.568 14.829394,41.111745,290.842 14.82945,41.111767,291.626 14.829511,41.111785,292.509 14.829573,41.111814,292.378 14.829629,41.111836,291.816 14.829688,41.111857,292.082 14.829745,41.111881,291.276 14.829803,41.111903,290.275 14.829853,41.111933,290.097 14.829907,41.111962,289.915 14.829965,41.111994,289.787 14.830024,41.112022,289.497 14.830076,41.112052,289.126 14.830131,41.112081,289.047 14.830187,41.112108,288.411 14.830242,41.112142,287.809 14.830301,41.112163,287.564 14.830351,41.112199,287.022 14.830397,41.112239,286.488 14.830431,41.112284,285.752 14.830448,41.112331,285.841 14.830464,41.112382,286.113 14.830488,41.112434,286.031 14.830511,41.112485,286.023 14.830522,41.112535,285.393 14.83054,41.112585,285.547 14.83056,41.112634,285.429 14.830582,41.11268,285.421 14.830608,41.112725,285.609 14.830632,41.112772,285.446 14.830661,41.11282,285.934 14.830682,41.112867,285.69 14.830711,41.112915,285.854 14.83074,41.112962,286.253 14.830775,41.113007,285.645 14.830808,41.113047,285.083 14.830838,41.113091,284.425 14.830869,41.11313,283.625 14.830902,41.113173,283.693 14.830939,41.113221,284.065 14.830969,41.113268,283.921 14.830988,41.113315,283.109 14.83101,41.113357,282.451 14.831029,41.113407,282.899 14.831057,41.113454,282.075 14.831068,41.1135,282.769 14.831074,41.113554,282.858 14.831084,41.113602,283.33 14.831096,41.113649,283.098 14.831105,41.113703,282.06 14.831118,41.113749,281.86 14.831136,41.113798,281.486 14.831147,41.113847,280.46 14.831159,41.113896,280.426 14.831174,41.113946,281.309 14.831194,41.113998,281.24 14.831223,41.114048,280.328 14.831251,41.114093,279.234 14.83128,41.114139,278.898 14.831306,41.114186,278.517 14.831344,41.114229,278.649 14.831385,41.114275,278.997 14.831425,41.114318,278.629 14.831465,41.11436,278.679 14.831503,41.114401,278.554 14.831546,41.114441,278.856 14.831594,41.114479,278.811 14.83163,41.11452,279.009 14.831664,41.114563,278.627 14.831703,41.114605,278.655 14.831749,41.114646,278.941 14.831791,41.11469,279.465 14.831832,41.11473,279.484 14.831869,41.11477,279.076 14.83191,41.114808,279.854 14.831948,41.114846,280.316 14.831987,41.114886,280.416 14.832024,41.114932,280.797 14.832057,41.114974,281.323 14.832092,41.115016,281.725 14.832126,41.115054,281.409 14.832159,41.115097,281.731 14.832198,41.115138,282.059 14.832231,41.115182,282.045 14.832263,41.115227,281.649 14.832295,41.11527,281.168 14.832331,41.115313,280.71 14.832363,41.11536,281.358 14.832398,41.115405,281.27 14.83243,41.115451,282.28 14.832465,41.115494,281.932 14.832489,41.11554,281.192 14.832524,41.11558,281.811 14.832559,41.115625,281.809 14.832603,41.115668,281.945 14.832641,41.115708,282.063 14.832677,41.115749,281.769 14.832713,41.115793,281.533 14.83275,41.115835,281.962 14.832782,41.115879,282.134 14.832815,41.115921,282.732 14.832852,41.115963,282.814 14.832891,41.116,281.344 14.832927,41.116043,281.592 14.832974,41.116084,281.573 14.833018,41.116124,281.82 14.833057,41.116167,281.709 14.833094,41.116211,282.741 14.833129,41.116257,283.659 14.833172,41.116297,282.465 14.833217,41.116337,281.819 14.833263,41.116379,281.658 14.833303,41.116428,281.36 14.833343,41.11647,281.048 14.833386,41.116513,280.72 14.83343,41.116557,281.26 14.833477,41.116596,281.046 14.833516,41.116639,281.088 14.833564,41.116678,280.516 14.833607,41.11672,279.809 14.833653,41.11676,279.166 14.833699,41.116801,278.734 14.833744,41.11684,277.98 14.833787,41.116882,277.614 14.833826,41.116925,277.023 14.833857,41.116966,276.655 14.833892,41.117009,276.373 14.833928,41.117053,276.255 14.833968,41.117093,276.225 14.834013,41.117126,276.116 14.834057,41.11716,276.476 14.834112,41.117192,277.213 14.834143,41.117233,277.109 14.834179,41.117274,277.313 14.834219,41.117316,277.241 14.834257,41.117356,277.147 14.834294,41.117395,277.461 14.834328,41.117435,277.61 14.834363,41.117476,277.532 14.834397,41.11752,277.88 14.834436,41.117562,278.162 14.834477,41.117602,277.882 14.83451,41.117646,277.697 14.834546,41.117692,277.723 14.834584,41.117732,277.625 14.834623,41.117775,277.609 14.834656,41.117817,277.681 14.834702,41.117861,277.569 14.834717,41.117909,279.895 14.83476,41.117947,279.839 14.834807,41.117981,280.038 14.834844,41.118021,280.63 14.834864,41.118068,280.568 14.83489,41.118113,280.83 14.834922,41.118157,280.65 14.834934,41.118204,281.181 14.834941,41.118255,281.361 14.834955,41.118306,281.017 14.834993,41.118348,280.609 14.835005,41.1184,280.79 14.835022,41.118455,281.488 14.835029,41.118503,281.664 14.835041,41.118553,282.028 14.835051,41.118606,281.957 14.835065,41.118655,281.839 14.835074,41.118706,281.747 14.835088,41.118755,281.839 14.835103,41.118804,281.299 14.83511,41.118853,280.726 14.835109,41.118902,280.647 14.835108,41.11895,280.311 14.835113,41.118998,280.209 14.835115,41.119048,280.474 14.835109,41.119097,280.152 14.835095,41.119146,279.628 14.835082,41.119193,279.162 14.835066,41.119245,279.071 14.835049,41.119292,278.173 14.835025,41.119338,277.351 14.835002,41.119385,276.623 14.834975,41.11943,275.863 14.834944,41.119474,275.178 14.83492,41.119518,274.933 14.834893,41.119563,274.926 14.83487,41.119607,275.009 14.834848,41.119656,274.849 14.834809,41.119702,272.447 14.834768,41.11975,273.053 14.834727,41.119796,273.427 14.834676,41.119837,273.216 14.83463,41.119878,273.378 14.834584,41.119916,273.466 14.834534,41.119947,273.448 14.834482,41.119982,273.538 14.834434,41.120019,273.691 14.834381,41.120054,273.881 14.834332,41.12009,273.819 14.83428,41.120125,273.709 14.834224,41.120153,273.711 14.834174,41.120187,273.439 14.834125,41.12022,273.495 14.83407,41.120258,273.479 14.834013,41.120294,273.958 14.833963,41.120331,273.84 14.833905,41.120368,274.368 14.833846,41.120405,275.12 14.833793,41.120438,275.33 14.833745,41.120473,275.793 14.833694,41.120515,276.765 14.833639,41.120551,277.421 14.833583,41.120586,278.009 14.833525,41.120621,278.881 14.833471,41.120647,278.239 14.833419,41.120677,277.755 14.833365,41.120703,277.149 14.833304,41.120724,275.758 14.833241,41.120748,275.18 14.833177,41.120775,275.168 14.833113,41.120798,274.83 14.833049,41.120815,274.66 14.832987,41.120834,274.595 14.832925,41.120851,274.849 14.832865,41.120871,275.223 14.832801,41.120887,274.909 14.832733,41.120902,274.871 14.832664,41.120918,274.959 14.832593,41.120933,275.135 14.832522,41.12095,275.219 14.832456,41.120963,275.278 14.832391,41.12098,274.73 14.832325,41.121001,273.858 14.832257,41.121019,273.52 14.83219,41.121035,273.54 14.832118,41.121049,273.971 14.83205,41.121072,273.641 14.83198,41.121092,273.515 14.83191,41.121105,273.109 14.831842,41.121115,273.149 14.831784,41.121125,274.087 14.831723,41.121132,275.253 14.831656,41.121146,274.847 14.83159,41.121157,276.746 14.831529,41.121185,277.498 14.831483,41.121216,278.566 14.831451,41.121254,279.828 14.831423,41.121302,278.798 14.831409,41.121355,277.844 14.831384,41.1214,276.505 14.831349,41.121441,275.715 14.831308,41.121479,275.609 14.831265,41.121517,275.286 14.831217,41.121551,274.214 14.831169,41.121586,272.94 14.831121,41.121622,272.984 14.831068,41.121658,272.093 14.831014,41.121697,271.815 14.830965,41.121733,271.623 14.830912,41.121768,271.855 14.830864,41.121805,271.315 14.830812,41.121837,270.753 14.830758,41.121875,270.504 14.830708,41.121909,269.714 14.830657,41.121945,269.609 14.830607,41.121984,269.287 14.830556,41.122023,268.725 14.830505,41.122057,267.591 14.830466,41.122096,268.145 14.830423,41.122138,267.674 14.830366,41.122174,266.536 14.830322,41.122208,265.644 14.83028,41.122245,265.046 14.830232,41.122277,264.376 14.830181,41.122316,263.923 14.830134,41.122346,263.383 14.83009,41.122379,263.211 14.830044,41.12241,262.509 14.829994,41.122445,262.254 14.829948,41.122475,261.482 14.829903,41.122506,260.938 14.829856,41.122537,260.742 14.829805,41.122574,260.081 14.829751,41.1226,259.873 14.8297,41.122638,259.961 14.829646,41.122669,260.023 14.829595,41.122699,259.813 14.829544,41.122733,259.814 14.829498,41.122774,259.654 14.829439,41.122809,259.809 14.829382,41.122843,260.109 14.829326,41.122873,260.743 14.829281,41.122914,260.671 14.829232,41.122952,261.337 14.829223,41.123004,261.841 14.829164,41.123027,261.89 14.82911,41.123057,262.162 14.829075,41.1231,262.49 14.829023,41.123131,262.722 14.828968,41.12316,262.962 14.828913,41.123197,262.588 14.828869,41.123229,262.324 14.828823,41.123259,261.626 14.828768,41.123284,261.609 14.828709,41.123308,260.73 14.828648,41.123321,260.378 14.828584,41.123324,260.084 14.828515,41.123325,260.568 14.828447,41.123333,260.367 14.828377,41.123335,260.099 14.828312,41.123332,259.687 14.828253,41.123324,258.639 14.828193,41.12332,258.419 14.828121,41.123314,258.595 14.828051,41.123307,258.449 14.827981,41.123292,257.023 14.827924,41.123275,256.209 14.82787,41.123256,255.911 14.827817,41.123228,255.349 14.82776,41.1232,254.415 14.827707,41.123167,253.779 14.82766,41.123127,253.498 14.827621,41.123084,252.84 14.82759,41.123039,253.948 14.827559,41.122997,253.78 14.827505,41.122967,253.59 14.827444,41.12296,254.133 14.827383,41.122979,253.823 14.827331,41.123015,252.715 14.827283,41.123052,252.409 14.827239,41.123096,252.455 14.827197,41.123136,253.083 14.827148,41.12317,253.679 14.827093,41.1232,254.123 14.827037,41.123231,255.092 14.826986,41.123271,255.394 14.826933,41.123294,256.132 14.826864,41.123316,257.314 14.826792,41.123332,258.484 14.826733,41.123342,258.664 14.826669,41.123339,259.706 14.826605,41.123333,259.816 14.826534,41.123333,260.409 14.826466,41.123328,260.888 14.826398,41.123321,261.326 14.826338,41.123307,262.282 14.826272,41.123298,262.996 14.826209,41.123294,263.875 14.826149,41.123293,265.047 14.826081,41.123299,266.445 14.826013,41.12331,266.477 14.825946,41.12333,266.847 14.825875,41.123345,267.116 14.825806,41.123367,267.376 14.825745,41.123391,267.113 14.825685,41.123422,267.109 14.82563,41.123452,267.123 14.825582,41.123481,266.931 14.825533,41.123517,266.977 14.825489,41.123559,267.411 14.825447,41.123601,267.32 14.825404,41.123642,267.012 14.825363,41.12369,266.96 14.825323,41.123734,266.642 14.82528,41.123771,266.692 14.825238,41.123813,266.643 14.825196,41.123856,266.264 14.825154,41.123894,266.01 14.825103,41.123929,265.609 14.825055,41.123965,265.586 14.825008,41.124006,266.064 14.824959,41.124041,265.92 14.824911,41.124087,266.344 14.824858,41.124126,267.163 14.824806,41.124161,268.075 14.824747,41.124186,268.353 14.824685,41.124207,267.375 14.824621,41.124224,266.735 14.82456,41.12424,266.258 14.8245,41.124255,265.852 14.824438,41.124267,265.617 14.824371,41.124278,265.409 14.824301,41.124289,264.617 14.824236,41.124295,264.235 14.824176,41.1243,263.871 14.824112,41.124305,263.935 14.824047,41.124313,263.564 14.823981,41.124322,263.146 14.823921,41.124333,263.264 14.823858,41.124343,263.066 14.823799,41.124349,263.246 14.823734,41.124363,262.884 14.823667,41.124376,262.707 14.823605,41.124383,262.617 14.82354,41.124386,263.209 14.823477,41.124394,263.07 14.82341,41.124411,262.758 14.823351,41.124434,261.984 14.82329,41.124436,262.238 14.823228,41.124439,262.757 14.823167,41.124447,263.419 14.823106,41.124449,263.687 14.82305,41.124472,264.579 14.822986,41.124484,264.769 14.822926,41.124483,265.662 14.822852,41.124488,266.483 14.822789,41.124493,267.211 14.822723,41.124501,266.709 14.82266,41.124507,266.628 14.822597,41.124517,266.596 14.822532,41.124529,266.862 14.822467,41.12454,266.846 14.822407,41.124558,267.155 14.82235,41.124578,267.247 14.822294,41.124599,267.535 14.822231,41.124615,267.157 14.822179,41.124648,267.937 14.822107,41.124646,267.686 14.822045,41.124647,267.86 14.821983,41.124667,267.626 14.821927,41.124689,268.009 14.821864,41.124694,266.37 14.821798,41.124708,264.958 14.821728,41.124724,264.254 14.821671,41.124739,264.318 14.821613,41.124751,264.187 14.821557,41.124769,264.259 14.821495,41.124786,263.487 14.821432,41.124815,263.549 14.821377,41.124832,263.769 14.82131,41.124854,263.464 14.821246,41.124873,262.706 14.821184,41.124893,262.616 14.821119,41.12491,262.809 14.821057,41.12492,262.458 14.820991,41.124936,262.596 14.820924,41.124952,262.042 14.820867,41.124968,261.356 14.820805,41.124983,260.785 14.820737,41.125002,260.457 14.820671,41.125025,260.135 14.820608,41.125039,260.077 14.820542,41.125049,259.777 14.820471,41.125056,259.257 14.820399,41.125061,259 14.820331,41.125061,259.22 14.820265,41.125046,259.009 14.820201,41.125039,259.117 14.820141,41.125024,260.025 14.820077,41.125014,259.311 14.82001,41.125005,258.195 14.819948,41.124993,258.254 14.819889,41.124987,258.456 14.819834,41.124964,257.774 14.819774,41.124952,257.356 14.819708,41.124941,256.916 14.819636,41.124927,255.373 14.819568,41.124923,254.585 14.819506,41.124919,253.313 14.819441,41.124909,252.509 14.819368,41.124905,251.019 14.819307,41.124901,250.367 14.819245,41.124895,249.963 14.819171,41.124891,248.937 14.819105,41.124885,247.546 14.819042,41.124879,247.018 14.818977,41.12488,246.136 14.818928,41.124851,246.658 14.818865,41.124848,244.138 14.818807,41.124874,243.712 14.81875,41.124887,243.132 14.818693,41.124907,242.605 14.818633,41.124915,241.809 14.818573,41.124926,241.223 14.818512,41.124945,240.871 14.818454,41.124967,240.577 14.818394,41.124991,240.531 14.818333,41.125011,240.94 14.818271,41.125038,241.962 14.818205,41.125062,241.74 14.818133,41.125077,242.812 14.818068,41.125101,242.262 14.818006,41.125124,242.491 14.817948,41.12515,243.081 14.817883,41.125175,244.019 14.817828,41.125195,244.809 14.817775,41.125227,245.081 14.817723,41.12525,244.479 14.817657,41.125274,244.115 14.817588,41.125294,244.789 14.817529,41.125309,245.578 14.817456,41.125332,245.65 14.817386,41.125347,245.728 14.817317,41.125362,246.38 14.817258,41.125374,247.42 14.817185,41.125377,248.825 14.817124,41.125387,249.626 14.817054,41.125404,249.808 14.816996,41.125415,250.609 14.816936,41.125427,250.964 14.816865,41.125447,252.212 14.816797,41.125469,252.618 14.816738,41.125482,252.812 14.816675,41.125493,252.951 14.816607,41.125503,253.723 14.816538,41.125513,253.971 14.816467,41.125522,254.763 14.816398,41.125523,254.473 14.816335,41.125516,254.621 14.816273,41.125504,255.541 14.816213,41.125492,255.905 14.816143,41.125492,257.209 14.816075,41.125492,257.144 14.816007,41.125488,256.712 14.815945,41.125485,256.338 14.815881,41.125482,256.572 14.815814,41.125482,256.651 14.815747,41.125484,256.733 14.815677,41.12548,256.161 14.815612,41.125476,255.923 14.815547,41.125479,255.433 14.815479,41.125488,256.128 14.815414,41.125488,256.289 14.81535,41.125486,257.117 14.815284,41.125484,257.209 14.815224,41.125475,257.284 14.815152,41.125482,257.532 14.815077,41.125491,257.188 14.815009,41.125501,257.182 14.814934,41.125499,256.431 14.81487,41.125491,256.233 14.814802,41.125488,256.061 14.814733,41.125483,255.433 14.814665,41.125478,255.873 14.814594,41.125472,255.834 14.814526,41.125464,255.655 14.81446,41.125458,255.21 14.814391,41.125456,255.209 14.814324,41.125455,255.055 14.814257,41.125452,254.763 14.814187,41.125452,254.299 14.814117,41.125457,253.613 14.814048,41.125459,253.532 14.81398,41.125467,253.754 14.81391,41.125471,253.222 14.813837,41.125478,252.954 14.813765,41.12548,253.084 14.813703,41.125478,252.948 14.813639,41.12549,252.461 14.813571,41.125499,252.317 14.813501,41.125505,252.109 14.813431,41.125516,251.886 14.813362,41.125522,251.364 14.813291,41.125523,250.81 14.813225,41.125522,251.254 14.813161,41.125519,251.433 14.813098,41.125524,251.715 14.813031,41.125528,250.913 14.812964,41.125537,251.075 14.812901,41.125554,250.685 14.812831,41.125561,250.633 14.812761,41.125563,250.323 14.812693,41.125569,250.815 14.812626,41.125576,251.009 14.812559,41.125578,250.685 14.812488,41.125581,250.333 14.812417,41.125587,250.189 14.812354,41.125596,249.933 14.812288,41.125602,250.112 14.812221,41.125607,249.534 14.812154,41.125605,249.472 14.812084,41.125613,249.414 14.812018,41.125621,249.524 14.811954,41.125628,249.427 14.81189,41.125635,249.368 14.811825,41.125642,248.914 14.811762,41.125647,248.809 14.811695,41.125652,248.784 14.811631,41.125656,248.652 14.811564,41.125664,247.848 14.811496,41.125671,247.242 14.81143,41.125676,246.981 14.811366,41.12568,246.553 14.811302,41.125686,246.721 14.811234,41.125696,246.983 14.811169,41.125703,247.133 14.811106,41.125704,247.018 14.811045,41.125723,247.898 14.810984,41.125717,247.917 14.810914,41.125703,246.009 14.810852,41.125699,245.923 14.81079,41.125694,245.921 14.810716,41.125688,244.927 14.810652,41.125685,244.891 14.81059,41.125674,244.56 14.810526,41.125664,244.322 14.810459,41.12566,244.17 14.810396,41.125655,242.842 14.810329,41.12565,243.062 14.810261,41.125646,242.319 14.810195,41.125643,242.409 14.810131,41.125645,242.819 14.810066,41.125652,243.109 14.810006,41.125662,244.493 14.809934,41.125652,242.411 14.80987,41.125658,241.717 14.809805,41.125663,241.951 14.80974,41.125661,242.02 14.809673,41.125656,241.852 14.80961,41.12565,241.01 14.809539,41.125649,240.312 14.809472,41.125644,239.912 14.809402,41.12564,239.533 14.809333,41.125639,238.623 14.809263,41.125643,237.915 14.809191,41.125651,236.809 14.809131,41.125663,236.355 14.809071,41.125674,236.383 14.809013,41.12569,235.959 14.808951,41.125706,235.813 14.808889,41.125723,235.692 14.808829,41.125744,235.564 14.80877,41.125763,235.562 14.808715,41.125782,235.764 14.808657,41.125802,235.634 14.808599,41.125823,235.056 14.808541,41.125841,234.359 14.808483,41.125856,233.614 14.808424,41.125881,232.809 14.808407,41.125932,228.917 14.808349,41.125963,228.055 14.808302,41.125996,227.981 14.808246,41.126025,227.845 14.808181,41.12605,226.894 14.808117,41.126058,225.456 14.808054,41.126075,224.694 14.80799,41.126088,224.426 14.807928,41.126104,223.926 14.807862,41.126109,223.824 14.807797,41.126118,222.804 14.807735,41.126127,222.014 14.807674,41.126133,221.009 14.807614,41.126137,220.384 14.807539,41.126143,219.572 14.807476,41.126147,219.168 14.807413,41.12615,218.692 14.807348,41.126157,218.071 14.807286,41.126166,217.773 14.807213,41.126174,216.411 14.807152,41.126183,215.813 14.807088,41.12619,214.833 14.807022,41.126194,214.325 14.806957,41.1262,213.726 14.806894,41.12621,213.008 14.806831,41.126224,212.309 14.806762,41.126233,211.674 14.806693,41.126239,210.862 14.806628,41.126238,210.628 14.806563,41.126243,210.652 14.806501,41.126258,210.171 14.806439,41.126272,210.413 14.806376,41.126281,210.311 14.806316,41.126296,210.143 14.806251,41.126311,209.393 14.80619,41.126321,208.951 14.806124,41.126321,208.401 14.806058,41.126323,207.911 14.805996,41.126332,207.009 14.805928,41.126342,207.527 14.805866,41.12634,207.685 14.805803,41.126341,207.071 14.805733,41.126337,206.935 14.805666,41.126346,205.934 14.805594,41.126347,205.276 14.805524,41.126342,205.454 14.80546,41.126345,205.366 14.80539,41.126353,204.426 14.805316,41.126364,203.789 14.805246,41.126374,203.906 14.805184,41.126376,203.026 14.80512,41.126383,202.109 14.805055,41.126381,202.09 14.804987,41.126387,201.428 14.80492,41.126388,200.434 14.804853,41.12638,199.918 14.804789,41.126371,199.137 14.804727,41.12637,198.779 14.804662,41.126369,198.527 14.804597,41.12637,197.749 14.804533,41.126377,196.949 14.804465,41.126386,196.744 14.804402,41.126392,196.505 14.80434,41.126406,197.015 14.804273,41.126419,196.609 14.804209,41.126437,196.766 14.804145,41.126447,197.394 14.804079,41.126454,197.13 14.804013,41.126465,197.034 14.803944,41.126476,196.243 14.80388,41.126489,196.545 14.803814,41.126502,196.483 14.803751,41.126519,197.095 14.803686,41.126535,198.025 14.803626,41.126554,198.696 14.803563,41.126564,198.631 14.803497,41.126577,198.624 14.803432,41.12659,199.009 14.803369,41.126603,198.611 14.803306,41.126612,198.569 14.803237,41.126616,198.625 14.803172,41.126636,197.229 14.803107,41.126641,198.338 14.803035,41.126648,198.12 14.802969,41.12666,198.488 14.802908,41.126667,198.56 14.802839,41.126674,198.86 14.802778,41.126683,199.422 14.802715,41.126695,199.762 14.802656,41.126709,199.908 14.802587,41.126722,200.109 14.802524,41.126738,199.944 14.80246,41.126754,199.422 14.802395,41.126772,199.578 14.802333,41.126782,200.312 14.802272,41.126804,200.721 14.802207,41.126821,201.063 14.802138,41.126834,201.451 14.802063,41.126867,201.693 14.801998,41.126887,203.453 14.801934,41.126897,203.471 14.801871,41.126909,203.741 14.801812,41.126918,204.515 14.801746,41.126922,204.609 14.801683,41.126928,204.779 14.801621,41.126945,204.717 14.801561,41.126958,204.123 14.801494,41.126977,204.077 14.801436,41.127,204.246 14.801378,41.12702,204.488 14.801344,41.12706,204.926 14.801359,41.127105,205.078 14.801382,41.127152,204.078 14.801411,41.127193,204.989 14.801425,41.127242,205.106 14.801438,41.127288,204.826 14.801458,41.127331,205.509 14.801471,41.127378,205.34 14.801486,41.127428,205.328 14.801509,41.127479,205.124 14.801524,41.127525,204.538 14.801539,41.127571,203.647 14.801558,41.127614,203.279 14.801572,41.127661,203.067 14.801589,41.127712,203.979 14.801527,41.12769,203.069 14.801502,41.127637,202.532 14.801472,41.127591,202.792 14.801452,41.127542,202.211 14.801438,41.12749,201.609 14.801417,41.127437,201.315 14.801391,41.127389,201.773 14.801371,41.127336,202.319 14.801363,41.127279,201.953 14.801339,41.127228,202.282 14.801299,41.127184,201.834 14.801272,41.127138,201.232 14.801255,41.127084,201.864 14.801223,41.127038,202.854 14.801162,41.12705,204.389 14.801103,41.127071,205.106 14.801047,41.127094,205.826 14.800983,41.127111,206.809 14.800914,41.127121,207.68 14.800851,41.127141,208.758 14.800787,41.127162,209.124 14.800733,41.127184,209.248 14.800671,41.127197,209.847 14.800615,41.127216,210.229 14.800551,41.127226,210.387 14.800491,41.12725,210.949 14.80045,41.12729,211.579 14.800431,41.127339,210.966 14.800446,41.127384,210.829 14.800457,41.127429,210.621 14.80048,41.127475,211.309 14.800506,41.127523,211.278 14.800541,41.127561,211.466 14.800561,41.127606,210.062 14.800578,41.127656,209.726 14.800594,41.127708,210.745 14.800611,41.127756,210.177 14.800631,41.127808,210.445 14.800652,41.127854,210.737 14.800669,41.127904,211.047 14.800693,41.127953,211.443 14.800707,41.127998,212.064 14.800733,41.128046,212.31 14.80075,41.128094,212.809 14.800768,41.12814,213.156 14.800782,41.128195,212.614 14.800802,41.128239,212.52 14.800814,41.128291,212.214 14.800829,41.128338,211.763 14.800839,41.128386,212.055 14.800838,41.128431,213.533 14.800852,41.128478,212.455 14.800867,41.128528,211.555 14.800872,41.128574,211.245 14.800871,41.128622,211.247 14.800875,41.128667,210.611 14.800885,41.128716,210.809 14.80089,41.128762,210.536 14.800891,41.128816,210.834 14.800888,41.128871,211.41 14.800888,41.128924,212.814 14.800885,41.128979,212.913 14.800887,41.129027,212.275 14.800889,41.129084,210.833 14.80089,41.129139,210.775 14.800884,41.129194,210.295 14.800875,41.129249,211.156 14.800868,41.129303,212.059 14.800859,41.129357,212.314 14.800845,41.129406,212.809 14.800826,41.129451,213.327 14.800799,41.129494,214.435 14.800784,41.129544,215.581 14.800766,41.129595,216.935 14.800741,41.129638,217.784 14.80071,41.12968,219.096 14.800673,41.129725,219.664 14.800645,41.129771,219.446 14.800606,41.129814,219.996 14.800587,41.129861,217.785 14.800543,41.129896,219.289 14.800504,41.129934,219.917 14.800473,41.129974,221.309 14.800419,41.130001,223.26 14.800366,41.130028,224.368 14.800315,41.130066,222.474 14.800265,41.130097,222.548 14.800208,41.130123,223.137 14.800149,41.130147,223.799 14.800087,41.130176,224.657 14.800033,41.130205,224.759 14.799974,41.130226,225.059 14.799907,41.130244,225.279 14.799848,41.130268,225.705 14.79978,41.130262,225.525 14.799713,41.130259,224.809 14.799642,41.130253,225.059 14.799578,41.130237,225.097 14.799509,41.130241,224.823 14.799435,41.130242,224.697 14.799374,41.13024,224.666 14.799304,41.13024,224.958 14.799233,41.130239,225.476 14.799162,41.130231,226.118 14.79909,41.130225,226.528 14.799017,41.130215,226.354 14.798958,41.1302,225.056 14.798897,41.130192,224.811 14.798824,41.130181,224.509 14.798767,41.130167,224.367 14.798696,41.130155,224.075 14.798637,41.130133,224.381 14.798583,41.130108,224.185 14.798533,41.130083,223.744 14.798474,41.13005,223.416 14.798416,41.130021,222.984 14.798369,41.129992,222.686 14.798323,41.129963,222.076 14.798271,41.129937,221.647 14.798229,41.129905,221.529 14.798177,41.129866,221.221 14.798124,41.129835,220.609 14.798089,41.129796,220.566 14.798048,41.12976,219.744 14.798001,41.129724,219.64 14.797948,41.129687,218.334 14.797905,41.129652,218.673 14.797858,41.129617,218.735 14.797807,41.129579,218.473 14.797759,41.129542,218.295 14.797708,41.129501,218.195 14.797661,41.129469,218.064 14.797616,41.129438,217.206 14.797563,41.129405,217.016 14.797507,41.129383,216.409 14.797455,41.12935,215.828 14.797394,41.129319,216.266 14.79733,41.129291,216.142 14.797272,41.12926,216.096 14.797209,41.129235,215.195 14.797144,41.129212,214.767 14.797087,41.129198,215.215 14.797019,41.129179,215.647 14.796951,41.129162,214.997 14.796892,41.129153,214.824 14.796817,41.129151,214.804 14.796754,41.129147,214.614 14.796694,41.129145,214.809 14.796631,41.129148,214.624 14.79657,41.129161,215.342 14.796507,41.129169,215.758 14.796443,41.12918,215.512 14.796381,41.129193,215.621 14.79632,41.129212,215.523 14.796262,41.129237,215.981 14.796206,41.129256,215.893 14.796146,41.129256,215.483 14.79608,41.129244,214.729 14.79602,41.129228,214.5 14.795968,41.129203,214.82 14.795924,41.129167,215.009 14.795883,41.129131,214.734 14.79583,41.129092,214.812 14.795778,41.129054,214.828 14.79573,41.129014,214.622 14.795677,41.12898,214.191 14.795625,41.12894,214.423 14.795572,41.128912,217.211 14.795502,41.128909,215.543 14.795442,41.128933,217.713 14.795392,41.128963,220.081 14.795337,41.128992,220.361 14.795291,41.129022,220.417 14.795244,41.129061,220.309 14.795191,41.129091,220.51 14.795135,41.129123,221.378 14.795086,41.129156,222.884 14.795034,41.129186,223.678 14.79497,41.129201,223.917 14.794905,41.129202,224.479 14.794832,41.1292,224.657 14.794765,41.129196,224.489 14.794705,41.129182,223.939 14.794648,41.129161,222.958 14.794591,41.129145,222.852 14.794528,41.129132,222.417 14.794459,41.129139,221.409 14.794398,41.12916,220.987 14.794328,41.129154,221.465 14.794268,41.129144,223.391 14.794197,41.129141,223.415 14.794137,41.12913,224.424 14.794081,41.129105,224.356 14.794035,41.129061,223.934 14.793994,41.129022,222.796 14.793964,41.128972,221.556 14.793935,41.128925,220.568 14.793922,41.128881,218.342 14.793901,41.128836,217.326 14.793879,41.128786,219.109 14.793864,41.128734,218.918 14.793852,41.128684,220.066 14.793838,41.128639,220.942 14.793798,41.128596,220.966 14.793742,41.128567,220.335 14.79368,41.128566,220.897 14.793615,41.128585,220.695 14.793552,41.128602,221.137 14.793492,41.128631,220.937 14.793425,41.128645,220.368 14.793367,41.128665,220.442 14.793306,41.128678,221.026 14.793245,41.128686,222.209 14.793179,41.12869,223.798 14.793119,41.128678,222.436 14.79305,41.128662,221.992 14.792983,41.128672,221.916 14.792915,41.128687,222.745 14.792863,41.128715,222.457 14.792793,41.128731,222.545 14.79273,41.128746,222.767 14.792664,41.128765,221.557 14.792593,41.128778,220.866 14.792525,41.128798,220.929 14.792463,41.128817,220.221 14.792397,41.128829,219.109 14.792328,41.128844,218.658 14.792266,41.128849,218.726 14.792227,41.128811,220.472 14.79219,41.128771,222.076 14.792121,41.128773,223.075 14.792051,41.128771,223.157 14.791987,41.12877,218.875 14.791935,41.128794,218.757 14.791831,41.128797,218.227 14.79177,41.128781,218.338 14.791898,41.12864,221.77 14.791971,41.128654,219.317 14.792019,41.128696,219.509 14.792045,41.128655,224.675 14.792019,41.128706,224.073 14.792288,41.128655,224.359 14.792226,41.128681,223.133 14.792192,41.128725,223.582 14.792168,41.128767,221.894 14.792178,41.128818,220.712 14.792159,41.128864,220.364 14.792111,41.128891,219.194 14.792045,41.128907,218.923 14.79198,41.128916,219.883 14.79192,41.128943,220.311 14.791862,41.128966,220.309 14.79181,41.128992,218.464 14.791757,41.129022,218.122 14.791698,41.129042,218.888 14.791644,41.129063,217.982 14.791583,41.129078,217.291 14.791523,41.129098,218.293 14.791475,41.129128,219.071 14.791416,41.129144,218.973 14.791353,41.129168,219.233 14.791296,41.12919,219.385 14.791245,41.129222,219.289 14.79119,41.129247,219.217 14.791127,41.129267,219.409 14.791064,41.129284,219.52 14.791005,41.129299,219.468 14.790939,41.129321,220.174 14.790884,41.129348,220.878 14.790822,41.129376,220.657 14.790795,41.129419,220.239 14.790761,41.129459,219.897 14.790728,41.1295,220.029 14.790669,41.129518,218.819 14.790607,41.129535,218.835 14.790544,41.129551,218.386 14.790473,41.129562,219.314 14.790414,41.129581,221.609 14.790376,41.12963,221.585 14.790319,41.129647,222.443 14.790266,41.129681,222.969 14.790222,41.129713,222.373 14.790153,41.129721,219.972 14.790096,41.129742,220.124 14.790036,41.129768,219.782 14.789989,41.129798,220.314 14.789921,41.129805,220.184 14.789854,41.129816,219.594 14.789794,41.129832,218.857 14.789733,41.129853,217.722 14.789665,41.129872,217.509 14.789599,41.129896,217.351 14.78954,41.129923,216.529 14.789483,41.129948,216.585 14.789421,41.129968,216.399 14.78936,41.129991,216.248 14.789302,41.130019,217.26 14.789248,41.130042,216.718 14.789197,41.130065,216.39 14.789145,41.130088,215.77 14.789084,41.130108,215.026 14.789024,41.130131,215.447 14.788961,41.130156,214.811 14.788898,41.130183,213.709 14.78884,41.130205,213.884 14.788778,41.130229,212.992 14.788722,41.130262,213.648 14.788667,41.130292,212.862 14.788619,41.130331,213.161 14.788569,41.130368,212.843 14.788522,41.130396,212.341 14.788477,41.130432,211.783 14.788434,41.130467,213.183 14.788382,41.130498,214.537 14.788324,41.130526,216.349 14.78827,41.130546,216.913 14.788218,41.130572,217.109 14.788169,41.130598,215.895 14.788125,41.13063,215.453 14.788073,41.130669,216.399 14.788018,41.130704,216.653 14.787971,41.130743,216.662 14.787915,41.130776,216.674 14.787865,41.130808,215.652 14.787812,41.130845,216.014 14.78775,41.13087,215.584 14.787722,41.130912,212.777 14.787679,41.130949,211.261 14.787627,41.130982,210.427 14.787571,41.131015,209.709 14.787523,41.13105,209.389 14.787476,41.131086,209.247 14.787417,41.131113,208.513 14.78737,41.131149,208.267 14.787353,41.131203,207.736 14.787358,41.131249,207.378 14.787315,41.131284,206.676 14.787271,41.131317,206.438 14.787219,41.131342,206.488 14.787146,41.131339,206.836 14.787077,41.131344,207.417 14.787025,41.13137,207.218 14.786974,41.131399,207.109 14.78692,41.13143,206.645 14.786866,41.131459,205.813 14.786816,41.131489,205.649 14.786761,41.131523,206.253 14.786717,41.131554,206.082 14.786663,41.131589,204.994 14.786598,41.13159,206.532 14.786551,41.131623,207.394 14.786507,41.131657,207.784 14.786457,41.131687,208.382 14.786404,41.131712,208.343 14.786357,41.131746,207.617 14.786307,41.131783,207.109 14.786256,41.131811,207.42 14.786199,41.131847,206.978 14.786143,41.131883,206.374 14.786097,41.131926,204.848 14.786061,41.131964,205.167 14.785998,41.131986,205.459 14.785942,41.132003,205.537 14.785885,41.132021,204.969 14.78583,41.132046,204.519 14.785773,41.132059,204.032 14.785706,41.132074,204.092 14.785637,41.132088,204.011 14.78558,41.132102,203.309 14.785514,41.132119,202.735 14.785452,41.132126,202.453 14.785388,41.132136,202.349 14.785325,41.132138,202.273 14.785262,41.132146,202.122 14.785199,41.132151,201.834 14.785138,41.132144,202.312 14.785072,41.132127,202.924 14.785009,41.132121,201.534 14.784939,41.132122,201.061 14.784879,41.13212,201.821 14.784817,41.132113,201.913 14.784749,41.132108,202.109 14.784682,41.132104,202.038 14.784621,41.132092,202.366 14.784554,41.132081,202.562 14.784487,41.132066,202.216 14.784418,41.132049,202.455 14.784347,41.132038,203.157 14.784275,41.132027,202.125 14.784203,41.13202,202.587 14.784135,41.132012,202.837 14.784067,41.132,203.458 14.783996,41.131993,202.352 14.783928,41.131974,202.417 14.783861,41.131963,200.909 14.78379,41.131951,200.827 14.783728,41.131947,200.635 14.783658,41.131941,199.921 14.783598,41.131938,200.175 14.783537,41.131938,200.184 14.783464,41.13194,199.396 14.783392,41.131948,199.464 14.783323,41.131946,198.796 14.783249,41.131944,198.996 14.78321,41.131897,200.346 14.78316,41.131861,199.288 14.783088,41.131852,198.816 14.783024,41.131854,198.709 14.782948,41.131854,199.266 14.782886,41.131853,199.534 14.782821,41.131833,199.59 14.78276,41.131856,198.494 14.782702,41.131875,198.763 14.782631,41.131893,197.955 14.782573,41.13192,197.813 14.782522,41.131943,198.265 14.78246,41.131958,198.225 14.782401,41.131978,198.264 14.782333,41.131994,199.106 14.78227,41.132018,200.116 14.782205,41.132044,200.209 14.782155,41.132073,200.398 14.782101,41.132094,200.366 14.782045,41.132115,200.232 14.781982,41.132142,200.596 14.781918,41.132169,200.625 14.781861,41.132185,200.287 14.781795,41.132205,199.585 14.78173,41.132224,199.667 14.78167,41.132236,199.287 14.78161,41.132241,198.551 14.781555,41.132263,198.301 14.7815,41.132289,198.311 14.781447,41.132316,198.109 14.781394,41.13234,198.317 14.781335,41.132358,198.935 14.781277,41.132376,199.231 14.781208,41.13239,199.685 14.781141,41.132397,200.074 14.781076,41.132413,198.586 14.78101,41.132431,197.564 14.780959,41.132458,198.226 14.780934,41.132503,198.736 14.780886,41.132541,200.263 14.780824,41.132559,200.644 14.780759,41.132578,201.618 14.780697,41.132587,201.909 14.78063,41.132601,200.758 14.780565,41.132615,200.926 14.780507,41.132628,199.952 14.780446,41.132649,198.686 14.780377,41.132664,199.055 14.780311,41.132677,202.327 14.780246,41.132694,200.055 14.780185,41.132712,196.737 14.780117,41.132723,195.327 14.780054,41.132735,194.135 14.77998,41.132739,193.786 14.779917,41.132739,193.414 14.779854,41.132735,193.609 14.779793,41.132731,191.785 14.779728,41.132705,189.493 14.779663,41.132703,190.669 14.779603,41.132696,192.473 14.779541,41.132674,193.632 14.779523,41.132631,192.194 14.779485,41.132596,191.212 14.77945,41.132559,191.174 14.779421,41.132519,189.774 14.779387,41.132472,189.233 14.779346,41.132428,189.723 14.779292,41.132389,190.815 14.779239,41.132364,191.209 
				</coordinates>
			</LineString>
		</Placemark>
		<Placemark id="02FE70B3173730DAD2E2">
			<name> Partenza, Piazza Roma</name>
			<snippet></snippet>
			<LookAt>
				<longitude>14.77956729475753</longitude>
				<latitude>41.13159564709125</latitude>
				<altitude>170.1297477562181</altitude>
				<heading>0</heading>
				<tilt>0</tilt>
				<gx:fovy>30.00000000002677</gx:fovy>
				<range>781.3202119921336</range>
				<altitudeMode>absolute</altitudeMode>
			</LookAt>
			<styleUrl>#__managed_style_9C67D54EF5377372E870</styleUrl>
			<Point>
				<coordinates>14.77778662869735,41.13129863586067,144.6555504136222</coordinates>
			</Point>
		</Placemark>
		<Placemark id="0A8C95312937739C3888">
			<name>Via Traiana</name>
			<LookAt>
				<longitude>14.78089194722316</longitude>
				<latitude>41.13368140827585</latitude>
				<altitude>127.289177594684</altitude>
				<heading>0</heading>
				<tilt>0</tilt>
				<gx:fovy>35</gx:fovy>
				<range>1103.623087748419</range>
				<altitudeMode>absolute</altitudeMode>
			</LookAt>
			<styleUrl>#__managed_style_0FE7AAEB78377372E86C</styleUrl>
			<Point>
				<coordinates>14.77946043675204,41.1326252290656,139.7415174664305</coordinates>
			</Point>
		</Placemark>
		<Placemark id="0B3A27FBCF37739F2880">
			<name>Lungo l’Appia da Beneventum a Ponte Rotto</name>
			<LookAt>
				<longitude>14.81749974511026</longitude>
				<latitude>41.12347662786447</latitude>
				<altitude>207.4234212905853</altitude>
				<heading>0</heading>
				<tilt>0</tilt>
				<gx:fovy>35</gx:fovy>
				<range>1512.466113152623</range>
				<altitudeMode>absolute</altitudeMode>
			</LookAt>
			<styleUrl>#__managed_style_0FE7AAEB78377372E86C</styleUrl>
			<Point>
				<coordinates>14.82126064201522,41.12485584844512,209.791909643877</coordinates>
			</Point>
		</Placemark>
		<Placemark id="0D3A0A30213730DB4601">
			<name>MUSA</name>
			<snippet></snippet>
			<LookAt>
				<longitude>14.82373812732862</longitude>
				<latitude>41.1157636369643</latitude>
				<altitude>232.0998039636271</altitude>
				<heading>0</heading>
				<tilt>0</tilt>
				<gx:fovy>30.00000000002677</gx:fovy>
				<range>3307.527609679965</range>
				<altitudeMode>absolute</altitudeMode>
			</LookAt>
			<styleUrl>#__managed_style_0FE7AAEB78377372E86C</styleUrl>
			<Point>
				<coordinates>14.82426156008075,41.11532113948489,231.0803913957965</coordinates>
			</Point>
		</Placemark>
		<Placemark id="0707CF61EE37739F9B01">
			<name>Masseria San Cumano e i resti del passato</name>
			<LookAt>
				<longitude>14.81749974499753</longitude>
				<latitude>41.12347662763201</latitude>
				<altitude>207.4234212905853</altitude>
				<heading>0</heading>
				<tilt>0</tilt>
				<gx:fovy>35</gx:fovy>
				<range>1512.466113152623</range>
				<altitudeMode>absolute</altitudeMode>
			</LookAt>
			<styleUrl>#__managed_style_0FE7AAEB78377372E86C</styleUrl>
			<Point>
				<coordinates>14.82332142867934,41.12115313030354,217.5149785021357</coordinates>
			</Point>
		</Placemark>
		<Placemark id="9F6F6343AE377374608C">
			<name>Arco di Traiano</name>
			<snippet></snippet>
			<LookAt>
				<longitude>14.77927096835139</longitude>
				<latitude>41.13226359959456</latitude>
				<altitude>141.6066660442156</altitude>
				<heading>0</heading>
				<tilt>0</tilt>
				<gx:fovy>30</gx:fovy>
				<range>435.3546760766767</range>
				<altitudeMode>absolute</altitudeMode>
			</LookAt>
			<styleUrl>#__managed_style_690B7C81C2377374609C</styleUrl>
			<Point>
				<coordinates>14.77906188649373,41.13248102854112,140.0743055801286</coordinates>
			</Point>
		</Placemark>
	</Folder>
</Document>
</kml>
