<?xml version="1.0" encoding="UTF-8"?>
<kml xmlns="http://www.opengis.net/kml/2.2" xmlns:gx="http://www.google.com/kml/ext/2.2" xmlns:kml="http://www.opengis.net/kml/2.2" xmlns:atom="http://www.w3.org/2005/Atom">
<Document id="1GDrIESS-9TMLW0ToOQhZ3V5hugFXJpVF">
	<name>Castelvenere | La Camaiola</name>
	<gx:CascadingStyle kml:id="__managed_style_026910927D368116498F">
		<Style>
			<IconStyle>
				<scale>1.2</scale>
				<Icon>
					<href>https://earth.google.com/earth/document/icon?color=1976d2&amp;id=2000&amp;scale=4</href>
				</Icon>
				<hotSpot x="64" y="128" xunits="pixels" yunits="insetPixels"/>
			</IconStyle>
			<LabelStyle>
			</LabelStyle>
			<LineStyle>
				<color>ff2dc0fb</color>
				<width>2.4</width>
			</LineStyle>
			<PolyStyle>
				<color>40ffffff</color>
			</PolyStyle>
			<BalloonStyle>
				<displayMode>hide</displayMode>
			</BalloonStyle>
		</Style>
	</gx:CascadingStyle>
	<gx:CascadingStyle kml:id="__managed_style_18DC67523E368116498E">
		<Style>
			<IconStyle>
				<Icon>
					<href>https://earth.google.com/earth/document/icon?color=1976d2&amp;id=2000&amp;scale=4</href>
				</Icon>
				<hotSpot x="64" y="128" xunits="pixels" yunits="insetPixels"/>
			</IconStyle>
			<LabelStyle>
			</LabelStyle>
			<LineStyle>
				<color>ff2dc0fb</color>
				<width>1.6</width>
			</LineStyle>
			<PolyStyle>
				<color>40ffffff</color>
			</PolyStyle>
			<BalloonStyle>
				<displayMode>hide</displayMode>
			</BalloonStyle>
		</Style>
	</gx:CascadingStyle>
	<StyleMap id="__managed_style_099F8FB6AA368116498E">
		<Pair>
			<key>normal</key>
			<styleUrl>#__managed_style_18DC67523E368116498E</styleUrl>
		</Pair>
		<Pair>
			<key>highlight</key>
			<styleUrl>#__managed_style_026910927D368116498F</styleUrl>
		</Pair>
	</StyleMap>
	<Placemark id="535A13B209000001">
		<name>0. Bgni vecchi Terme Iacobelli</name>
		<LookAt>
			<longitude>14.53529257947856</longitude>
			<latitude>41.21992236027373</latitude>
			<altitude>61.72896695247135</altitude>
			<heading>66.2002459147057</heading>
			<tilt>44.99745770195039</tilt>
			<gx:fovy>35</gx:fovy>
			<range>371.3661451850203</range>
			<altitudeMode>absolute</altitudeMode>
		</LookAt>
		<styleUrl>#__managed_style_099F8FB6AA368116498E</styleUrl>
		<Point>
			<coordinates>14.53502429144537,41.21978940608375,61.1046030360171</coordinates>
		</Point>
	</Placemark>
	<Placemark id="535A13B209000002">
		<name>percorso della camaiola Castelvenere</name>
		<LookAt>
			<longitude>14.53513063985247</longitude>
			<latitude>41.21974949119648</latitude>
			<altitude>60.55294974563614</altitude>
			<heading>86.26507500851069</heading>
			<tilt>2.943878090189362</tilt>
			<gx:fovy>35</gx:fovy>
			<range>792.7557613850513</range>
			<altitudeMode>absolute</altitudeMode>
		</LookAt>
		<styleUrl>#__managed_style_099F8FB6AA368116498E</styleUrl>
		<LineString>
			<coordinates>
				14.5349319943852,41.21973757401487,60.95794265379637 14.53470503938283,41.21956646982083,60.66027153852376 14.53557441896853,41.21922677651195,64.36093155692473 14.53587182899492,41.21942190767766,65.62140307792434 14.5362647791328,41.21952500410148,69.4601268922448 14.53646335943307,41.21989640734244,74.96646625290903 14.53654567156678,41.22047885629527,77.24452068076947 14.53704694693405,41.22118322602702,77.65749995675537 14.53742835215518,41.22137453888926,79.60265755660295 14.53801239927405,41.22144459463013,81.99791162486683 14.53848159208077,41.22156640064222,84.55128569925574 14.53822423319689,41.22144659160126,83.95236092964213 14.53832904396044,41.2211600303504,86.32255542246402 14.53849032553087,41.22100237595141,88.37159252154373 14.53858407650682,41.22091017887635,90.36981932628868 14.54069041838971,41.22125837565902,102.7719121360577 14.54130857328138,41.22143348711815,108.8621329999507 14.54146706789104,41.22164651051685,111.9242589947132 14.54156575342011,41.22199090000046,113.0040081854871 14.54169564261211,41.22227348109767,115.384637260702 14.5416498021767,41.22264741402142,117.6330213764739 14.54153484578845,41.2231476123306,121.5774512967703 14.54182465004549,41.22362259367286,123.402233394609 14.54184992483587,41.22389242330672,125.2783053780532 14.5416910834586,41.22425859464935,126.8504947245728 14.54163890188078,41.22460363650389,130.7243214247863 14.54172465449537,41.22499726314918,131.3926828543887 14.54189677254446,41.22554778276452,130.4762595942365 14.54198275917264,41.22583255111374,129.9695683200378 14.54221422571725,41.22601136747395,130.6292349937998 14.54254670079979,41.22650436970657,130.8310188979695 14.5428903125366,41.22688556885878,130.3342843351055 14.54323644301416,41.22731712231341,131.9009355891966 14.54334323995105,41.22748366106336,133.7478264332366 14.5433483037124,41.2276643454417,135.5305411924812 14.54331379542498,41.22784028894629,135.4748429866098 14.54367052051468,41.22810085175888,134.5051673854225 14.54399478038949,41.22830832592609,132.5677723234871 14.54424818705105,41.22859998700515,130.1552979609544 14.54444471082854,41.22888001594958,128.2456565860421 14.54455696195807,41.22905603057838,126.3058265181114 14.5453803520748,41.22932249787047,124.4880087018012 14.54590057250165,41.22923725865635,124.3520449019165 14.54615262179771,41.22923263684848,123.8049570681026 14.54654179843523,41.22931557354718,123.3791186834438 14.54702169925943,41.2294366189645,123.5721160154334 14.54753535019225,41.22961727288712,122.4235867355293 14.5477155358592,41.22960952884819,121.7814788502757 14.5479101525088,41.22954103101913,122.1788414406364 14.5483266486588,41.22941705334643,122.9600706309025 14.54870937926635,41.22940962794337,122.474089635255 14.54902947786306,41.22945211503764,122.3579687731833 14.54934453467366,41.2295142514695,123.116549779277 14.55000635729009,41.22989092167761,120.3992813572227 14.55129901837758,41.22925633578107,124.8520706273036 14.55166765367313,41.22941604828576,126.3464512421229 14.55219929966518,41.2294110912306,127.3150465145238 14.55269779933476,41.22928071941604,129.6276652730466 14.55312865936542,41.22913145327491,131.5263819945798 14.5549109453396,41.22859512609058,139.4437673515328 14.55651458571399,41.22813395163335,145.9729979117565 14.55701127440693,41.22799282490477,146.7270670014674 14.55809580710014,41.22707565390062,145.3884961828158 14.55834254808589,41.22709741212099,145.6128820263018 14.55871579180362,41.22729564459409,146.4779606030282 14.55910875068225,41.22756554863201,146.4944144068432 14.55926486479549,41.22793553100797,146.6196591682496 14.55933012448081,41.22829062088895,145.5115830480431 14.5594928496073,41.22859009224003,144.4659373223618 14.56009184908078,41.22905151096313,143.367352332897 14.56052382175995,41.2291813472732,142.7531645977583 14.56047327609753,41.23077633091263,138.1954346044856 14.56049786576406,41.23123788908625,135.844926781756 14.56083143938202,41.23206671729739,132.3394289317887 14.56095830825727,41.23246051034283,131.2944020327321 14.56112303670727,41.232866465645,130.2041261546372 14.56104200519501,41.23309543674198,129.7777390604016 14.56082549079952,41.23338987489995,130.06634823511 14.56045530826603,41.23380126030965,129.345026157899 14.56008424877116,41.23423308264601,129.3274395361834 14.5598313420895,41.23449047964775,129.9046060316633 14.55858688847329,41.23567531651063,132.48780510287 14.55683879965685,41.23709333128106,137.7569891392539 14.55551235733195,41.23630645223854,135.8823037786087 14.55523559431399,41.23609799624336,136.3088575113524 14.55490327884488,41.23582130643263,134.4330488180242 14.55440806628429,41.23561417488153,133.3350579610817 14.5539470449204,41.23540564129651,132.1916444473026 14.55343975096012,41.23520352079754,130.9845877722435 14.55318828011769,41.23525570896401,130.1640202515113 14.55265738220352,41.23601125398564,128.872909597882 14.55245715033354,41.23609254502092,128.3755619730856 14.55230529434361,41.23602560886459,128.0452279829412 14.5521984930306,41.23591765136853,127.7539819899116 14.55201566742417,41.23583150315469,127.7336710864084 14.55109077832992,41.2355583541375,126.1592661642507 14.55151573767851,41.23506735835404,126.0482177263062 14.55170806205645,41.23489030216422,125.8387285605087 14.55188752371314,41.23467168801198,125.7941068648634 14.55204070779281,41.23453201049012,125.3675569304506 14.55187231618673,41.23446450291521,125.2144118141043 14.55080622110815,41.23399372350854,122.9270429026476 14.55065879098974,41.23387455123814,123.4919270783875 14.55036294574345,41.23357446623915,122.8631639180651 14.55013235396714,41.23331005582298,120.4451175752015 14.54998198623738,41.23314220563346,119.6986292623033 14.54977670937852,41.23292381170013,119.0675069649939 14.54959903895173,41.23277748097568,119.022283388797 14.54945324005772,41.23264792612803,118.0113759941164 14.54925104310204,41.23249029002808,117.3902349593647 14.54899226765758,41.23231599750839,117.1856347731634 14.5488164491161,41.23222363306888,116.9830896113243 14.54858180892996,41.2324145703402,116.6865546468638 14.54843121463528,41.23258965695815,116.9478610084574 14.54827138654966,41.23280980601005,117.5907346358158 14.54806882972776,41.23313022682952,118.5270347980744 14.5478759720372,41.23341562439511,118.3117330244974 14.54704141899221,41.23464393975131,120.2665047884726 14.54702046651868,41.23473279098744,120.5863464021783 14.54664274844172,41.23467053305347,121.0178622560844 14.54647468918489,41.23466392337635,120.9228160888206 14.5463462632294,41.23497848916256,119.7376430469631 14.54624985519039,41.23517416575633,120.1360649911183 14.54638216881486,41.2352120769561,120.3289782293338 14.54634006843376,41.23528864529551,119.6064037440906 14.54623934275427,41.23555296223944,116.0865216303777 14.54624875334657,41.23561653284387,115.2624162522467 14.54621284445545,41.23564716015979,114.5399128969396 14.54625584078789,41.23573207428319,113.7948152569788 14.54632404490534,41.23580243409863,113.4839770089056 14.54638439617336,41.23585862080413,113.3640756744055 14.54647386694903,41.23593866027832,113.3978130723466 14.5465042788352,41.23604678421065,112.5359068899225 14.54651098078559,41.23634782341711,103.3236336351395 14.54652220357887,41.23656374792996,102.7450200816664 14.54652375149988,41.23668104502833,102.214167460197 14.54655982069331,41.23692409921961,102.6751930678425 14.54672198914184,41.23691029730048,102.9078699038817 14.54687852230199,41.23698829057579,102.7053365444541 14.54722419816753,41.23735194544935,102.6946416370482 14.54752153027298,41.23765913989709,105.395398029774 14.54768609297141,41.2377729294403,105.9726503477283 14.54772157474937,41.23790148010769,106.4903592304377 14.54787404032953,41.23793234850621,105.7696026801437 14.54809815001462,41.23798037207758,105.1480969532788 14.54830900649448,41.23805319301761,105.2472355427479 14.548417294871,41.23815824615299,105.5780265803262 14.54843556371444,41.23836663877012,106.7439799713818 14.54837081072057,41.2385439059146,108.8868966875337 14.54833537845905,41.23870958326454,111.114289995733 14.54827340334711,41.23916765123301,114.6725588271541 14.54834819804282,41.23942211484815,116.8470870387562 14.54868668732351,41.23973145457298,123.1071501197007 14.54904875238808,41.24015724658096,127.5721009834273 14.54925793051965,41.2405064773185,129.5259607589462 14.54941856657467,41.24081101585367,130.5474303316468 14.54944280327108,41.24107898538767,131.2669032710088 14.54963303138292,41.24138188166452,131.2026763027253 14.55010505514226,41.24174463539814,133.6529081020899 14.55066496879335,41.24200649450025,135.6027977998556 14.55165534797753,41.24230133365583,137.5771985587079 14.55220275095144,41.24249281151386,138.3301779518308 14.55274895627469,41.24268231595513,139.3920787925449 14.55286733570431,41.24270176478694,139.6614976930401 14.55287963971304,41.24297922696024,139.7408182099712 14.55288342501221,41.24326324524237,140.7658317838884 14.55255707806215,41.24377414331691,141.9586655839498 14.55239369625287,41.24402644076662,141.2894433492848 14.55235255017482,41.24418646945657,141.962089877619 14.55232017754225,41.24444661196684,141.6399644781733 14.55224980544182,41.24458155412692,141.3576074099648 14.55214966840182,41.24477466193178,140.9990007746908 14.55221247464705,41.24486952898172,140.2808840346993 14.55245158672059,41.24506719628437,140.8825538616269 14.55258549259316,41.24530488708086,139.9509825478391 14.55285460146978,41.24547707068,140.6116248706498 14.55319231820488,41.24568262014834,140.1179150085514 14.55333673379516,41.24579973770333,140.399975532504 14.55336875576576,41.24603422963263,139.4613063066706 14.55338928949074,41.24626340864334,139.7489382606558 14.55356109584994,41.2463881439793,142.0461956931505 14.55363928484683,41.24647904988829,142.3210669343322 14.55363696965358,41.24660676127992,141.196094482828 14.55367288655995,41.24681847537932,140.155797756353 14.55401399560873,41.24707573596107,141.0503257874307 14.55425229137597,41.24724252964424,143.3581635422257 14.55471033016065,41.24755938126363,145.0387139007368 14.55507454348935,41.24775921373586,145.6005947991465 14.55535457806428,41.24802550619498,143.8234696623128 14.55574967805744,41.24832316556254,140.0977423360017 14.55609737793449,41.24837956541379,136.6044676055683 14.55645623744184,41.24834747101475,137.4291789002427 14.55667845833097,41.24877502239416,132.5570707276235 14.5568302415125,41.24900751787752,133.258075344436 14.55693988524757,41.24933443774986,135.0525865878919 14.55694507653155,41.24984659901627,138.5902188750657 14.55690823097872,41.25038107960385,145.6254087986997 14.55690218020967,41.25064238387307,148.1086653880944 14.55689240440117,41.25102653577114,150.9345034530714 14.55678529965846,41.25121295587729,152.6102206002554 14.55653301835023,41.2513363186301,153.3619742104436 14.55625839420725,41.25139195722483,153.7252626825927 14.555490176279,41.25114783905216,152.7283460191077 14.55417624108265,41.25069093057746,154.9797097677763 14.55367023346606,41.25050560972167,155.6738666743322 14.5534418440595,41.25040906337873,156.0393795466962 14.55448659533081,41.24956829909705,149.2628598114143 14.55235527372567,41.24852462692476,143.2423937463738 14.55205492902422,41.249139975665,148.928886714656 14.55155271988972,41.24915779206055,147.7232346906751 14.55147861173982,41.24957748493792,151.3238380198696 14.55155472310823,41.25002939228645,153.8518523855977 14.55219341302563,41.25006198235607,154.9548883568801 14.55324747632125,41.2503693595651,156.6453783604076 14.5550605069751,41.25099006527344,152.5753166280737 14.55640197177692,41.25138622223012,153.9598620625862 14.55682537285344,41.25114847235707,152.4235158959545 14.55691457084169,41.25025680643262,144.0451273436306 14.55690659145998,41.24920566960556,134.0739012424224 14.55651876982963,41.24846293895997,135.5598107360932 14.55646560994923,41.24827652221889,138.3402816324023 14.55664584879134,41.2476635048105,145.2725740576243 14.5568367579524,41.24725197345472,148.2614351090977 14.55710219360922,41.2469620354242,150.2125786521784 14.55727636070137,41.24678247500484,149.4830071391256 14.55732483107026,41.24650713169049,149.5728787488917 14.55731365331622,41.24613546487531,148.9241709799759 14.55727257892327,41.24539667060649,149.3413507346704 14.55725889339652,41.24428991279493,149.846694522318 14.55715899856777,41.24390999131578,149.026081475371 14.55686543518213,41.24371253398277,148.1955760298347 14.55388627914137,41.2426620917612,141.2048386480931 14.55321915153521,41.24238188709872,139.2717780419721 14.5530236798777,41.24221682481986,138.5149090150772 14.55315271655947,41.24189928245464,138.6489021319373 14.5524577647978,41.24146751531765,135.911962624972 14.55170250022963,41.24083655362566,133.8233755498794 14.55114008792784,41.24125589756628,135.6410760522272 14.55166967957643,41.24081423709528,133.5979886488446 14.55143417985495,41.24045966712625,131.8831842797731 14.551156324779,41.24031535969625,131.1720963250331 14.55050609644347,41.24032043994122,132.0175813395808 14.54998342968094,41.24031238985847,130.8570331800054 14.5490439227563,41.24014528903426,127.5473993592989 14.54873298686125,41.23980862753273,122.9984646496111 14.54842338956989,41.23950604704823,118.4295595734119 14.54828410818033,41.23896598250892,112.9746710457307 14.54841716289033,41.23841038324236,107.2553994022881 14.54835838041119,41.23806812852831,105.0030920095761 14.54779341001914,41.23791691794852,105.3583882614991 14.54755350020095,41.23817627032242,110.4052351199146 14.54719297049466,41.23855557979292,120.2460653500159 14.54675815568876,41.23881434188673,122.1326493692676 14.5465388540905,41.23888699433464,125.4737676132173 14.54626771032746,41.23878533861495,126.8687355094154 14.54601339065484,41.23868059320304,127.8808493021037 14.54578211357367,41.23860527273807,128.0598419134397 14.54581071744446,41.23849233859331,127.1438620111688 14.54488301348475,41.23782468487951,123.7565082661445 14.54480534517015,41.23783694910784,123.6479552326086 14.54470644147929,41.23794144045534,124.6823067718709 14.54448197452121,41.23823618658106,127.0451754061069 14.54441203627262,41.23824788134014,127.1817909486552 14.54358921154329,41.23794980823089,125.4846196640113 14.54192713101194,41.23732617252032,117.92409407366 14.54114561627757,41.23690449039036,115.6464981418334 14.54075058534361,41.23660381458819,114.9905322774046 14.5406504187125,41.23639240055608,115.0969696858701 14.54059775850143,41.23606513096054,112.9540943679889 14.5402818078295,41.23596625463093,113.7827523958887 14.53990402822842,41.23577905062754,114.0467003940958 14.53927402384112,41.23566024158152,113.6777392455281 14.5382284290653,41.23562383839679,112.7186105172798 14.53773464008955,41.23552710433906,111.8790298914851 14.53697469522765,41.23535831045549,111.6236698332619 14.53673300400468,41.23527397479178,111.8388383045203 14.5363939057062,41.23526311320649,112.5184740178534 14.5361286009973,41.2352634134329,111.8740567021136 14.5360061507692,41.23523396070623,112.0313432808666 14.53513481006959,41.23493847439601,111.6303421865322 14.53482434192405,41.23480673501175,112.994348687537 14.53428010286691,41.23474005996528,113.8069602780185 14.53366854345552,41.23470626095207,114.4704030402134 14.5336210514377,41.2344963585363,115.5364742672354 14.53361544073108,41.23400083007686,113.0583099381678 14.5337784064723,41.23146967766605,112.0599424155293 14.53387665852704,41.23116725313738,110.4539925288355 14.53415205670582,41.23068001493337,109.5460989449582 14.53444175260585,41.23021149912022,109.2644787826616 14.53468642713606,41.22977116860745,108.8034534621898 14.53472229696031,41.22945448905191,109.8154440135389 14.53463794507558,41.22915503222584,109.0371938620172 14.53450999102772,41.22892032571736,109.1238638027472 14.53429763868501,41.2285269030552,106.4983034756926 14.53431909373952,41.22833560899618,106.5586125766513 14.53437647544031,41.22810950409656,110.3942985566106 14.5347913669012,41.22760448432665,111.999151445716 14.53555362981969,41.22680681922262,114.9986140632647 14.53573258799363,41.22649892888472,114.4163024491203 14.53596756540789,41.22619430366327,112.1127306457911 14.53638418374302,41.226929261927,99.698180923206 14.5367974280913,41.2258126475624,97.61440669557666 14.53680223975867,41.2250508467863,97.49235591034844 14.53730259667335,41.22370434099461,88.39369674228472 14.53758310882797,41.22270093682582,75.47894237382702 14.53787776794132,41.22223911702157,77.50296841990483 14.53821571221185,41.22152467896706,82.80456290412957 14.53732358831583,41.22328327652882,84.65093874966399 14.53652556162339,41.22310930038969,81.54507324107061 14.53597989018091,41.22281857111791,80.3335342539758 14.53563822121871,41.22262826091287,77.62657834147494 14.53526816069517,41.22235509990784,73.42862057029218 14.53450381007305,41.22235256607283,73.29685413547492 14.53412799446282,41.22230722286847,73.34975087068348 14.53365572195806,41.22214252613882,70.26176634384443 14.53275016635989,41.22209975758057,68.47715010334544 14.53220319589597,41.22208867569884,67.17521772615457 14.53155927763969,41.2220158476226,64.07996134634686 14.53079585724099,41.22195928556013,61.3561282483997 14.53048298090785,41.22191941328231,60.31972464987828 14.53088981609583,41.22176900568983,60.48435141336149 14.53155833764909,41.22192328827076,62.40590486623491 14.53251050161412,41.22177783341454,63.17346608158154 14.53365419373979,41.22140695165886,62.65126401526346 14.53467486397106,41.2210178343279,62.18205994751559 14.53520081837163,41.2208189545442,62.33456731065624 14.53574369254057,41.22058861142017,62.74498246002899 
			</coordinates>
		</LineString>
	</Placemark>
	<Placemark id="535A13B209000003">
		<name>Bosco Caldara | animazione cavalette</name>
		<LookAt>
			<longitude>14.55785850746556</longitude>
			<latitude>41.22729777757348</latitude>
			<altitude>146.7977817524301</altitude>
			<heading>86.27897385466382</heading>
			<tilt>2.94368893619344</tilt>
			<gx:fovy>35</gx:fovy>
			<range>383.1686886862008</range>
			<altitudeMode>absolute</altitudeMode>
		</LookAt>
		<styleUrl>#__managed_style_099F8FB6AA368116498E</styleUrl>
		<Point>
			<coordinates>14.55834021136463,41.22709796341899,145.7797399465425</coordinates>
		</Point>
	</Placemark>
	<Placemark id="535A13B209000005">
		<name>cantine tufacee</name>
		<LookAt>
			<longitude>14.54642107895933</longitude>
			<latitude>41.23529101147729</latitude>
			<altitude>119.7163389952104</altitude>
			<heading>86.27351951455171</heading>
			<tilt>2.943695483653813</tilt>
			<gx:fovy>35</gx:fovy>
			<range>397.3458699521871</range>
			<altitudeMode>absolute</altitudeMode>
		</LookAt>
		<styleUrl>#__managed_style_099F8FB6AA368116498E</styleUrl>
		<Point>
			<coordinates>14.54635705970567,41.23521545492164,120.2552238811477</coordinates>
		</Point>
	</Placemark>
	<Placemark id="535A13B209000004">
		<name>2 chiesa madonna scavi</name>
		<LookAt>
			<longitude>14.54832849197175</longitude>
			<latitude>41.23264066143135</latitude>
			<altitude>116.7930301942502</altitude>
			<heading>86.27419344434595</heading>
			<tilt>2.943545718563244</tilt>
			<gx:fovy>35</gx:fovy>
			<range>73.04166643518329</range>
			<altitudeMode>absolute</altitudeMode>
		</LookAt>
		<styleUrl>#__managed_style_099F8FB6AA368116498E</styleUrl>
		<Point>
			<coordinates>14.54831742708838,41.23253200351948,117.3721908637034</coordinates>
		</Point>
	</Placemark>
	<Placemark id="535A13B209000006">
		<name>Mulino</name>
		<LookAt>
			<longitude>14.54602386522429</longitude>
			<latitude>41.23654689664896</latitude>
			<altitude>102.974127656527</altitude>
			<heading>86.27325768066726</heading>
			<tilt>2.943703225988695</tilt>
			<gx:fovy>35</gx:fovy>
			<range>414.1101812139095</range>
			<altitudeMode>absolute</altitudeMode>
		</LookAt>
		<styleUrl>#__managed_style_099F8FB6AA368116498E</styleUrl>
		<Point>
			<coordinates>14.54655488639089,41.23688059635978,102.6478750783261</coordinates>
		</Point>
	</Placemark>
	<Placemark id="535A13B209000007">
		<name>5 cantina Simone Giacomo</name>
		<LookAt>
			<longitude>14.54775201188898</longitude>
			<latitude>41.23800894623069</latitude>
			<altitude>106.9518524741602</altitude>
			<heading>86.27480318185118</heading>
			<tilt>2.943844246111009</tilt>
			<gx:fovy>35</gx:fovy>
			<range>719.477370538807</range>
			<altitudeMode>absolute</altitudeMode>
		</LookAt>
		<styleUrl>#__managed_style_099F8FB6AA368116498E</styleUrl>
		<Point>
			<coordinates>14.54847273744759,41.2387595154334,112.2163902377815</coordinates>
		</Point>
	</Placemark>
	<Placemark id="535A13B209000008">
		<name>6Podere Veneri vecchia cantina</name>
		<LookAt>
			<longitude>14.55328019341065</longitude>
			<latitude>41.24646059574583</latitude>
			<altitude>136.7304463884185</altitude>
			<heading>86.2783319189523</heading>
			<tilt>2.943682309054322</tilt>
			<gx:fovy>35</gx:fovy>
			<range>368.8188806601829</range>
			<altitudeMode>absolute</altitudeMode>
		</LookAt>
		<styleUrl>#__managed_style_099F8FB6AA368116498E</styleUrl>
		<Point>
			<coordinates>14.55350668058043,41.24649394578585,140.7278704258337</coordinates>
		</Point>
	</Placemark>
	<Placemark id="535A13B209000009">
		<name>Casinon Pelosi (Pengue)</name>
		<LookAt>
			<longitude>14.55535003820273</longitude>
			<latitude>41.24778437872948</latitude>
			<altitude>144.9483515367094</altitude>
			<heading>86.28008767325966</heading>
			<tilt>2.943920834777697</tilt>
			<gx:fovy>35</gx:fovy>
			<range>885.3294109879062</range>
			<altitudeMode>absolute</altitudeMode>
		</LookAt>
		<styleUrl>#__managed_style_099F8FB6AA368116498E</styleUrl>
		<Point>
			<coordinates>14.55454785002039,41.24956954280416,149.2610121932569</coordinates>
		</Point>
	</Placemark>
	<Placemark id="535A13B20900000A">
		<name>Chiesa San Barbato</name>
		<LookAt>
			<longitude>14.55159980529943</longitude>
			<latitude>41.24902020907942</latitude>
			<altitude>146.1549290505508</altitude>
			<heading>86.27868711707636</heading>
			<tilt>2.943602323344782</tilt>
			<gx:fovy>35</gx:fovy>
			<range>195.6166903693156</range>
			<altitudeMode>absolute</altitudeMode>
		</LookAt>
		<styleUrl>#__managed_style_099F8FB6AA368116498E</styleUrl>
		<Point>
			<coordinates>14.55154332453812,41.24921588224516,148.5599621356621</coordinates>
		</Point>
	</Placemark>
	<Placemark id="535A13B20900000B">
		<name>Agriturismo Le Vigne di Filippo</name>
		<LookAt>
			<longitude>14.55272313809977</longitude>
			<latitude>41.24191163359451</latitude>
			<altitude>138.179507986372</altitude>
			<heading>86.27996982572918</heading>
			<tilt>2.944052496183786</tilt>
			<gx:fovy>35</gx:fovy>
			<range>1170.43196164057</range>
			<altitudeMode>absolute</altitudeMode>
		</LookAt>
		<styleUrl>#__managed_style_099F8FB6AA368116498E</styleUrl>
		<Point>
			<coordinates>14.55122513153849,41.24101327540413,135.7996375661875</coordinates>
		</Point>
	</Placemark>
	<Placemark id="535A13B20900000C">
		<name>Poi Seneta</name>
		<LookAt>
			<longitude>14.53547385542731</longitude>
			<latitude>41.23328386695963</latitude>
			<altitude>105.7757916551296</altitude>
			<heading>86.26769198793102</heading>
			<tilt>2.944059996297699</tilt>
			<gx:fovy>35</gx:fovy>
			<range>1186.667499150499</range>
			<altitudeMode>absolute</altitudeMode>
		</LookAt>
		<styleUrl>#__managed_style_099F8FB6AA368116498E</styleUrl>
		<Point>
			<coordinates>14.53726386438707,41.23350998545165,88.20443772529003</coordinates>
		</Point>
	</Placemark>
	<Placemark id="535A13B20900000D">
		<name>Punto Panoramico Seneta</name>
		<LookAt>
			<longitude>14.53547385520185</longitude>
			<latitude>41.23328386695962</latitude>
			<altitude>105.7757916551296</altitude>
			<heading>86.26769198756769</heading>
			<tilt>2.944059996128147</tilt>
			<gx:fovy>35</gx:fovy>
			<range>1186.667499150499</range>
			<altitudeMode>absolute</altitudeMode>
		</LookAt>
		<styleUrl>#__managed_style_099F8FB6AA368116498E</styleUrl>
		<Point>
			<coordinates>14.53618087378841,41.23524572357678,112.6267347486307</coordinates>
		</Point>
	</Placemark>
	<Placemark id="535A13B20900000E">
		<name>Terme Telese | chiusura con acqua sulfurea</name>
		<LookAt>
			<longitude>14.53023739554952</longitude>
			<latitude>41.22318321656022</latitude>
			<altitude>119.3785003094588</altitude>
			<heading>86.2649617251784</heading>
			<tilt>2.943834180335229</tilt>
			<gx:fovy>35</gx:fovy>
			<range>697.6846790959826</range>
			<altitudeMode>absolute</altitudeMode>
		</LookAt>
		<styleUrl>#__managed_style_099F8FB6AA368116498E</styleUrl>
		<Point>
			<coordinates>14.52985239773683,41.22191915729934,60.71448191310383</coordinates>
		</Point>
	</Placemark>
</Document>
</kml>
