{
  "type": "FeatureCollection",
  "features": [
    {
      "type": "Feature",
      "properties": {
        "itineraryId": "itinerary_01"
      },
      "geometry": {
        "type": "LineString",
        "coordinates": [
          [
            14.782043,
            41.129596
          ],
          [
            14.7810336,
            41.1301732
          ],
          [
            14.7802566,
            41.1304941
          ],
          [
            14.7792971,
            41.1307125
          ],
          [
            14.7788995,
            41.1308217
          ],
          [
            14.7783146,
            41.1310897
          ],
          [
            14.7777885,
            41.1313289
          ],
          [
            14.7770781,
            41.1315206
          ],
          [
            14.7752832,
            41.1318397
          ],
          [
            14.7750202,
            41.131867
          ],
          [
            14.7749036,
            41.1317125
          ],
          [
            14.7747804,
            41.1317637
          ],
          [
            14.7748398,
            41.1318108
          ],
          [
            14.7743691,
            41.1319728
          ],
          [
            14.77419,
            41.1320424
          ],
          [
            14.7739322,
            41.1321451
          ],
          [
            14.7737454,
            41.1318789
          ],
          [
            14.7734994,
            41.1315231
          ],
          [
            14.7733671,
            41.1313613
          ],
          [
            14.7732606,
            41.1312447
          ],
          [
            14.7728712,
            41.1314568
          ],
          [
            14.7714064,
            41.1318091
          ],
          [
            14.771883,
            41.131683
          ],
          [
            14.7722165,
            41.1316057
          ],
          [
            14.7725038,
            41.131537
          ],
          [
            14.7728132,
            41.1314685
          ],
          [
            14.7731351,
            41.1312957
          ],
          [
            14.7732475,
            41.1312339
          ],
          [
            14.7732008,
            41.1311526
          ],
          [
            14.7732449,
            41.1311332
          ],
          [
            14.7735168,
            41.1309913
          ],
          [
            14.7741119,
            41.1316541
          ],
          [
            14.7741519,
            41.1317137
          ],
          [
            14.7743634,
            41.1319694
          ],
          [
            14.7748255,
            41.1318003
          ],
          [
            14.7746012,
            41.1315602
          ],
          [
            14.7745904,
            41.1315759
          ],
          [
            14.7746936,
            41.1316988
          ],
          [
            14.7745978,
            41.131595
          ],
          [
            14.7746289,
            41.1315755
          ],
          [
            14.7747956,
            41.1317642
          ],
          [
            14.7748996,
            41.1317102
          ],
          [
            14.7749459,
            41.1317653
          ],
          [
            14.7750954,
            41.1317529
          ],
          [
            14.7751416,
            41.1318461
          ],
          [
            14.7755446,
            41.131774
          ],
          [
            14.7757896,
            41.1317361
          ],
          [
            14.7763921,
            41.1316368
          ],
          [
            14.7763239,
            41.1314885
          ],
          [
            14.7763593,
            41.1315493
          ],
          [
            14.7764185,
            41.1316378
          ],
          [
            14.7765388,
            41.1316379
          ],
          [
            14.7770467,
            41.1315476
          ],
          [
            14.7771049,
            41.1316691
          ],
          [
            14.7771552,
            41.1316634
          ],
          [
            14.7772051,
            41.1316566
          ],
          [
            14.7771625,
            41.1315369
          ],
          [
            14.7773901,
            41.131444
          ],
          [
            14.7777145,
            41.1313505
          ],
          [
            14.7780838,
            41.1316915
          ],
          [
            14.7790066,
            41.1324658
          ],
          [
            14.7788956,
            41.1322783
          ],
          [
            14.7782769,
            41.1317893
          ],
          [
            14.7777865,
            41.1313616
          ],
          [
            14.7783059,
            41.1311068
          ],
          [
            14.7786981,
            41.1309376
          ],
          [
            14.778978,
            41.1308066
          ],
          [
            14.7791833,
            41.1307485
          ],
          [
            14.7797626,
            41.1306162
          ],
          [
            14.7802963,
            41.1304679
          ],
          [
            14.7804832,
            41.1304
          ],
          [
            14.7806447,
            41.1304036
          ],
          [
            14.7808574,
            41.130324
          ],
          [
            14.7809574,
            41.1302862
          ],
          [
            14.7809458,
            41.1302299
          ],
          [
            14.7810505,
            41.1301911
          ],
          [
            14.7812977,
            41.1300609
          ],
          [
            14.7815811,
            41.1299002
          ],
          [
            14.781964,
            41.1296138
          ],
          [
            14.782424,
            41.1293765
          ],
          [
            14.782043,
            41.129596
          ]
        ]
      }
    }
  ]
}