{
  "type": "FeatureCollection",
  "features": [
    {
      "type": "Feature",
      "properties": {
        "itineraryId": "itinerary_04"
      },
      "geometry": {
        "type": "LineString",
        "coordinates": [
          [
            14.534932,
            41.2197376
          ],
          [
            14.534705,
            41.2195665
          ],
          [
            14.5355744,
            41.2192268
          ],
          [
            14.5358718,
            41.2194219
          ],
          [
            14.5362648,
            41.219525
          ],
          [
            14.5364634,
            41.2198964
          ],
          [
            14.5365457,
            41.2204789
          ],
          [
            14.5370469,
            41.2211832
          ],
          [
            14.5374284,
            41.2213745
          ],
          [
            14.5380124,
            41.2214446
          ],
          [
            14.5384816,
            41.2215664
          ],
          [
            14.5382242,
            41.2214466
          ],
          [
            14.538329,
            41.22116
          ],
          [
            14.5384903,
            41.2210024
          ],
          [
            14.5385841,
            41.2209102
          ],
          [
            14.5406904,
            41.2212584
          ],
          [
            14.5413086,
            41.2214335
          ],
          [
            14.5414671,
            41.2216465
          ],
          [
            14.5415658,
            41.2219909
          ],
          [
            14.5416956,
            41.2222735
          ],
          [
            14.5416498,
            41.2226474
          ],
          [
            14.5415348,
            41.2231476
          ],
          [
            14.5418247,
            41.2236226
          ],
          [
            14.5418499,
            41.2238924
          ],
          [
            14.5416911,
            41.2242586
          ],
          [
            14.5416389,
            41.2246036
          ],
          [
            14.5417247,
            41.2249973
          ],
          [
            14.5418968,
            41.2255478
          ],
          [
            14.5419828,
            41.2258326
          ],
          [
            14.5422142,
            41.2260114
          ],
          [
            14.5425467,
            41.2265044
          ],
          [
            14.5428903,
            41.2268856
          ],
          [
            14.5432364,
            41.2273171
          ],
          [
            14.5433432,
            41.2274837
          ],
          [
            14.5433483,
            41.2276643
          ],
          [
            14.5433138,
            41.2278403
          ],
          [
            14.5436705,
            41.2281009
          ],
          [
            14.5439948,
            41.2283083
          ],
          [
            14.5442482,
            41.2286
          ],
          [
            14.5444447,
            41.22888
          ],
          [
            14.544557,
            41.229056
          ],
          [
            14.5453804,
            41.2293225
          ],
          [
            14.5459006,
            41.2292373
          ],
          [
            14.5461526,
            41.2292326
          ],
          [
            14.5465418,
            41.2293156
          ],
          [
            14.5470217,
            41.2294366
          ],
          [
            14.5475354,
            41.2296173
          ],
          [
            14.5477155,
            41.2296095
          ],
          [
            14.5479102,
            41.229541
          ],
          [
            14.5483266,
            41.2294171
          ],
          [
            14.5487094,
            41.2294096
          ],
          [
            14.5490295,
            41.2294521
          ],
          [
            14.5493445,
            41.2295143
          ],
          [
            14.5500064,
            41.2298909
          ],
          [
            14.551299,
            41.2292563
          ],
          [
            14.5516677,
            41.229416
          ],
          [
            14.5521993,
            41.2294111
          ],
          [
            14.5526978,
            41.2292807
          ],
          [
            14.5531287,
            41.2291315
          ],
          [
            14.5549109,
            41.2285951
          ],
          [
            14.5565146,
            41.228134
          ],
          [
            14.5570113,
            41.2279928
          ],
          [
            14.5580958,
            41.2270757
          ],
          [
            14.5583425,
            41.2270974
          ],
          [
            14.5587158,
            41.2272956
          ],
          [
            14.5591088,
            41.2275655
          ],
          [
            14.5592649,
            41.2279355
          ],
          [
            14.5593301,
            41.2282906
          ],
          [
            14.5594928,
            41.2285901
          ],
          [
            14.5600918,
            41.2290515
          ],
          [
            14.5605238,
            41.2291813
          ],
          [
            14.5604733,
            41.2307763
          ],
          [
            14.5604979,
            41.2312379
          ],
          [
            14.5608314,
            41.2320667
          ],
          [
            14.5609583,
            41.2324605
          ],
          [
            14.561123,
            41.2328665
          ],
          [
            14.561042,
            41.2330954
          ],
          [
            14.5608255,
            41.2333899
          ],
          [
            14.5604553,
            41.2338013
          ],
          [
            14.5600842,
            41.2342331
          ],
          [
            14.5598313,
            41.2344905
          ],
          [
            14.5585869,
            41.2356753
          ],
          [
            14.5568388,
            41.2370933
          ],
          [
            14.5555124,
            41.2363065
          ],
          [
            14.5552356,
            41.236098
          ],
          [
            14.5549033,
            41.2358213
          ],
          [
            14.5544081,
            41.2356142
          ],
          [
            14.553947,
            41.2354056
          ],
          [
            14.5534398,
            41.2352035
          ],
          [
            14.5531883,
            41.2352557
          ],
          [
            14.5526574,
            41.2360113
          ],
          [
            14.5524572,
            41.2360925
          ],
          [
            14.5523053,
            41.2360256
          ],
          [
            14.5521985,
            41.2359177
          ],
          [
            14.5520157,
            41.2358315
          ],
          [
            14.5510908,
            41.2355584
          ],
          [
            14.5515157,
            41.2350674
          ],
          [
            14.5517081,
            41.2348903
          ],
          [
            14.5518875,
            41.2346717
          ],
          [
            14.5520407,
            41.234532
          ],
          [
            14.5518723,
            41.2344645
          ],
          [
            14.5508062,
            41.2339937
          ],
          [
            14.5506588,
            41.2338746
          ],
          [
            14.5503629,
            41.2335745
          ],
          [
            14.5501324,
            41.2333101
          ],
          [
            14.549982,
            41.2331422
          ],
          [
            14.5497767,
            41.2329238
          ],
          [
            14.549599,
            41.2327775
          ],
          [
            14.5494532,
            41.2326479
          ],
          [
            14.549251,
            41.2324903
          ],
          [
            14.5489923,
            41.232316
          ],
          [
            14.5488164,
            41.2322236
          ],
          [
            14.5485818,
            41.2324146
          ],
          [
            14.5484312,
            41.2325897
          ],
          [
            14.5482714,
            41.2328098
          ],
          [
            14.5480688,
            41.2331302
          ],
          [
            14.547876,
            41.2334156
          ],
          [
            14.5470414,
            41.2346439
          ],
          [
            14.5470205,
            41.2347328
          ],
          [
            14.5466427,
            41.2346705
          ],
          [
            14.5464747,
            41.2346639
          ],
          [
            14.5463463,
            41.2349785
          ],
          [
            14.5462499,
            41.2351742
          ],
          [
            14.5463822,
            41.2352121
          ],
          [
            14.5463401,
            41.2352886
          ],
          [
            14.5462393,
            41.235553
          ],
          [
            14.5462488,
            41.2356165
          ],
          [
            14.5462128,
            41.2356472
          ],
          [
            14.5462558,
            41.2357321
          ],
          [
            14.546324,
            41.2358024
          ],
          [
            14.5463844,
            41.2358586
          ],
          [
            14.5464739,
            41.2359387
          ],
          [
            14.5465043,
            41.2360468
          ],
          [
            14.546511,
            41.2363478
          ],
          [
            14.5465222,
            41.2365637
          ],
          [
            14.5465238,
            41.236681
          ],
          [
            14.5465598,
            41.2369241
          ],
          [
            14.546722,
            41.2369103
          ],
          [
            14.5468785,
            41.2369883
          ],
          [
            14.5472242,
            41.2373519
          ],
          [
            14.5475215,
            41.2376591
          ],
          [
            14.5476861,
            41.2377729
          ],
          [
            14.5477216,
            41.2379015
          ],
          [
            14.547874,
            41.2379323
          ],
          [
            14.5480982,
            41.2379804
          ],
          [
            14.548309,
            41.2380532
          ],
          [
            14.5484173,
            41.2381582
          ],
          [
            14.5484356,
            41.2383666
          ],
          [
            14.5483708,
            41.2385439
          ],
          [
            14.5483354,
            41.2387096
          ],
          [
            14.5482734,
            41.2391677
          ],
          [
            14.5483482,
            41.2394221
          ],
          [
            14.5486867,
            41.2397315
          ],
          [
            14.5490488,
            41.2401572
          ],
          [
            14.5492579,
            41.2405065
          ],
          [
            14.5494186,
            41.240811
          ],
          [
            14.5494428,
            41.241079
          ],
          [
            14.549633,
            41.2413819
          ],
          [
            14.5501051,
            41.2417446
          ],
          [
            14.550665,
            41.2420065
          ],
          [
            14.5516553,
            41.2423013
          ],
          [
            14.5522028,
            41.2424928
          ],
          [
            14.552749,
            41.2426823
          ],
          [
            14.5528673,
            41.2427018
          ],
          [
            14.5528796,
            41.2429792
          ],
          [
            14.5528834,
            41.2432632
          ],
          [
            14.5525571,
            41.2437741
          ],
          [
            14.5523937,
            41.2440264
          ],
          [
            14.5523526,
            41.2441865
          ],
          [
            14.5523202,
            41.2444466
          ],
          [
            14.5522498,
            41.2445816
          ],
          [
            14.5521497,
            41.2447747
          ],
          [
            14.5522125,
            41.2448695
          ],
          [
            14.5524516,
            41.2450672
          ],
          [
            14.5525855,
            41.2453049
          ],
          [
            14.5528546,
            41.2454771
          ],
          [
            14.5531923,
            41.2456826
          ],
          [
            14.5533367,
            41.2457997
          ],
          [
            14.5533688,
            41.2460342
          ],
          [
            14.5533893,
            41.2462634
          ],
          [
            14.5535611,
            41.2463881
          ],
          [
            14.5536393,
            41.246479
          ],
          [
            14.553637,
            41.2466068
          ],
          [
            14.5536729,
            41.2468185
          ],
          [
            14.554014,
            41.2470757
          ],
          [
            14.5542523,
            41.2472425
          ],
          [
            14.5547103,
            41.2475594
          ],
          [
            14.5550745,
            41.2477592
          ],
          [
            14.5553546,
            41.2480255
          ],
          [
            14.5557497,
            41.2483232
          ],
          [
            14.5560974,
            41.2483796
          ],
          [
            14.5564562,
            41.2483475
          ],
          [
            14.5566785,
            41.248775
          ],
          [
            14.5568302,
            41.2490075
          ],
          [
            14.5569399,
            41.2493344
          ],
          [
            14.5569451,
            41.2498466
          ],
          [
            14.5569082,
            41.2503811
          ],
          [
            14.5569022,
            41.2506424
          ],
          [
            14.5568924,
            41.2510265
          ],
          [
            14.5567853,
            41.251213
          ],
          [
            14.556533,
            41.2513363
          ],
          [
            14.5562584,
            41.251392
          ],
          [
            14.5554902,
            41.2511478
          ],
          [
            14.5541762,
            41.2506909
          ],
          [
            14.5536702,
            41.2505056
          ],
          [
            14.5534418,
            41.2504091
          ],
          [
            14.5544866,
            41.2495683
          ],
          [
            14.5523553,
            41.2485246
          ],
          [
            14.5520549,
            41.24914
          ],
          [
            14.5515527,
            41.2491578
          ],
          [
            14.5514786,
            41.2495775
          ],
          [
            14.5515547,
            41.2500294
          ],
          [
            14.5521934,
            41.250062
          ],
          [
            14.5532475,
            41.2503694
          ],
          [
            14.5550605,
            41.2509901
          ],
          [
            14.556402,
            41.2513862
          ],
          [
            14.5568254,
            41.2511485
          ],
          [
            14.5569146,
            41.2502568
          ],
          [
            14.5569066,
            41.2492057
          ],
          [
            14.5565188,
            41.2484629
          ],
          [
            14.5564656,
            41.2482765
          ],
          [
            14.5566458,
            41.2476635
          ],
          [
            14.5568368,
            41.247252
          ],
          [
            14.5571022,
            41.246962
          ],
          [
            14.5572764,
            41.2467825
          ],
          [
            14.5573248,
            41.2465071
          ],
          [
            14.5573137,
            41.2461355
          ],
          [
            14.5572726,
            41.2453967
          ],
          [
            14.5572589,
            41.2442899
          ],
          [
            14.557159,
            41.24391
          ],
          [
            14.5568654,
            41.2437125
          ],
          [
            14.5538863,
            41.2426621
          ],
          [
            14.5532192,
            41.2423819
          ],
          [
            14.5530237,
            41.2422168
          ],
          [
            14.5531527,
            41.2418993
          ],
          [
            14.5524578,
            41.2414675
          ],
          [
            14.5517025,
            41.2408366
          ],
          [
            14.5511401,
            41.2412559
          ],
          [
            14.5516697,
            41.2408142
          ],
          [
            14.5514342,
            41.2404597
          ],
          [
            14.5511563,
            41.2403154
          ],
          [
            14.5505061,
            41.2403204
          ],
          [
            14.5499834,
            41.2403124
          ],
          [
            14.5490439,
            41.2401453
          ],
          [
            14.548733,
            41.2398086
          ],
          [
            14.5484234,
            41.239506
          ],
          [
            14.5482841,
            41.238966
          ],
          [
            14.5484172,
            41.2384104
          ],
          [
            14.5483584,
            41.2380681
          ],
          [
            14.5477934,
            41.2379169
          ],
          [
            14.5475535,
            41.2381763
          ],
          [
            14.547193,
            41.2385556
          ],
          [
            14.5467582,
            41.2388143
          ],
          [
            14.5465389,
            41.238887
          ],
          [
            14.5462677,
            41.2387853
          ],
          [
            14.5460134,
            41.2386806
          ],
          [
            14.5457821,
            41.2386053
          ],
          [
            14.5458107,
            41.2384923
          ],
          [
            14.544883,
            41.2378247
          ],
          [
            14.5448053,
            41.2378369
          ],
          [
            14.5447064,
            41.2379414
          ],
          [
            14.544482,
            41.2382362
          ],
          [
            14.544412,
            41.2382479
          ],
          [
            14.5435892,
            41.2379498
          ],
          [
            14.5419271,
            41.2373262
          ],
          [
            14.5411456,
            41.2369045
          ],
          [
            14.5407506,
            41.2366038
          ],
          [
            14.5406504,
            41.2363924
          ],
          [
            14.5405978,
            41.2360651
          ],
          [
            14.5402818,
            41.2359663
          ],
          [
            14.539904,
            41.2357791
          ],
          [
            14.539274,
            41.2356602
          ],
          [
            14.5382284,
            41.2356238
          ],
          [
            14.5377346,
            41.2355271
          ],
          [
            14.5369747,
            41.2353583
          ],
          [
            14.536733,
            41.235274
          ],
          [
            14.5363939,
            41.2352631
          ],
          [
            14.5361286,
            41.2352634
          ],
          [
            14.5360062,
            41.235234
          ],
          [
            14.5351348,
            41.2349385
          ],
          [
            14.5348243,
            41.2348067
          ],
          [
            14.5342801,
            41.2347401
          ],
          [
            14.5336685,
            41.2347063
          ],
          [
            14.5336211,
            41.2344964
          ],
          [
            14.5336154,
            41.2340008
          ],
          [
            14.5337784,
            41.2314697
          ],
          [
            14.5338767,
            41.2311673
          ],
          [
            14.5341521,
            41.23068
          ],
          [
            14.5344418,
            41.2302115
          ],
          [
            14.5346864,
            41.2297712
          ],
          [
            14.5347223,
            41.2294545
          ],
          [
            14.5346379,
            41.229155
          ],
          [
            14.53451,
            41.2289203
          ],
          [
            14.5342976,
            41.2285269
          ],
          [
            14.5343191,
            41.2283356
          ],
          [
            14.5343765,
            41.2281095
          ],
          [
            14.5347914,
            41.2276045
          ],
          [
            14.5355536,
            41.2268068
          ],
          [
            14.5357326,
            41.2264989
          ],
          [
            14.5359676,
            41.2261943
          ],
          [
            14.5363842,
            41.2269293
          ],
          [
            14.5367974,
            41.2258126
          ],
          [
            14.5368022,
            41.2250508
          ],
          [
            14.5373026,
            41.2237043
          ],
          [
            14.5375831,
            41.2227009
          ],
          [
            14.5378778,
            41.2222391
          ],
          [
            14.5382157,
            41.2215247
          ],
          [
            14.5373236,
            41.2232833
          ],
          [
            14.5365256,
            41.2231093
          ],
          [
            14.5359799,
            41.2228186
          ],
          [
            14.5356382,
            41.2226283
          ],
          [
            14.5352682,
            41.2223551
          ],
          [
            14.5345038,
            41.2223526
          ],
          [
            14.534128,
            41.2223072
          ],
          [
            14.5336557,
            41.2221425
          ],
          [
            14.5327502,
            41.2220998
          ],
          [
            14.5322032,
            41.2220887
          ],
          [
            14.5315593,
            41.2220158
          ],
          [
            14.5307959,
            41.2219593
          ],
          [
            14.530483,
            41.2219194
          ],
          [
            14.5308898,
            41.221769
          ],
          [
            14.5315583,
            41.2219233
          ],
          [
            14.5325105,
            41.2217778
          ],
          [
            14.5336542,
            41.221407
          ],
          [
            14.5346749,
            41.2210178
          ],
          [
            14.5352008,
            41.220819
          ],
          [
            14.5357437,
            41.2205886
          ]
        ]
      }
    }
  ]
}