{
  "type": "FeatureCollection",
  "features": [
    {
      "type": "Feature",
      "properties": {
        "itineraryId": "itinerary_05"
      },
      "geometry": {
        "type": "LineString",
        "coordinates": [
          [
            14.7701573,
            41.1337876
          ],
          [
            14.7700429,
            41.133679
          ],
          [
            14.7700776,
            41.1336331
          ],
          [
            14.7700591,
            41.1336046
          ],
          [
            14.770199,
            41.1335112
          ],
          [
            14.7702701,
            41.1335439
          ],
          [
            14.7703601,
            41.1335342
          ],
          [
            14.7705853,
            41.1334148
          ],
          [
            14.7707438,
            41.1333364
          ],
          [
            14.770912,
            41.1332623
          ],
          [
            14.7710751,
            41.1331787
          ],
          [
            14.7712538,
            41.1330993
          ],
          [
            14.7713751,
            41.1330402
          ],
          [
            14.7714484,
            41.1330192
          ],
          [
            14.7715415,
            41.1329695
          ],
          [
            14.771673,
            41.1329073
          ],
          [
            14.7717648,
            41.1328709
          ],
          [
            14.7719745,
            41.1327737
          ],
          [
            14.7720666,
            41.13272
          ],
          [
            14.7721408,
            41.1326779
          ],
          [
            14.7722695,
            41.1326166
          ],
          [
            14.7723818,
            41.1325585
          ],
          [
            14.772726,
            41.1323899
          ],
          [
            14.7729104,
            41.1323087
          ],
          [
            14.7731239,
            41.1322402
          ],
          [
            14.7734695,
            41.1321675
          ],
          [
            14.773823,
            41.1321067
          ],
          [
            14.7740243,
            41.1320718
          ],
          [
            14.7742992,
            41.1319867
          ],
          [
            14.7745322,
            41.1319079
          ],
          [
            14.7745883,
            41.131905
          ],
          [
            14.7746371,
            41.1318591
          ],
          [
            14.7747672,
            41.1318661
          ],
          [
            14.7748341,
            41.1319842
          ],
          [
            14.7749399,
            41.131964
          ],
          [
            14.7750031,
            41.13202
          ],
          [
            14.7751139,
            41.1319955
          ],
          [
            14.7751063,
            41.1319539
          ],
          [
            14.775192,
            41.1319352
          ],
          [
            14.7752034,
            41.131888
          ],
          [
            14.7755157,
            41.1318326
          ],
          [
            14.7758127,
            41.1317775
          ],
          [
            14.7761438,
            41.131718
          ],
          [
            14.7764727,
            41.1316403
          ],
          [
            14.7769204,
            41.1315506
          ],
          [
            14.7770575,
            41.1315559
          ],
          [
            14.7770956,
            41.1316455
          ],
          [
            14.7771049,
            41.1316739
          ],
          [
            14.7771707,
            41.1316665
          ],
          [
            14.7772107,
            41.1316498
          ],
          [
            14.7771686,
            41.1315096
          ],
          [
            14.777343,
            41.1314673
          ],
          [
            14.7774126,
            41.1314349
          ],
          [
            14.7775522,
            41.1314012
          ],
          [
            14.7776563,
            41.1313673
          ],
          [
            14.7780448,
            41.1312271
          ],
          [
            14.7781617,
            41.1311704
          ],
          [
            14.7783402,
            41.1310879
          ],
          [
            14.7785185,
            41.1310174
          ],
          [
            14.7788956,
            41.13083
          ],
          [
            14.7790574,
            41.1307873
          ],
          [
            14.7791925,
            41.1310039
          ],
          [
            14.7794275,
            41.131251
          ],
          [
            14.7795455,
            41.1313625
          ],
          [
            14.7796571,
            41.1314315
          ],
          [
            14.7798224,
            41.1315277
          ],
          [
            14.7799896,
            41.1315982
          ],
          [
            14.7800947,
            41.1316452
          ],
          [
            14.7797329,
            41.1314847
          ],
          [
            14.7794849,
            41.1313115
          ],
          [
            14.7792716,
            41.1310842
          ],
          [
            14.7790375,
            41.1307603
          ],
          [
            14.778741,
            41.1307754
          ],
          [
            14.7791964,
            41.1307308
          ],
          [
            14.7794273,
            41.1306717
          ],
          [
            14.7798773,
            41.1305646
          ],
          [
            14.7804426,
            41.1304219
          ],
          [
            14.7809484,
            41.1302007
          ],
          [
            14.7813149,
            41.1300378
          ],
          [
            14.7813039,
            41.1299565
          ],
          [
            14.7812574,
            41.1298857
          ],
          [
            14.7812153,
            41.1298291
          ]
        ]
      }
    }
  ]
}