{
  "type": "FeatureCollection",
  "features": [
    {
      "type": "Feature",
      "properties": {
        "itineraryId": "itinerary_07"
      },
      "geometry": {
        "type": "LineString",
        "coordinates": [
          [
            14.7826211,
            41.1295036
          ],
          [
            14.7839087,
            41.1285766
          ],
          [
            14.7854524,
            41.1275186
          ],
          [
            14.7859707,
            41.1271754
          ],
          [
            14.7864603,
            41.1268518
          ],
          [
            14.7867425,
            41.1266398
          ],
          [
            14.7870791,
            41.1263019
          ],
          [
            14.7876103,
            41.1258502
          ],
          [
            14.7884247,
            41.1251245
          ],
          [
            14.7892279,
            41.1244444
          ],
          [
            14.7899729,
            41.1238402
          ],
          [
            14.790369,
            41.1235294
          ],
          [
            14.7907451,
            41.1232481
          ],
          [
            14.7912684,
            41.1227703
          ],
          [
            14.7913835,
            41.1227004
          ],
          [
            14.7917387,
            41.122383
          ],
          [
            14.7920755,
            41.1220278
          ],
          [
            14.7923475,
            41.1216824
          ],
          [
            14.7926014,
            41.1215139
          ],
          [
            14.7928148,
            41.1214508
          ],
          [
            14.7931565,
            41.1216637
          ],
          [
            14.7935902,
            41.1219792
          ],
          [
            14.7943226,
            41.1223902
          ],
          [
            14.795117,
            41.1228358
          ],
          [
            14.7954398,
            41.1230565
          ],
          [
            14.7965565,
            41.1237452
          ],
          [
            14.7970384,
            41.1240045
          ],
          [
            14.7972768,
            41.1242086
          ],
          [
            14.7976535,
            41.1242577
          ],
          [
            14.7977978,
            41.1242146
          ],
          [
            14.7982784,
            41.1240905
          ],
          [
            14.7985538,
            41.1239925
          ],
          [
            14.7990689,
            41.1239213
          ],
          [
            14.7995684,
            41.1237703
          ],
          [
            14.7998021,
            41.1236555
          ],
          [
            14.7999872,
            41.1235751
          ],
          [
            14.8003676,
            41.1235642
          ],
          [
            14.800587,
            41.1235419
          ],
          [
            14.8007166,
            41.1233808
          ],
          [
            14.8008232,
            41.1231681
          ],
          [
            14.8009597,
            41.122738
          ],
          [
            14.8010494,
            41.122523
          ],
          [
            14.8011202,
            41.1223867
          ],
          [
            14.8013195,
            41.1221794
          ],
          [
            14.8015771,
            41.1219288
          ],
          [
            14.8018172,
            41.1216865
          ],
          [
            14.8021001,
            41.1213862
          ],
          [
            14.8022961,
            41.1211591
          ],
          [
            14.8024667,
            41.1209828
          ],
          [
            14.8026805,
            41.1208308
          ],
          [
            14.802913,
            41.1206259
          ],
          [
            14.8030518,
            41.120522
          ],
          [
            14.8031994,
            41.1204092
          ],
          [
            14.8036836,
            41.1199965
          ],
          [
            14.8040274,
            41.1197593
          ],
          [
            14.8050258,
            41.119002
          ],
          [
            14.8052928,
            41.1188121
          ],
          [
            14.8055125,
            41.1186647
          ],
          [
            14.8057658,
            41.1185497
          ],
          [
            14.806058,
            41.1184723
          ],
          [
            14.8065111,
            41.1184169
          ],
          [
            14.8067763,
            41.1184174
          ],
          [
            14.8070486,
            41.1184027
          ],
          [
            14.8076109,
            41.1183362
          ],
          [
            14.8080405,
            41.1181455
          ],
          [
            14.8082465,
            41.1180263
          ],
          [
            14.8084716,
            41.1179921
          ],
          [
            14.808701,
            41.1179003
          ],
          [
            14.8091007,
            41.1177874
          ],
          [
            14.8095662,
            41.1176473
          ],
          [
            14.8100485,
            41.1174668
          ],
          [
            14.8103855,
            41.1173006
          ],
          [
            14.8106805,
            41.1171246
          ],
          [
            14.8109804,
            41.1169192
          ],
          [
            14.8111323,
            41.1168549
          ],
          [
            14.8116304,
            41.1166465
          ],
          [
            14.8120427,
            41.1164195
          ],
          [
            14.8123688,
            41.1163006
          ],
          [
            14.812668,
            41.1162235
          ],
          [
            14.8129576,
            41.1161692
          ],
          [
            14.8134042,
            41.1160123
          ],
          [
            14.8139203,
            41.1158003
          ],
          [
            14.8141598,
            41.1157042
          ],
          [
            14.8145798,
            41.1155498
          ],
          [
            14.814745,
            41.1154847
          ],
          [
            14.8150749,
            41.1153631
          ],
          [
            14.815287,
            41.1152569
          ],
          [
            14.8155011,
            41.1151073
          ],
          [
            14.815631,
            41.1149848
          ],
          [
            14.8160374,
            41.1147683
          ],
          [
            14.8163869,
            41.1146188
          ],
          [
            14.8165829,
            41.1145237
          ],
          [
            14.8169584,
            41.1142563
          ],
          [
            14.8172548,
            41.1140417
          ],
          [
            14.8176021,
            41.1138003
          ],
          [
            14.8178137,
            41.113627
          ],
          [
            14.8180394,
            41.1134456
          ],
          [
            14.8181847,
            41.1133145
          ],
          [
            14.8182713,
            41.1131983
          ],
          [
            14.8183955,
            41.1130689
          ],
          [
            14.8185545,
            41.1130454
          ],
          [
            14.8188667,
            41.1132373
          ],
          [
            14.8189097,
            41.1133291
          ],
          [
            14.8188333,
            41.1134531
          ],
          [
            14.818565,
            41.1136753
          ],
          [
            14.8184116,
            41.1138243
          ],
          [
            14.8184754,
            41.1138321
          ],
          [
            14.8188576,
            41.1137013
          ],
          [
            14.8192226,
            41.1135631
          ],
          [
            14.8195292,
            41.1134838
          ],
          [
            14.8198869,
            41.113409
          ],
          [
            14.8200221,
            41.1133722
          ],
          [
            14.8203199,
            41.1132378
          ],
          [
            14.8206547,
            41.1130828
          ],
          [
            14.8215114,
            41.1127702
          ],
          [
            14.82236,
            41.1123257
          ],
          [
            14.8226902,
            41.1122301
          ],
          [
            14.8234768,
            41.1120672
          ],
          [
            14.8246546,
            41.1119311
          ],
          [
            14.825508,
            41.111913
          ],
          [
            14.8273444,
            41.1117462
          ],
          [
            14.8279944,
            41.1116599
          ],
          [
            14.8287771,
            41.1115381
          ],
          [
            14.8322981,
            41.1109164
          ],
          [
            14.8327374,
            41.1108686
          ],
          [
            14.8335755,
            41.1103236
          ],
          [
            14.8344501,
            41.1100514
          ],
          [
            14.8343605,
            41.1100501
          ],
          [
            14.8348035,
            41.1095323
          ],
          [
            14.8352038,
            41.1091057
          ],
          [
            14.8356303,
            41.108896
          ],
          [
            14.8363021,
            41.1088629
          ],
          [
            14.8369756,
            41.1088471
          ],
          [
            14.8376261,
            41.1087925
          ],
          [
            14.8380441,
            41.1087359
          ],
          [
            14.8384091,
            41.108542
          ],
          [
            14.8388903,
            41.1082433
          ],
          [
            14.8394325,
            41.1080111
          ],
          [
            14.8397307,
            41.1079023
          ],
          [
            14.8402707,
            41.1077388
          ],
          [
            14.8400294,
            41.1072442
          ],
          [
            14.8404528,
            41.1071471
          ],
          [
            14.8410178,
            41.1069351
          ],
          [
            14.8412497,
            41.1066141
          ],
          [
            14.8417127,
            41.1062902
          ],
          [
            14.8420213,
            41.1059789
          ],
          [
            14.8426664,
            41.1054433
          ],
          [
            14.8434008,
            41.1048418
          ],
          [
            14.8438276,
            41.104651
          ],
          [
            14.8444897,
            41.1044435
          ],
          [
            14.8447665,
            41.1043361
          ],
          [
            14.8452832,
            41.1040727
          ],
          [
            14.8458127,
            41.1037226
          ],
          [
            14.8462495,
            41.1034063
          ],
          [
            14.8467052,
            41.1031272
          ],
          [
            14.8470643,
            41.1028313
          ],
          [
            14.8474071,
            41.1024993
          ],
          [
            14.8476652,
            41.1022163
          ],
          [
            14.8477259,
            41.1019941
          ],
          [
            14.8477518,
            41.1016909
          ],
          [
            14.8478103,
            41.1013238
          ],
          [
            14.8484878,
            41.1009409
          ],
          [
            14.8497532,
            41.1003397
          ],
          [
            14.85016,
            41.1000189
          ],
          [
            14.851237,
            41.1000191
          ],
          [
            14.8525608,
            41.0999642
          ],
          [
            14.8544422,
            41.0998905
          ],
          [
            14.8548499,
            41.0999281
          ],
          [
            14.8556703,
            41.1003358
          ],
          [
            14.8561695,
            41.100751
          ],
          [
            14.8564605,
            41.101236
          ],
          [
            14.8570437,
            41.1019244
          ],
          [
            14.8580321,
            41.102845
          ],
          [
            14.8617949,
            41.1062561
          ],
          [
            14.8630869,
            41.107198
          ],
          [
            14.8654379,
            41.1084114
          ],
          [
            14.8677457,
            41.1096734
          ],
          [
            14.8691655,
            41.1097711
          ],
          [
            14.870671,
            41.1100316
          ],
          [
            14.8727683,
            41.1104078
          ],
          [
            14.8752483,
            41.1105838
          ],
          [
            14.8772617,
            41.1108059
          ],
          [
            14.8781827,
            41.1111416
          ],
          [
            14.8790968,
            41.1111305
          ],
          [
            14.8799467,
            41.1110835
          ],
          [
            14.8804962,
            41.1112346
          ],
          [
            14.8820423,
            41.1115669
          ],
          [
            14.8825491,
            41.1117558
          ],
          [
            14.8833111,
            41.1119723
          ],
          [
            14.884232,
            41.1119528
          ],
          [
            14.8856971,
            41.1117991
          ],
          [
            14.8869686,
            41.1117688
          ],
          [
            14.8882595,
            41.1118267
          ],
          [
            14.8894517,
            41.111697
          ],
          [
            14.8906466,
            41.1115955
          ],
          [
            14.8915331,
            41.1115011
          ],
          [
            14.8923124,
            41.1114053
          ],
          [
            14.8930313,
            41.1112216
          ],
          [
            14.8938484,
            41.1109988
          ],
          [
            14.8957075,
            41.1107557
          ],
          [
            14.8971459,
            41.1102218
          ],
          [
            14.8985801,
            41.1097943
          ],
          [
            14.9003785,
            41.1092083
          ],
          [
            14.9019562,
            41.1087616
          ],
          [
            14.9033692,
            41.108408
          ],
          [
            14.9041514,
            41.1082175
          ],
          [
            14.9045269,
            41.1081862
          ],
          [
            14.904415,
            41.1078861
          ],
          [
            14.9044543,
            41.1075987
          ],
          [
            14.9048239,
            41.1071009
          ],
          [
            14.9050292,
            41.1069048
          ],
          [
            14.9055651,
            41.1068545
          ],
          [
            14.9057735,
            41.1067778
          ],
          [
            14.90618,
            41.106503
          ],
          [
            14.9066931,
            41.1060739
          ],
          [
            14.9070807,
            41.1056644
          ],
          [
            14.9073926,
            41.1053253
          ],
          [
            14.90746,
            41.1047571
          ],
          [
            14.9077338,
            41.1039925
          ],
          [
            14.9079187,
            41.103364
          ],
          [
            14.9079542,
            41.102827
          ],
          [
            14.9079115,
            41.1023984
          ],
          [
            14.9079485,
            41.1020954
          ],
          [
            14.9081288,
            41.1017564
          ],
          [
            14.9081601,
            41.1010906
          ],
          [
            14.9082532,
            41.1008166
          ],
          [
            14.9086338,
            41.1004529
          ],
          [
            14.908997,
            41.0999497
          ],
          [
            14.9092493,
            41.0996599
          ],
          [
            14.9097606,
            41.0992631
          ],
          [
            14.9103654,
            41.0987419
          ],
          [
            14.9112826,
            41.0980505
          ],
          [
            14.9120918,
            41.0974023
          ],
          [
            14.9127196,
            41.0970237
          ],
          [
            14.9128907,
            41.096884
          ],
          [
            14.9128291,
            41.0967102
          ],
          [
            14.9125542,
            41.0964784
          ],
          [
            14.9121515,
            41.0960125
          ],
          [
            14.9120062,
            41.0952438
          ],
          [
            14.9121455,
            41.0951806
          ],
          [
            14.9125792,
            41.0949919
          ],
          [
            14.9146154,
            41.094143
          ],
          [
            14.9155653,
            41.0937629
          ],
          [
            14.916881,
            41.0931717
          ],
          [
            14.9180167,
            41.0926347
          ],
          [
            14.9191764,
            41.092123
          ],
          [
            14.9198522,
            41.0918602
          ],
          [
            14.9207095,
            41.0917555
          ],
          [
            14.9213947,
            41.0917195
          ],
          [
            14.9218104,
            41.0915509
          ],
          [
            14.922204,
            41.0913396
          ],
          [
            14.9226836,
            41.0909925
          ],
          [
            14.9227941,
            41.0909089
          ],
          [
            14.923173,
            41.0907936
          ],
          [
            14.9235771,
            41.0906891
          ],
          [
            14.9240404,
            41.0904661
          ],
          [
            14.9245449,
            41.0902114
          ],
          [
            14.9254036,
            41.0898531
          ],
          [
            14.9261475,
            41.089458
          ],
          [
            14.9267781,
            41.0891177
          ],
          [
            14.9276409,
            41.0886775
          ],
          [
            14.9285672,
            41.0881588
          ],
          [
            14.9290458,
            41.0879692
          ],
          [
            14.9299102,
            41.0876383
          ],
          [
            14.9304942,
            41.0874216
          ],
          [
            14.9314003,
            41.0870812
          ],
          [
            14.9318991,
            41.0868799
          ],
          [
            14.9321838,
            41.0867268
          ]
        ]
      }
    }
  ]
}