<?xml version="1.0" encoding="UTF-8"?>
<kml xmlns="http://www.opengis.net/kml/2.2" xmlns:gx="http://www.google.com/kml/ext/2.2" xmlns:kml="http://www.opengis.net/kml/2.2" xmlns:atom="http://www.w3.org/2005/Atom">
<Document id="1RhtgpMlGy3bxqk363Uw43yulkHtnE7F4">
	<name>Cicloturistica Appia &quot;Pedalando sulle colline Beneventane (Verde)&quot; 27 Aprile</name>
	<gx:CascadingStyle kml:id="__managed_style_5CE280BFD13773658719">
		<Style>
			<IconStyle>
				<scale>1.2</scale>
				<Icon>
					<href>https://earth.google.com/earth/document/icon?color=d32f2f&amp;id=2006&amp;scale=4</href>
				</Icon>
				<hotSpot x="64" y="128" xunits="pixels" yunits="insetPixels"/>
			</IconStyle>
			<LabelStyle>
			</LabelStyle>
			<LineStyle>
				<color>ff2dc0fb</color>
				<width>6</width>
			</LineStyle>
			<PolyStyle>
				<color>40ffffff</color>
			</PolyStyle>
			<BalloonStyle>
			</BalloonStyle>
		</Style>
	</gx:CascadingStyle>
	<StyleMap id="__managed_style_3EAD9AC54B3773658719">
		<Pair>
			<key>normal</key>
			<styleUrl>#__managed_style_42DA6046D53773658719</styleUrl>
		</Pair>
		<Pair>
			<key>highlight</key>
			<styleUrl>#__managed_style_5CE280BFD13773658719</styleUrl>
		</Pair>
	</StyleMap>
	<gx:CascadingStyle kml:id="__managed_style_B6F9E497843773656688">
		<Style>
			<IconStyle>
				<scale>1.8</scale>
				<Icon>
					<href>https://earth.google.com/earth/document/icon?color=bdbdbd&amp;id=2000&amp;scale=4</href>
				</Icon>
				<hotSpot x="64" y="128" xunits="pixels" yunits="insetPixels"/>
			</IconStyle>
			<LabelStyle>
				<scale>1.5</scale>
			</LabelStyle>
			<LineStyle>
				<color>ff2dc0fb</color>
				<width>6</width>
			</LineStyle>
			<PolyStyle>
				<color>40ffffff</color>
			</PolyStyle>
			<BalloonStyle>
			</BalloonStyle>
		</Style>
	</gx:CascadingStyle>
	<gx:CascadingStyle kml:id="__managed_style_AA1183A93A3773656688">
		<Style>
			<IconStyle>
				<scale>1.5</scale>
				<Icon>
					<href>https://earth.google.com/earth/document/icon?color=bdbdbd&amp;id=2000&amp;scale=4</href>
				</Icon>
				<hotSpot x="64" y="128" xunits="pixels" yunits="insetPixels"/>
			</IconStyle>
			<LabelStyle>
				<scale>1.5</scale>
			</LabelStyle>
			<LineStyle>
				<color>ff2dc0fb</color>
				<width>4</width>
			</LineStyle>
			<PolyStyle>
				<color>40ffffff</color>
			</PolyStyle>
			<BalloonStyle>
			</BalloonStyle>
		</Style>
	</gx:CascadingStyle>
	<StyleMap id="__managed_style_9687DE76363773656688">
		<Pair>
			<key>normal</key>
			<styleUrl>#__managed_style_AA1183A93A3773656688</styleUrl>
		</Pair>
		<Pair>
			<key>highlight</key>
			<styleUrl>#__managed_style_B6F9E497843773656688</styleUrl>
		</Pair>
	</StyleMap>
	<gx:CascadingStyle kml:id="__managed_style_2AA99716823773656687">
		<Style>
			<IconStyle>
				<scale>1.5</scale>
				<Icon>
					<href>https://earth.google.com/earth/document/icon?color=f57c00&amp;id=2000&amp;scale=4</href>
				</Icon>
				<hotSpot x="64" y="128" xunits="pixels" yunits="insetPixels"/>
			</IconStyle>
			<LabelStyle>
			</LabelStyle>
			<LineStyle>
				<color>ff2dc0fb</color>
				<width>4</width>
			</LineStyle>
			<PolyStyle>
				<color>40ffffff</color>
			</PolyStyle>
			<BalloonStyle>
			</BalloonStyle>
		</Style>
	</gx:CascadingStyle>
	<gx:CascadingStyle kml:id="__managed_style_3F48DFE7B93773656687">
		<Style>
			<IconStyle>
				<scale>1.8</scale>
				<Icon>
					<href>https://earth.google.com/earth/document/icon?color=f57c00&amp;id=2000&amp;scale=4</href>
				</Icon>
				<hotSpot x="64" y="128" xunits="pixels" yunits="insetPixels"/>
			</IconStyle>
			<LabelStyle>
			</LabelStyle>
			<LineStyle>
				<color>ff2dc0fb</color>
				<width>6</width>
			</LineStyle>
			<PolyStyle>
				<color>40ffffff</color>
			</PolyStyle>
			<BalloonStyle>
			</BalloonStyle>
		</Style>
	</gx:CascadingStyle>
	<StyleMap id="__managed_style_1842EB66D23773656687">
		<Pair>
			<key>normal</key>
			<styleUrl>#__managed_style_2AA99716823773656687</styleUrl>
		</Pair>
		<Pair>
			<key>highlight</key>
			<styleUrl>#__managed_style_3F48DFE7B93773656687</styleUrl>
		</Pair>
	</StyleMap>
	<gx:CascadingStyle kml:id="__managed_style_8C3213510F3773656688">
		<Style>
			<IconStyle>
				<scale>1.2</scale>
				<Icon>
					<href>https://earth.google.com/earth/document/icon?color=1976d2&amp;id=2000&amp;scale=4</href>
				</Icon>
				<hotSpot x="64" y="128" xunits="pixels" yunits="insetPixels"/>
			</IconStyle>
			<LabelStyle>
			</LabelStyle>
			<LineStyle>
				<color>ff3c8e38</color>
				<width>18</width>
			</LineStyle>
			<PolyStyle>
				<color>40ffffff</color>
			</PolyStyle>
			<BalloonStyle>
			</BalloonStyle>
		</Style>
	</gx:CascadingStyle>
	<gx:CascadingStyle kml:id="__managed_style_7B197F23E13773656688">
		<Style>
			<IconStyle>
				<Icon>
					<href>https://earth.google.com/earth/document/icon?color=1976d2&amp;id=2000&amp;scale=4</href>
				</Icon>
				<hotSpot x="64" y="128" xunits="pixels" yunits="insetPixels"/>
			</IconStyle>
			<LabelStyle>
			</LabelStyle>
			<LineStyle>
				<color>ff3c8e38</color>
				<width>12</width>
			</LineStyle>
			<PolyStyle>
				<color>40ffffff</color>
			</PolyStyle>
			<BalloonStyle>
			</BalloonStyle>
		</Style>
	</gx:CascadingStyle>
	<StyleMap id="__managed_style_66FC5642513773656688">
		<Pair>
			<key>normal</key>
			<styleUrl>#__managed_style_7B197F23E13773656688</styleUrl>
		</Pair>
		<Pair>
			<key>highlight</key>
			<styleUrl>#__managed_style_8C3213510F3773656688</styleUrl>
		</Pair>
	</StyleMap>
	<gx:CascadingStyle kml:id="__managed_style_42DA6046D53773658719">
		<Style>
			<IconStyle>
				<Icon>
					<href>https://earth.google.com/earth/document/icon?color=d32f2f&amp;id=2006&amp;scale=4</href>
				</Icon>
				<hotSpot x="64" y="128" xunits="pixels" yunits="insetPixels"/>
			</IconStyle>
			<LabelStyle>
			</LabelStyle>
			<LineStyle>
				<color>ff2dc0fb</color>
				<width>4</width>
			</LineStyle>
			<PolyStyle>
				<color>40ffffff</color>
			</PolyStyle>
			<BalloonStyle>
			</BalloonStyle>
		</Style>
	</gx:CascadingStyle>
	<gx:CascadingStyle kml:id="__managed_style_2851C90B293773656684">
		<Style>
			<IconStyle>
				<scale>1.2</scale>
				<Icon>
					<href>https://earth.google.com/earth/document/icon?color=1976d2&amp;id=2000&amp;scale=4</href>
				</Icon>
				<hotSpot x="64" y="128" xunits="pixels" yunits="insetPixels"/>
			</IconStyle>
			<LabelStyle>
			</LabelStyle>
			<LineStyle>
				<color>ff2dc0fb</color>
				<width>6</width>
			</LineStyle>
			<PolyStyle>
				<color>40ffffff</color>
			</PolyStyle>
			<BalloonStyle>
			</BalloonStyle>
		</Style>
	</gx:CascadingStyle>
	<gx:CascadingStyle kml:id="__managed_style_106CFBAA523773656684">
		<Style>
			<IconStyle>
				<Icon>
					<href>https://earth.google.com/earth/document/icon?color=1976d2&amp;id=2000&amp;scale=4</href>
				</Icon>
				<hotSpot x="64" y="128" xunits="pixels" yunits="insetPixels"/>
			</IconStyle>
			<LabelStyle>
			</LabelStyle>
			<LineStyle>
				<color>ff2dc0fb</color>
				<width>4</width>
			</LineStyle>
			<PolyStyle>
				<color>40ffffff</color>
			</PolyStyle>
			<BalloonStyle>
			</BalloonStyle>
		</Style>
	</gx:CascadingStyle>
	<StyleMap id="__managed_style_07529A56643773656684">
		<Pair>
			<key>normal</key>
			<styleUrl>#__managed_style_106CFBAA523773656684</styleUrl>
		</Pair>
		<Pair>
			<key>highlight</key>
			<styleUrl>#__managed_style_2851C90B293773656684</styleUrl>
		</Pair>
	</StyleMap>
	<Folder id="53EA43E646000001">
		<name>Percorso Verde</name>
		<open>1</open>
		<styleUrl>#__managed_style_07529A56643773656684</styleUrl>
		<Placemark id="53EA43E646000002">
			<name>traccia verde</name>
			<styleUrl>#__managed_style_66FC5642513773656688</styleUrl>
			<LineString>
				<coordinates>
					14.778851,41.132303,145.8 14.778908,41.132391,145.5 14.778924,41.13247,145.3 14.779058,41.132598,144.8 14.779056,41.132693,144.7 14.779091,41.132705,144.7 14.779121,41.132713,144.7 14.779215,41.132741,144.6 14.779233,41.132736,144.5 14.779239,41.13272,144.5 14.779262,41.132692,144.5 14.779358,41.132662,144.3 14.779374,41.13266,144.3 14.779418,41.132698,143.9 14.779436,41.132709,143.7 14.77947,41.132728,143.4 14.77954,41.13277,142.9 14.77956,41.132781,142.7 14.779576,41.132791,142.5 14.779597,41.132803,142.4 14.779639,41.132828,142 14.779662,41.132842,141.8 14.779722,41.132877,141.3 14.779739,41.132887,141.2 14.779936,41.133006,139.7 14.779975,41.13303,139.4 14.78008,41.133094,138.7 14.780143,41.133132,138.2 14.780369,41.133261,137.1 14.780408,41.133284,136.8 14.780528,41.133357,136 14.780565,41.13338,135.7 14.78064,41.133425,135.1 14.780769,41.133503,134.2 14.780985,41.133634,133.5 14.781077,41.133689,133.1 14.781201,41.133762,132.4 14.781555,41.13397,130.7 14.781951,41.134184,129.1 14.782215,41.134288,128.3 14.782304,41.134322,128.1 14.782397,41.134359,127.9 14.782606,41.1344,127.4 14.782813,41.134429,126.7 14.782904,41.134441,126.4 14.783073,41.134464,125.9 14.783144,41.134474,125.7 14.78369,41.134508,124.4 14.78428,41.134506,123.9 14.784543,41.134453,123.8 14.784598,41.134442,123.7 14.7847,41.134408,123.7 14.784818,41.13436,123.7 14.784854,41.134338,123.8 14.784989,41.134305,123.8 14.785125,41.134165,123.9 14.78515,41.134134,123.9 14.785174,41.134104,124 14.785226,41.134043,124.1 14.785349,41.134061,124.3 14.785445,41.134129,124.4 14.785452,41.134291,124.3 14.785441,41.134358,124.3 14.785435,41.134395,124.3 14.785472,41.134478,124.3 14.785506,41.134514,124.3 14.785552,41.134541,124.3 14.785678,41.134615,124.1 14.78587,41.134691,124.2 14.78591,41.134703,124.3 14.785954,41.134716,124.3 14.786194,41.134773,124.7 14.78623,41.134781,124.7 14.786265,41.134788,124.7 14.786333,41.134803,124.8 14.786396,41.134816,124.9 14.786568,41.134852,125.2 14.786652,41.13487,125.5 14.786679,41.134876,125.5 14.786706,41.134881,125.6 14.786766,41.134894,125.8 14.787014,41.134946,126.7 14.787341,41.135015,128.1 14.787372,41.135021,128.2 14.787404,41.135028,128.3 14.787438,41.135035,128.5 14.787477,41.135044,128.6 14.787517,41.135052,128.8 14.787727,41.135094,129.6 14.787915,41.135122,130.3 14.787947,41.135126,130.4 14.788027,41.135138,130.7 14.78807,41.135145,130.9 14.788105,41.13515,131.1 14.788243,41.135171,131.6 14.788427,41.135199,132.5 14.788724,41.135243,134 14.788767,41.13525,134.3 14.789039,41.13529,135.8 14.789235,41.13532,137 14.789265,41.135324,137.2 14.789427,41.135304,138 14.789458,41.135258,138.1 14.789402,41.135087,138.9 14.78936,41.135023,139.3 14.789348,41.135003,139.4 14.789304,41.134935,139.9 14.789207,41.134748,141.2 14.789207,41.134647,142 14.789207,41.134636,142.1 14.789355,41.134622,142.9 14.78963,41.134626,144.3 14.789829,41.134636,145.3 14.789962,41.134725,146.1 14.79004,41.134788,146.6 14.790126,41.134896,147.3 14.790266,41.135074,148.4 14.79037,41.135189,149.2 14.790426,41.135222,149.5 14.790455,41.135238,149.7 14.790486,41.135245,149.8 14.790605,41.135274,150.4 14.790886,41.135341,152 14.790995,41.135368,152.6 14.791072,41.135386,153.1 14.791156,41.135406,153.6 14.791345,41.135452,154.6 14.791522,41.135494,155.6 14.79172,41.135526,156.6 14.791755,41.135531,156.7 14.791789,41.135536,156.9 14.791998,41.135559,157.9 14.792038,41.135559,158.1 14.792228,41.135462,159.1 14.792252,41.135446,159.2 14.792287,41.135412,159.4 14.7923,41.135389,159.5 14.792316,41.135362,159.6 14.792344,41.135302,159.8 14.792374,41.135152,159.8 14.792468,41.135023,159.6 14.792572,41.134964,159.4 14.79276,41.134963,159.3 14.792941,41.135023,159.2 14.792945,41.135026,159.3 14.793,41.13507,159.5 14.793027,41.135092,159.6 14.793128,41.135173,160.1 14.793231,41.135255,160.7 14.793259,41.135277,160.8 14.793285,41.135298,161 14.793462,41.13544,161.9 14.793524,41.135474,162.2 14.793559,41.13549,162.4 14.793745,41.135578,163.4 14.793959,41.135679,164.6 14.794084,41.135737,165.3 14.794115,41.135752,165.4 14.794176,41.135781,165.7 14.794469,41.135864,167.1 14.7945,41.135872,167.3 14.794645,41.135909,168 14.794684,41.13592,168.2 14.79472,41.135926,168.3 14.79476,41.135931,168.5 14.794799,41.135936,168.7 14.794838,41.135941,168.9 14.794875,41.135946,169.1 14.795024,41.135964,169.7 14.795131,41.135978,170.2 14.795461,41.13599,171.9 14.795698,41.135928,173.1 14.795926,41.135898,174.1 14.796121,41.135973,174.9 14.796404,41.136089,176.1 14.796622,41.13618,177.1 14.796783,41.136246,177.9 14.796814,41.136251,178.1 14.796939,41.136271,178.8 14.797044,41.136288,179.4 14.797274,41.136325,180.5 14.797382,41.136343,181.1 14.797417,41.136348,181.3 14.797558,41.136371,181.9 14.797876,41.136423,183.5 14.798125,41.136463,184.7 14.798199,41.136475,185.1 14.798453,41.136516,186.2 14.798533,41.136529,186.6 14.798712,41.136558,187.3 14.798788,41.13657,187.6 14.798826,41.136576,187.8 14.79894,41.136602,188.2 14.798976,41.136615,188.3 14.799275,41.136725,189.1 14.799309,41.136738,189.2 14.799582,41.136839,190 14.799851,41.136938,190.7 14.799925,41.136967,190.9 14.800065,41.137025,191.3 14.800102,41.137041,191.4 14.800211,41.137086,191.7 14.800246,41.137101,191.8 14.800281,41.137116,191.8 14.800321,41.137132,192 14.800359,41.137148,192.1 14.800397,41.137164,192.2 14.800526,41.137221,192.4 14.80059,41.137249,192.5 14.800753,41.137322,192.8 14.800786,41.137336,192.9 14.800948,41.137408,193.3 14.800981,41.137423,193.4 14.801055,41.137451,193.5 14.801094,41.137465,193.5 14.801129,41.137477,193.6 14.801257,41.137512,193.7 14.80148,41.137448,193.5 14.801523,41.137426,193.4 14.801692,41.137315,192.9 14.801781,41.137243,192.6 14.801873,41.137167,192.3 14.801896,41.137149,192.2 14.801918,41.13713,192.2 14.801964,41.137093,192.1 14.80216,41.136961,191.9 14.802216,41.136936,191.9 14.80227,41.136911,192 14.802318,41.136889,192 14.802364,41.136879,192.1 14.802407,41.136869,192.2 14.802452,41.136858,192.2 14.802494,41.136848,192.3 14.802538,41.136838,192.4 14.802584,41.136827,192.5 14.802678,41.136805,192.8 14.803013,41.136726,194 14.803213,41.136676,194.8 14.803258,41.136665,195 14.803298,41.136655,195.2 14.803379,41.136635,195.5 14.80342,41.136625,195.7 14.803461,41.136614,195.9 14.803587,41.136583,196.4 14.803631,41.136572,196.6 14.803673,41.136561,196.8 14.803718,41.13655,196.9 14.80377,41.136537,197.1 14.803943,41.136494,197.7 14.804069,41.136453,198 14.804225,41.136397,198.3 14.804264,41.136385,198.5 14.804304,41.136374,198.6 14.804345,41.136362,198.7 14.804387,41.13635,198.9 14.804476,41.136325,199.2 14.80452,41.136312,199.3 14.804563,41.1363,199.4 14.804694,41.136265,199.7 14.804737,41.136258,199.8 14.804787,41.136251,199.9 14.804885,41.136236,200.2 14.804935,41.136228,200.3 14.805269,41.136178,201.4 14.805574,41.136129,202.9 14.80561,41.136123,203.1 14.805869,41.136086,204 14.805965,41.136077,204.1 14.806013,41.136073,204.1 14.806064,41.136068,204.1 14.806221,41.136053,204.2 14.806326,41.136043,204.2 14.806376,41.136038,204.2 14.806634,41.136013,204.4 14.806772,41.135997,204.5 14.806814,41.135991,204.5 14.806853,41.135986,204.6 14.806992,41.135968,204.8 14.807039,41.135961,204.8 14.807084,41.135955,204.9 14.807128,41.13595,205 14.807176,41.135943,205.1 14.807279,41.13593,205.2 14.807326,41.135924,205.3 14.807372,41.135917,205.4 14.807415,41.135912,205.5 14.807461,41.135906,205.5 14.807506,41.1359,205.6 14.807553,41.135894,205.7 14.807648,41.135881,205.9 14.807794,41.135862,206.1 14.807887,41.135849,206.3 14.807932,41.135843,206.3 14.808134,41.135817,206.7 14.808491,41.13577,207.3 14.808538,41.135764,207.4 14.808633,41.135751,207.6 14.808679,41.135745,207.7 14.808816,41.135727,207.9 14.808961,41.135709,208.2 14.809006,41.135708,208.3 14.809053,41.135707,208.4 14.809191,41.135704,208.7 14.809433,41.135698,209.2 14.809775,41.13569,209.7 14.8101,41.135703,210.1 14.810554,41.135733,210.5 14.810607,41.135737,210.6 14.810915,41.135746,210.7 14.811027,41.135737,210.7 14.811348,41.135711,210.7 14.811536,41.135696,210.6 14.811602,41.135691,210.5 14.811781,41.135677,210.4 14.811842,41.135672,210.4 14.81209,41.135634,210.3 14.812207,41.135614,210.2 14.812266,41.135603,210.2 14.812324,41.135593,210.2 14.81276,41.135516,210 14.812817,41.135506,210 14.812877,41.135495,210 14.812934,41.135485,210 14.813167,41.135444,210 14.813223,41.135434,210 14.813338,41.135414,210 14.813786,41.135334,210 14.813949,41.135306,210.1 14.814004,41.135296,210.2 14.814057,41.135286,210.2 14.814113,41.135277,210.3 14.814225,41.135257,210.4 14.814494,41.135209,210.8 14.814547,41.1352,210.8 14.814694,41.135174,211 14.814895,41.135138,211.3 14.814945,41.135129,211.4 14.815048,41.135111,211.6 14.815098,41.135101,211.6 14.815149,41.135089,211.7 14.815247,41.135067,211.9 14.815298,41.135055,212 14.815345,41.135045,212.1 14.815391,41.135034,212.2 14.815642,41.134977,212.5 14.815941,41.134909,213 14.815992,41.134897,213.1 14.816141,41.134864,213.3 14.816191,41.134852,213.4 14.816239,41.134841,213.5 14.816435,41.134797,213.8 14.81658,41.134764,214.1 14.816629,41.134753,214.2 14.816718,41.134732,214.4 14.816988,41.134671,215.2 14.817073,41.134652,215.5 14.817114,41.134642,215.6 14.817195,41.134624,215.9 14.81732,41.134596,216.4 14.817488,41.134557,217 14.81753,41.134548,217.2 14.817868,41.134471,218.8 14.817946,41.134453,219.1 14.818112,41.134416,219.9 14.818153,41.134406,220.1 14.818195,41.134397,220.3 14.818234,41.134388,220.4 14.818275,41.134379,220.6 14.818317,41.134369,220.8 14.818526,41.134321,221.7 14.818692,41.134284,222.5 14.818772,41.134266,222.8 14.818814,41.134256,223 14.81894,41.134234,223.5 14.81902,41.134221,223.8 14.81906,41.134214,224 14.819099,41.134208,224.1 14.819172,41.134196,224.4 14.819242,41.134184,224.6 14.819312,41.134173,224.9 14.819381,41.134162,225.1 14.819582,41.134129,225.8 14.819671,41.134114,226 14.819849,41.134085,226.4 14.820125,41.13405,226.9 14.820514,41.134021,227.5 14.820644,41.134012,227.6 14.82068,41.134009,227.7 14.82077,41.134003,227.8 14.821055,41.133982,228 14.821103,41.133979,228 14.821365,41.13396,228.1 14.821513,41.133949,228.2 14.821566,41.133945,228.2 14.821618,41.133942,228.1 14.82172,41.133934,228.1 14.821824,41.133927,228.1 14.821874,41.133923,228.2 14.821923,41.13392,228.2 14.822019,41.133913,228.2 14.822063,41.13391,228.2 14.822251,41.133892,228.3 14.822402,41.133876,228.4 14.822915,41.133825,228.7 14.823158,41.1338,229 14.823208,41.133795,229 14.823257,41.13379,229.1 14.823307,41.133785,229.2 14.823356,41.13378,229.3 14.823402,41.133775,229.3 14.82359,41.133756,229.7 14.823636,41.133751,229.7 14.823772,41.133738,230 14.82382,41.133734,230 14.823869,41.133732,230.1 14.82397,41.133728,230.3 14.824165,41.133721,230.8 14.824216,41.133719,230.9 14.824268,41.133717,231 14.824464,41.133709,231.5 14.824699,41.1337,232 14.824747,41.133698,232.1 14.824896,41.133693,232.4 14.824944,41.133691,232.5 14.824991,41.133689,232.6 14.82504,41.133687,232.7 14.825088,41.133685,232.8 14.825134,41.133683,232.9 14.825184,41.133681,233 14.82551,41.133669,233.6 14.82556,41.133667,233.7 14.825755,41.133659,234 14.825857,41.133655,234.1 14.826011,41.133649,234.4 14.826106,41.133638,234.5 14.826154,41.133633,234.6 14.826202,41.133627,234.7 14.82625,41.133622,234.8 14.826391,41.133605,235 14.826441,41.1336,235.1 14.826592,41.133582,235.3 14.826688,41.133571,235.5 14.826738,41.133565,235.6 14.826839,41.133554,235.8 14.82689,41.133548,235.8 14.827046,41.13353,236 14.827099,41.133524,236.1 14.827149,41.133518,236.1 14.827346,41.13349,236.4 14.827431,41.133465,236.5 14.827617,41.133411,236.9 14.82766,41.133399,236.9 14.827748,41.133373,237.1 14.827791,41.13336,237.2 14.827837,41.133346,237.3 14.827967,41.133298,237.6 14.828006,41.133284,237.7 14.828043,41.13327,237.8 14.828153,41.133229,238 14.828266,41.133187,238.3 14.828414,41.133132,238.7 14.828563,41.133077,239.1 14.828629,41.133047,239.3 14.828727,41.133,239.6 14.828818,41.132955,239.9 14.828915,41.132909,240.1 14.829019,41.132858,240.4 14.829125,41.132807,240.6 14.829303,41.132721,241 14.82934,41.132703,241.1 14.829416,41.132666,241.2 14.829456,41.132647,241.3 14.829495,41.132628,241.4 14.829538,41.132607,241.4 14.829578,41.132587,241.5 14.829699,41.132529,241.7 14.82982,41.13247,241.8 14.829902,41.13243,241.9 14.830056,41.13237,242 14.830242,41.132306,242.1 14.83035,41.132269,242.1 14.830477,41.132225,242.1 14.830537,41.132204,242.1 14.830601,41.132182,242.1 14.830673,41.132157,242.1 14.830714,41.132143,242.1 14.830757,41.132128,242.1 14.830842,41.132099,242.1 14.830888,41.132083,242.1 14.83103,41.132034,242.1 14.831119,41.132003,242.1 14.831349,41.131938,242.1 14.831403,41.131925,242.1 14.831455,41.131912,242.1 14.831561,41.131885,242.2 14.831724,41.131844,242.2 14.831783,41.13183,242.2 14.83184,41.131815,242.2 14.83202,41.131771,242.3 14.832141,41.13174,242.3 14.832201,41.131725,242.3 14.832326,41.131703,242.4 14.832448,41.131683,242.5 14.832567,41.131664,242.6 14.832865,41.131625,242.9 14.833101,41.131607,243.1 14.83316,41.131602,243.2 14.833219,41.131597,243.3 14.833399,41.131584,243.5 14.833461,41.131579,243.6 14.833707,41.131556,244 14.833769,41.131549,244 14.834143,41.131508,244.2 14.834207,41.131501,244.3 14.834398,41.13148,244.3 14.834926,41.131421,244.3 14.834993,41.131413,244.3 14.835607,41.131345,244.6 14.836126,41.131288,245.1 14.836244,41.131275,245.3 14.836369,41.131261,245.4 14.836432,41.131254,245.5 14.83662,41.131238,245.8 14.836813,41.131224,246.2 14.837005,41.13121,246.6 14.837257,41.131192,247.2 14.83738,41.131183,247.4 14.837501,41.131175,247.7 14.837561,41.13117,247.8 14.837733,41.131158,248.2 14.837908,41.131146,248.5 14.837968,41.131141,248.6 14.838151,41.131151,248.7 14.838335,41.131166,248.6 14.8384,41.131171,248.6 14.838468,41.131177,248.5 14.838685,41.131194,248.3 14.838761,41.1312,248.2 14.83899,41.131219,248 14.839214,41.131237,247.9 14.839421,41.131254,248 14.839487,41.131259,248 14.83955,41.131264,248 14.839739,41.131308,248 14.839925,41.131357,247.9 14.840319,41.131474,247.9 14.840382,41.1315,248 14.840508,41.131551,248 14.840571,41.131577,248 14.840635,41.131603,248 14.840826,41.131683,248 14.840941,41.131754,247.9 14.841253,41.131945,247.5 14.841373,41.132018,247.2 14.841427,41.132051,247.1 14.84148,41.132084,246.9 14.841536,41.132118,246.8 14.841592,41.132152,246.7 14.841651,41.132189,246.5 14.841714,41.132227,246.3 14.84178,41.132268,246.2 14.841846,41.132308,246 14.842009,41.132351,245.5 14.842183,41.132388,245 14.842272,41.132408,244.7 14.842354,41.132426,244.4 14.842456,41.132426,244.1 14.842686,41.132368,243.4 14.842777,41.13232,243.1 14.842867,41.132271,242.8 14.843213,41.132086,241.4 14.843305,41.132044,241 14.843932,41.131802,239.5 14.844035,41.131762,239.4 14.84451,41.131601,238.9 14.844885,41.131484,238.3 14.844977,41.131455,238.2 14.845069,41.131426,238.1 14.845356,41.131343,237.8 14.84556,41.131291,237.5 14.845869,41.131213,237 14.846182,41.131133,236.2 14.84637,41.131053,235.4 14.846565,41.130956,234.5 14.846727,41.13081,233.4 14.84689,41.130653,232.3 14.846973,41.130573,231.7 14.847348,41.130269,229.5 14.847553,41.130122,228.2 14.847667,41.130056,227.6 14.847783,41.129992,227 14.847901,41.129926,226.3 14.848017,41.129862,225.7 14.848129,41.1298,225.2 14.848266,41.129787,224.7 14.848411,41.129787,224.2 14.848541,41.129835,223.7 14.848659,41.1299,223.1 14.848776,41.129963,222.5 14.848991,41.130073,221.3 14.849395,41.130134,219.1 14.849541,41.130147,218.3 14.84969,41.130161,217.5 14.849844,41.130176,216.8 14.849998,41.130201,216 14.8503,41.13025,214.6 14.850556,41.130333,213.6 14.850743,41.130482,212.8 14.850834,41.130556,212.3 14.850919,41.130624,211.7 14.851035,41.130682,211.1 14.851154,41.130717,210.4 14.851286,41.130753,209.8 14.851583,41.130873,208.5 14.851749,41.130957,207.8 14.851856,41.131023,207.2 14.851964,41.131089,206.6 14.852069,41.131154,206 14.852183,41.131208,205.5 14.852331,41.131273,204.9 14.852363,41.131284,204.7 14.852521,41.131314,204.2 14.852612,41.131322,203.9 14.852979,41.131353,202.5 14.853195,41.131255,201.4 14.853283,41.131084,200.4 14.853298,41.130776,198.9 14.853301,41.13071,198.6 14.853379,41.130601,198 14.853436,41.130543,197.6 14.853526,41.130494,197.2 14.853652,41.130483,196.6 14.853909,41.130492,195.5 14.854034,41.130507,194.9 14.854164,41.130523,194.3 14.854288,41.130538,193.8 14.854544,41.130469,192.5 14.855198,41.130293,189.2 14.855334,41.130256,188.5 14.855477,41.130242,187.9 14.855757,41.130261,186.6 14.856174,41.130366,184.7 14.856315,41.130401,184 14.856456,41.130429,183.3 14.856758,41.130412,182 14.857322,41.13026,179.4 14.857876,41.130101,176.8 14.858426,41.129944,174.5 14.858559,41.129906,174 14.858809,41.129835,172.9 14.858921,41.129789,172.4 14.859002,41.129712,171.9 14.859179,41.129543,170.9 14.859267,41.129458,170.4 14.85945,41.129315,169.4 14.859691,41.129228,168.3 14.859838,41.129222,167.6 14.860125,41.129209,166.5 14.860396,41.129237,165.4 14.86053,41.129254,164.8 14.860803,41.12929,163.7 14.861069,41.129249,162.6 14.8612,41.129223,162 14.861463,41.129157,161 14.861721,41.129098,160.2 14.861847,41.129089,159.8 14.861975,41.12908,159.3 14.862181,41.129147,158.4 14.862406,41.129228,157 14.862527,41.129272,156.3 14.862652,41.129289,155.7 14.862921,41.1293,154.5 14.863062,41.12927,153.8 14.863588,41.129158,151.3 14.863717,41.12913,150.8 14.863849,41.129102,150.3 14.864112,41.129115,149.4 14.864885,41.129287,147.4 14.865004,41.129332,147.2 14.865234,41.12942,146.9 14.865574,41.12955,146.6 14.865681,41.12959,146.5 14.865862,41.129695,146.3 14.865944,41.129752,146.2 14.866027,41.12981,146.2 14.866079,41.129883,146.2 14.866186,41.13003,146.1 14.866289,41.130173,146.1 14.866335,41.130246,146 14.86638,41.13032,146 14.866424,41.130393,145.9 14.866494,41.130447,145.9 14.866572,41.130494,145.9 14.866728,41.130585,146 14.866987,41.130655,146.4 14.867148,41.130699,146.8 14.867298,41.130739,147.3 14.867637,41.130831,148.6 14.867698,41.130847,148.8 14.867758,41.130863,149.1 14.867874,41.130894,149.6 14.868103,41.130949,150.6 14.86816,41.130955,150.9 14.868218,41.130961,151.1 14.868276,41.130966,151.3 14.868567,41.130994,152.3 14.869013,41.130977,153.1 14.869218,41.130954,153.3 14.869705,41.130898,153.6 14.869774,41.13089,153.6 14.869842,41.130882,153.6 14.869973,41.130867,153.6 14.870244,41.130836,153.7 14.870313,41.130828,153.7 14.870382,41.13082,153.8 14.870584,41.130796,153.9 14.870856,41.130765,154.2 14.870925,41.130757,154.2 14.871132,41.130733,154.3 14.871202,41.130725,154.4 14.871404,41.130702,154.5 14.871469,41.130695,154.5 14.871534,41.130687,154.5 14.871853,41.13065,154.6 14.872153,41.130616,154.7 14.872258,41.130604,154.8 14.872319,41.130607,154.8 14.872541,41.13063,154.9 14.872752,41.130652,155.1 14.872864,41.130664,155.2 14.873093,41.130688,155.3 14.873332,41.130712,155.5 14.873584,41.130748,155.6 14.87407,41.130867,155.9 14.874302,41.130924,156.1 14.874357,41.130938,156.2 14.874519,41.130977,156.3 14.874849,41.131058,156.5 14.874903,41.131072,156.6 14.874957,41.131085,156.7 14.875012,41.131098,156.7 14.875065,41.131111,156.8 14.875121,41.131125,156.8 14.875178,41.131139,156.9 14.875233,41.131152,156.9 14.875346,41.13118,157 14.875576,41.131236,157.3 14.87595,41.131372,157.6 14.876004,41.131394,157.7 14.876057,41.131417,157.7 14.876118,41.131444,157.7 14.876352,41.131613,158 14.876401,41.131648,158 14.876535,41.131744,158.2 14.876576,41.131774,158.2 14.876988,41.132028,158.4 14.877325,41.132197,158.6 14.877388,41.132218,158.6 14.877794,41.132291,158.6 14.877865,41.132301,158.6 14.878144,41.132327,158.6 14.878217,41.132334,158.6 14.878287,41.13234,158.6 14.878357,41.132347,158.6 14.878648,41.132374,158.2 14.878958,41.13238,157.8 14.879461,41.132371,156.7 14.879544,41.13237,156.6 14.879628,41.132368,156.5 14.879713,41.132367,156.5 14.879797,41.132365,156.4 14.879999,41.132365,156.5 14.880228,41.132518,156.5 14.88037,41.132581,156.3 14.880439,41.132609,156.2 14.880582,41.132665,156 14.880928,41.132804,155.9 14.880994,41.13283,155.9 14.881485,41.132998,156.5 14.881583,41.133027,156.7 14.881629,41.13304,156.8 14.881682,41.133056,157 14.881738,41.133072,157.1 14.881827,41.133098,157.4 14.881985,41.133144,157.9 14.88204,41.13316,158.1 14.882091,41.133175,158.3 14.882145,41.13318,158.5 14.882195,41.133183,158.7 14.882237,41.133186,158.9 14.882276,41.133188,159 14.882507,41.133202,159.9 14.882732,41.133215,160.7 14.883126,41.133238,162.1 14.883178,41.133241,162.2 14.88322,41.133244,162.4 14.883264,41.133247,162.5 14.883361,41.133252,162.8 14.88341,41.133255,163 14.883652,41.13327,163.6 14.883805,41.133279,163.9 14.884178,41.133301,164.4 14.884229,41.133304,164.4 14.884375,41.133312,164.6 14.884477,41.133318,164.7 14.884527,41.133321,164.8 14.884578,41.133324,164.8 14.884631,41.133328,164.9 14.884679,41.133336,164.9 14.88487,41.13337,165.2 14.884968,41.133388,165.3 14.885068,41.133406,165.4 14.885121,41.133415,165.4 14.885425,41.13347,165.7 14.885476,41.133479,165.8 14.885576,41.133497,165.9 14.885679,41.133515,166 14.885728,41.133524,166.1 14.885776,41.133532,166.1 14.885932,41.13356,166.3 14.886039,41.133579,166.4 14.886143,41.133598,166.6 14.886194,41.133607,166.6 14.886349,41.133635,166.8 14.886401,41.133644,166.8 14.886453,41.133653,166.9 14.886774,41.133711,167.2 14.887037,41.133758,167.6 14.887091,41.133768,167.6 14.887144,41.133777,167.7 14.887253,41.133796,167.8 14.887352,41.133814,167.9 14.887716,41.133879,168.4 14.887766,41.133888,168.5 14.887816,41.133897,168.6 14.887866,41.133906,168.7 14.887915,41.133915,168.7 14.887962,41.133923,168.8 14.888269,41.133978,169.1 14.888671,41.13405,169.5 14.889112,41.134129,170.1 14.889501,41.134198,170.6 14.89001,41.134315,171.5 14.890363,41.134405,172.1 14.890571,41.134458,172.4 14.890869,41.134539,173.1 14.89128,41.134662,174.2 14.891562,41.134746,175.2 14.89177,41.134809,176 14.891852,41.134833,176.4 14.892125,41.134915,177.7 14.892166,41.134928,177.9 14.892317,41.134973,178.7 14.892623,41.135065,180.2 14.892664,41.135077,180.4 14.893036,41.135171,182.2 14.893448,41.135236,183.8 14.893844,41.135298,184.6 14.894146,41.135346,185 14.894198,41.135354,185 14.894596,41.135417,185.5 14.894993,41.135479,186 14.895042,41.135487,186 14.895516,41.135562,186.7 14.895892,41.135638,187.2 14.896312,41.135734,188 14.896584,41.135796,188.7 14.896889,41.13589,189.6 14.896931,41.135903,189.8 14.89722,41.135993,190.8 14.897261,41.136005,191 14.897644,41.136155,192.6 14.897951,41.136308,194.3 14.898101,41.136383,195.3 14.898257,41.136461,196.3 14.898288,41.136477,196.5 14.898505,41.136586,197.8 14.898541,41.136603,198 14.898808,41.136693,199.3 14.899163,41.136743,200.3 14.899494,41.136791,200.5 14.89966,41.136825,200.3 14.899846,41.136877,199.8 14.900298,41.137006,198.7 14.900829,41.137156,197.5 14.901013,41.1372,197.2 14.901202,41.137243,197 14.901568,41.137326,196.6 14.901814,41.137382,196.3 14.901895,41.137401,196.2 14.901976,41.137419,196.1 14.90213,41.137454,196 14.902203,41.137471,196 14.90277,41.137599,196 14.902919,41.137616,196 14.902993,41.137624,196.1 14.903065,41.137633,196.1 14.903134,41.137641,196.2 14.903318,41.137662,196.4 14.903379,41.137669,196.5 14.903441,41.137676,196.6 14.903569,41.137691,196.7 14.903632,41.137698,196.8 14.903931,41.137733,197.1 14.90417,41.13776,197.3 14.904471,41.137793,197.6 14.90459,41.1378,197.7 14.905014,41.137825,198 14.905446,41.137851,198.3 14.905871,41.137876,198.6 14.906049,41.137887,198.7 14.906336,41.137915,198.9 14.906511,41.137944,198.8 14.906631,41.137965,198.8 14.906754,41.137986,198.6 14.90689,41.138009,198.5 14.907163,41.138055,198.1 14.907309,41.13808,197.7 14.907809,41.13818,196.1 14.908194,41.138263,194.7 14.908306,41.138263,194.2 14.908424,41.138263,193.7 14.908643,41.138212,192.6 14.90883,41.138113,191.5 14.908909,41.138051,191 14.908971,41.137981,190.4 14.909074,41.137818,189.1 14.909221,41.137388,185.9 14.909266,41.137305,185.2 14.909434,41.137074,183.5 14.909572,41.136924,182.3 14.909784,41.136693,180.4 14.909946,41.136562,179.1 14.910297,41.136304,176.3 14.910387,41.136238,175.6 14.910591,41.13613,174.2 14.911026,41.135953,171.4 14.911138,41.135908,170.7 14.91134,41.135793,169.5 14.911538,41.13568,168.3 14.911634,41.135624,167.8 14.911824,41.135515,166.9 14.911934,41.135485,166.6 14.912594,41.135405,166.1 14.912775,41.135383,166.5 14.912858,41.135372,166.8 14.912944,41.135365,167.1 14.913026,41.135364,167.3 14.913105,41.135363,167.6 14.913182,41.135362,167.9 14.913327,41.135359,168.4 14.913396,41.135358,168.6 14.913464,41.135357,168.8 14.913658,41.135354,169.5 14.913723,41.135353,169.7 14.913788,41.135352,169.9 14.914107,41.135347,170.9 14.914173,41.135346,171.1 14.914242,41.135345,171.3 14.914577,41.135403,172.2 14.914711,41.13543,172.6 14.914908,41.135446,173.3 14.915213,41.135403,174.1 14.91549,41.135321,174.8 14.915703,41.135258,175.3 14.915749,41.135245,175.4 14.916028,41.135162,175.9 14.916078,41.135147,176 14.916182,41.135116,176.1 14.91634,41.13507,176.3 14.916717,41.134901,176.6 14.91679,41.134823,176.8 14.916859,41.134749,176.9 14.916891,41.134715,177 14.916923,41.134681,177 14.917007,41.134569,177.2 14.917182,41.134318,177.6 14.91724,41.134235,177.7 14.917337,41.134182,177.8 14.917479,41.134151,177.9 14.917606,41.134168,177.9 14.917778,41.134191,177.9 14.917885,41.134205,177.9 14.917937,41.134212,177.9 14.918099,41.134226,177.8 14.918226,41.134217,177.7 14.918572,41.134193,177.3 14.918796,41.134177,177 14.918949,41.134167,176.7 14.919251,41.134225,176 14.919331,41.134244,175.8 14.919502,41.134272,175.4 14.91959,41.134272,175.2 14.91968,41.134272,175 14.919853,41.13425,174.6 14.91994,41.134234,174.4 14.920014,41.134203,174.1 14.920225,41.134081,173.2 14.920357,41.134004,172.8 14.920519,41.133963,172.4 14.920931,41.13388,171.8 14.921097,41.133857,171.5 14.921345,41.133822,171.2 14.921519,41.133798,170.7 14.92177,41.133763,170.1 14.921848,41.133749,169.9 14.921997,41.133715,169.6 14.922072,41.133697,169.4 14.922218,41.133627,169 14.922287,41.133592,168.8 14.922355,41.133555,168.5 14.922425,41.133519,168.3 14.922494,41.133483,168.1 14.922697,41.133346,167.2 14.923061,41.133082,165.6 14.923138,41.133027,165.4 14.923317,41.132963,165 14.923424,41.132963,164.9 14.923517,41.132975,164.7 14.923614,41.133001,164.6 14.923709,41.133025,164.4 14.924079,41.133121,164.1 14.924447,41.133219,163.8 14.924538,41.133243,163.7 14.924628,41.133268,163.7 14.924717,41.133292,163.6 14.924977,41.133362,163.8 14.925222,41.133428,164.1 14.925335,41.133497,164.3 14.925399,41.133542,164.5 14.925387,41.13365,164.8 14.92538,41.133702,165 14.925375,41.133754,165.3 14.925364,41.133843,165.8 14.925355,41.133924,166.2 14.925345,41.134011,166.7 14.925336,41.134089,167.2 14.925327,41.134168,167.7 14.925318,41.134242,168.2 14.925296,41.13444,169.3 14.925266,41.134695,170.7 14.925259,41.134763,171.1 14.925255,41.134795,171.2 14.925305,41.13481,172.3 14.925355,41.134773,172.6 14.925522,41.134651,173.5 14.925648,41.134494,174.5 14.925781,41.134284,175.7 14.925866,41.134151,176.5 14.925883,41.134124,176.6 14.925995,41.133947,177.7 14.926011,41.133923,177.8 14.926129,41.133738,179 14.926257,41.133537,180.3 14.926423,41.133384,181.5 14.926668,41.133275,182.7 14.926908,41.133179,183.9 14.927159,41.133079,185.1 14.92741,41.132979,186.3 14.92774,41.132881,187.8 14.927955,41.132816,188.9 14.928108,41.132721,189.7 14.928152,41.132578,190.5 14.928158,41.132488,191 14.928159,41.132459,191.1 14.928181,41.132321,191.9 14.928198,41.132296,192.1 14.928348,41.132078,193.4 14.928496,41.131971,194.2 14.928697,41.131912,195.1 14.928939,41.131878,196 14.929108,41.131822,196.8 14.929256,41.131741,197.6 14.929374,41.131657,198.3 14.929518,41.131556,199.2 14.929644,41.131407,200.2 14.929777,41.131217,201.5 14.929862,41.131096,202.4 14.930074,41.130999,203.6 14.930366,41.130865,205.3 14.930451,41.130749,206.1 14.930423,41.13063,206.7 14.930411,41.130602,206.9 14.930386,41.130438,207.7 14.930477,41.130265,208.7 14.930637,41.130145,209.4 14.930743,41.130059,209.9 14.930748,41.130029,210 14.930754,41.129993,210.2 14.93076,41.129958,210.3 14.930765,41.129926,210.5 14.930771,41.129888,210.6 14.930794,41.129755,211.3 14.930854,41.129604,212 14.931045,41.129381,213.3 14.931254,41.129179,214.6 14.931505,41.128936,216.1 14.931641,41.12868,217.3 14.931726,41.128438,218.4 14.931815,41.128187,219.1 14.931914,41.127905,220.1 14.931992,41.127681,220.7 14.932006,41.127644,220.8 14.932055,41.127565,221 14.932101,41.127545,221 14.932203,41.1275,221.1 14.932658,41.12745,221.4 14.932814,41.127436,221.6 14.932916,41.127422,221.7 14.932955,41.127398,221.8 14.933028,41.127352,221.8 14.933036,41.127218,221.9 14.932894,41.1271,221.9 14.932823,41.12704,221.9 14.932795,41.126957,222 14.932766,41.12687,222 14.932766,41.126827,222.1 14.932783,41.126783,222.1 14.932848,41.126613,222.2 14.932863,41.126572,222.2 14.93288,41.126527,222.3 14.93292,41.126422,222.3 14.932926,41.126406,222.3 14.932935,41.126383,222.3 14.932941,41.126368,222.3 14.932983,41.126256,222.4 14.932993,41.126229,222.4 14.933066,41.126037,222.5 14.93317,41.125764,222.6 14.933235,41.125593,222.8 14.933269,41.125503,222.9 14.9333,41.125419,222.9 14.933366,41.125246,223 14.933399,41.125159,223 14.933454,41.125016,223.1 14.93354,41.124721,223.3 14.933568,41.124621,223.4 14.933624,41.124421,223.6 14.933665,41.124276,223.7 14.933693,41.124177,223.8 14.933707,41.124129,223.9 14.933734,41.124033,223.9 14.933786,41.123849,223.9 14.933827,41.123703,224 14.933854,41.123607,224.1 14.933868,41.123557,224.2 14.933895,41.12346,224.2 14.933923,41.123321,224.3 14.933933,41.123274,224.3 14.933878,41.123168,224.4 14.933815,41.123091,224.6 14.933759,41.123022,224.8 14.93369,41.122978,224.9 14.93347,41.122873,224.9 14.933381,41.122848,224.9 14.933213,41.122802,224.9 14.933175,41.122792,224.9 14.932924,41.122724,224.9 14.932644,41.122647,224.9 14.932405,41.122557,225 14.932208,41.122469,225 14.932088,41.122354,225.1 14.932077,41.122324,225.1 14.932054,41.122152,225.2 14.932056,41.122088,225.2 14.932058,41.122019,225.2 14.932065,41.121808,225.3 14.932092,41.121541,225.5 14.932205,41.121382,225.7 14.932251,41.121182,225.8 14.932173,41.120998,225.8 14.932145,41.12093,225.8 14.932065,41.12074,225.9 14.932014,41.120619,226 14.931995,41.120607,226 14.93198,41.120604,226 14.931965,41.120602,226 14.93195,41.1206,226 14.931833,41.120593,226 14.93201,41.120592,226.1 14.932014,41.120571,226.1 14.932017,41.120559,226.1 14.93202,41.120543,226.1 14.932024,41.120522,226.2 14.932033,41.120479,226.2 14.93205,41.120394,226.4 14.932011,41.120138,226.9 14.931982,41.119959,227.5 14.931973,41.1199,227.7 14.931969,41.119879,227.9 14.931809,41.11986,229.2 14.931768,41.119862,229.5 14.931716,41.119876,229.8 14.931695,41.119883,229.9 14.931663,41.119893,230.1 14.9316,41.119904,230.4 14.931543,41.119914,230.7 14.931352,41.119957,231.4 14.931165,41.119986,232.1 14.931105,41.120022,231.3 14.931075,41.12005,226.4 14.931044,41.120077,221.6 14.931013,41.120104,220.8 14.930982,41.120132,220.8 14.930871,41.120067,220.8 14.931082,41.120197,229.5 14.931107,41.120195,232.3 14.931334,41.119957,231.3 14.931321,41.119895,231.3 14.931505,41.119938,230.6 14.931559,41.119914,230.5 14.93158,41.119889,230.3 14.931601,41.119864,230.2 14.931622,41.119838,230.1 14.931643,41.119813,230 14.931664,41.119788,229.9 14.931798,41.119855,229.3 14.931971,41.119889,227.8 14.931976,41.119922,227.6 14.931985,41.119976,227.4 14.931988,41.119996,227.4 14.93199,41.12001,227.3 14.931996,41.120046,227.2 14.932015,41.120168,226.8 14.932019,41.120193,226.7 14.93203,41.120261,226.6 14.932035,41.120289,226.6 14.932034,41.120472,226.3 14.932024,41.120523,226.2 14.932008,41.120603,226.1 14.932053,41.120711,226 14.9321,41.120824,225.9 14.932174,41.120999,225.8 14.932243,41.121163,225.8 14.932268,41.121224,225.7 14.93244,41.121259,225.6 14.932556,41.121336,224.9 14.932583,41.121354,224.8 14.932691,41.121429,224.1 14.932718,41.121447,223.9 14.932744,41.121466,223.7 14.932773,41.121486,223.6 14.932803,41.121506,223.4 14.932865,41.121549,223 14.932897,41.121571,222.8 14.932927,41.121592,222.6 14.933013,41.121651,222.1 14.93304,41.12167,221.9 14.933135,41.121735,221.4 14.933367,41.121898,220.3 14.933541,41.122067,219.5 14.93357,41.122095,219.3 14.933699,41.122221,218.7 14.933732,41.122253,218.6 14.933869,41.122386,218 14.934136,41.122623,217 14.934292,41.12264,216.3 14.934347,41.122609,216 14.934396,41.122572,215.7 14.934461,41.122464,215 14.934444,41.122402,214.6 14.934367,41.12234,214.1 14.934225,41.122289,213.6 14.934171,41.12227,213.5 14.933975,41.122164,213.1 14.933836,41.122033,212.5 14.933781,41.121967,212.3 14.933624,41.121799,211.5 14.93358,41.121761,211.3 14.933406,41.121613,210.4 14.933367,41.121579,210.2 14.933248,41.121479,209.6 14.933167,41.121409,209.2 14.933083,41.121304,208.7 14.933044,41.1212,208.3 14.93303,41.121163,208.1 14.933016,41.121124,208 14.932965,41.120968,207.6 14.932906,41.120674,206 14.932895,41.12062,205.6 14.932862,41.120455,204.6 14.932827,41.120279,203.5 14.932815,41.12022,203.2 14.932802,41.120155,202.7 14.932765,41.11997,201.5 14.932731,41.119797,200.3 14.932721,41.119747,200 14.93271,41.119696,199.6 14.9327,41.119644,199.2 14.932671,41.119479,198.1 14.932666,41.11942,197.6 14.93266,41.119356,197.2 14.932654,41.119287,196.6 14.932644,41.119162,195.8 14.932612,41.11878,193.2 14.93259,41.118508,191.4 14.932583,41.118431,190.9 14.932548,41.118006,187.9 14.93252,41.117699,186.1 14.932489,41.117597,185.5 14.932454,41.117487,185 14.93242,41.117377,184.6 14.932371,41.117289,184.3 14.932313,41.117195,184 14.932142,41.116914,183.2 14.932076,41.116834,183 14.932,41.116764,182.8 14.931928,41.116698,182.6 14.93183,41.116626,182.2 14.931732,41.116598,181.9 14.931393,41.116502,180.7 14.931319,41.116481,180.5 14.931248,41.116461,180.3 14.931175,41.11644,180 14.930927,41.11637,179.5 14.930794,41.116358,179.4 14.930622,41.116366,179.3 14.930571,41.116368,179.3 14.930466,41.116373,179.4 14.930278,41.11644,179.6 14.930239,41.116461,179.7 14.930079,41.116546,180.2 14.930046,41.116563,180.4 14.929831,41.116633,181 14.92955,41.116719,180.8 14.929122,41.116872,178.9 14.928571,41.117019,177.4 14.928494,41.117044,177.2 14.928256,41.11712,176.8 14.928044,41.117188,176.7 14.92798,41.117208,176.6 14.927787,41.11727,176.6 14.927487,41.117366,177 14.927252,41.117442,177.4 14.927192,41.117461,177.5 14.927131,41.117481,177.6 14.927073,41.117499,177.8 14.926736,41.117635,178.4 14.926637,41.117677,178.7 14.926588,41.117697,178.8 14.926449,41.117761,179.3 14.926277,41.117816,180.3 14.926248,41.117793,180.6 14.926219,41.11777,181 14.926193,41.117694,181.2 14.926193,41.117594,181.6 14.92619,41.117467,182 14.926187,41.117326,182.6 14.926186,41.117265,182.9 14.926179,41.116932,184.6 14.926174,41.116735,185.8 14.926172,41.116635,186.5 14.926156,41.116471,187.6 14.926144,41.116368,188.4 14.926105,41.116186,189.7 14.926046,41.116034,190.8 14.926,41.115914,191.8 14.925934,41.115744,193.1 14.925856,41.115543,194.6 14.925775,41.115331,196.2 14.925783,41.115167,197.2 14.925817,41.114986,198.3 14.925906,41.114839,199.2 14.92601,41.114669,200.2 14.92615,41.11445,201.1 14.926297,41.114223,201.9 14.92642,41.114032,202.8 14.926501,41.113907,203.6 14.926546,41.113818,204.1 14.926632,41.113628,205.3 14.926659,41.11357,205.7 14.926671,41.113542,205.9 14.92674,41.113382,207.1 14.926784,41.113249,208.1 14.926825,41.113129,209.1 14.926894,41.112921,211 14.92695,41.112753,212.7 14.92696,41.112722,213 14.927027,41.112522,214.8 14.927108,41.112349,216.3 14.927291,41.112167,217.8 14.927481,41.111976,218.7 14.927719,41.111738,219.2 14.927883,41.111574,219.6 14.927895,41.111544,219.6 14.927945,41.111357,220.2 14.927978,41.111151,221.2 14.927989,41.110877,222.5 14.927946,41.110665,223.6 14.927812,41.110483,224.8 14.927573,41.110346,226.2 14.927242,41.110231,227.7 14.92698,41.11014,228.7 14.926719,41.110037,229.7 14.926506,41.109917,230.5 14.926439,41.10988,230.7 14.926421,41.109862,230.8 14.926275,41.10964,231.8 14.926125,41.10941,232.9 14.926008,41.109232,233.7 14.925879,41.109034,234.7 14.925772,41.108871,235.6 14.925677,41.108726,236.4 14.925504,41.10858,237.4 14.925307,41.108432,238.6 14.925131,41.1083,239.6 14.924934,41.108152,240.6 14.924696,41.107974,241.9 14.924541,41.107806,242.4 14.924555,41.107602,243.4 14.924766,41.107329,245 14.924858,41.10721,245.7 14.925005,41.10702,246.8 14.925116,41.106877,247.7 14.925253,41.106699,248.8 14.925304,41.106463,250 14.925343,41.10621,251.4 14.925374,41.106015,252.4 14.925356,41.105895,253.1 14.925225,41.105646,254.5 14.92504,41.105465,255.7 14.924716,41.105213,257.2 14.924682,41.105187,257.3 14.924418,41.10498,258.1 14.924226,41.10483,258.6 14.924184,41.104798,258.6 14.924093,41.104722,258.7 14.924195,41.104623,258.7 14.924296,41.104526,258.6 14.92432,41.104503,258.6 14.924442,41.104386,258.5 14.924569,41.104264,258.3 14.924703,41.104123,258 14.924742,41.104076,258 14.924783,41.104029,257.9 14.924821,41.103984,257.8 14.924858,41.103939,257.8 14.924953,41.103765,257.6 14.925036,41.103594,257.5 14.925067,41.103529,257.4 14.925113,41.103435,257.4 14.9252,41.103243,257.4 14.925272,41.10304,257.3 14.925283,41.102969,257.3 14.925303,41.102836,257.2 14.925349,41.102539,257.1 14.925358,41.102466,257.1 14.925364,41.102396,257 14.925377,41.102256,257 14.925383,41.102187,256.9 14.925395,41.102048,256.7 14.925406,41.10192,256.6 14.925422,41.101745,256.5 14.925443,41.101508,256.1 14.925452,41.101404,255.9 14.925476,41.101129,255.2 14.925483,41.101027,254.9 14.925449,41.100864,254.5 14.925404,41.100645,253.9 14.925396,41.100607,253.9 14.925351,41.100486,253.4 14.925188,41.100288,252.3 14.92505,41.100119,251.3 14.924993,41.100049,250.8 14.92496,41.10001,250.5 14.924802,41.099826,249 14.924756,41.099773,248.5 14.924725,41.099718,248 14.924663,41.099489,246.2 14.924624,41.099236,244 14.9246,41.099081,242.5 14.924531,41.098628,237.9 14.924444,41.09806,232.4 14.924383,41.097897,231.2 14.924289,41.09773,230.1 14.923988,41.097196,228.4 14.923948,41.097125,228.3 14.923797,41.096772,228.8 14.923777,41.096706,229 14.923738,41.096579,229.3 14.923664,41.096339,230.1 14.923647,41.096281,230.3 14.923611,41.096165,230.7 14.923522,41.095875,231.8 14.923454,41.095652,232.3 14.92342,41.095542,232.3 14.92323,41.095096,231.6 14.923166,41.094973,231 14.923097,41.09484,230.3 14.922844,41.094351,227 14.922728,41.094128,225.5 14.92261,41.093898,223.9 14.922245,41.093378,220.8 14.922176,41.09331,220.4 14.922105,41.093241,220.1 14.921891,41.093032,219.3 14.921481,41.092631,218.3 14.921433,41.092566,218.2 14.921366,41.092424,218.2 14.921401,41.092207,218.5 14.92142,41.092086,218.8 14.921446,41.091926,219.3 14.92146,41.09184,219.6 14.921478,41.091712,220 14.92148,41.091696,220.1 14.921463,41.09173,220.2 14.921484,41.091663,220.3 14.921493,41.091592,219.9 14.921898,41.091536,216.9 14.921946,41.091507,216.3 14.922003,41.091477,215.7 14.922209,41.091367,214.1 14.922611,41.091067,211.9 14.922868,41.090888,212 14.92302,41.090837,212.8 14.923247,41.09079,214.2 14.923312,41.090774,214.8 14.923376,41.090756,215.4 14.923485,41.090717,216.5 14.923633,41.090657,218 14.923677,41.090649,218.4 14.923763,41.090622,219.2 14.923844,41.090577,220.1 14.923961,41.090511,221.4 14.924042,41.090467,222.2 14.924178,41.090406,223.4 14.924224,41.090391,223.8 14.924346,41.090324,224.9 14.924386,41.090308,225.1 14.9246,41.090204,225.8 14.924797,41.090113,225.8 14.925132,41.089957,225.4 14.925534,41.089771,224.4 14.926046,41.089533,223.3 14.926271,41.089424,222.9 14.926718,41.089185,221.3 14.927131,41.088938,219.5 14.927406,41.088794,218.1 14.927702,41.088637,215.8 14.928228,41.088358,211.1 14.928345,41.088296,210.2 14.928595,41.088163,209.5 14.929005,41.087993,208.4 14.929695,41.087745,206.9 14.929939,41.087649,206.1 14.930305,41.087518,205.4 14.930916,41.08729,203.3 14.931644,41.087017,200.5 14.931861,41.086941,200 14.932108,41.086818,198.7 14.932159,41.086766,198.4 14.932186,41.086708,198 14.932195,41.086586,197 14.932134,41.086339,195.4 14.932118,41.086256,194.5 14.932116,41.086258,194.4 14.932052,41.086815,198.6 14.932039,41.086827,198.7 14.931957,41.086868,199.2 14.931935,41.086892,199.4 14.931924,41.086894,199.4 14.93185,41.086917,199.8 14.931677,41.086975,200.2 14.931649,41.086979,200.3 14.931484,41.087056,200.7 14.931423,41.087079,201 14.931262,41.087128,201.8 14.931233,41.087138,201.8 14.930971,41.08724,202.7 14.930688,41.087355,203.9 14.930341,41.087478,205.1 14.930073,41.087576,205.8 14.929834,41.087653,206.3 14.929795,41.087667,206.5 14.929596,41.087742,207 14.929364,41.08784,207.3 14.929004,41.087975,208.3 14.928647,41.088112,209.4 14.928324,41.088286,210.3 14.928143,41.088377,211.5 14.928111,41.088393,211.7 14.927856,41.088537,214.1 14.927761,41.08859,215.2 14.927565,41.088689,216.7 14.9274,41.08877,218 14.927278,41.088848,218.8 14.926974,41.089021,220.1 14.926774,41.089141,221 14.926507,41.089305,222.3 14.926233,41.089454,223 14.925927,41.089584,223.6 14.925665,41.089691,224.1 14.925624,41.089715,224.2 14.925291,41.08984,224.9 14.925075,41.089954,225.5 14.924655,41.09014,225.8 14.924309,41.090321,224.7 14.924083,41.090437,222.6 14.923905,41.090525,220.9 14.923418,41.090733,215.9 14.923204,41.090801,213.9 14.922958,41.090854,212.4 14.922726,41.090938,211.9 14.922557,41.091071,211.9 14.922479,41.091137,212.1 14.922186,41.091358,214.2 14.921945,41.091483,216.1 14.92179,41.091567,217.9 14.921691,41.091615,218.8 14.921591,41.091652,219.5 14.921487,41.091643,220 14.921482,41.09168,220.2 14.921468,41.091764,220.4 14.921344,41.091764,220.8 14.921163,41.091764,221.7 14.920914,41.091764,223 14.920741,41.091764,223.4 14.920546,41.091777,223.7 14.920313,41.091806,224.2 14.920179,41.091822,224.4 14.920059,41.091836,224.6 14.919856,41.091876,225 14.919699,41.091921,225.3 14.919497,41.091997,225.6 14.919213,41.092114,226.3 14.919021,41.092193,227.1 14.918976,41.092211,227.3 14.918775,41.092293,228.3 14.918739,41.092308,228.5 14.918554,41.092384,229.7 14.918402,41.092446,230.8 14.918305,41.092488,231.6 14.918122,41.092575,233.3 14.918032,41.092618,234.1 14.917818,41.092719,235.9 14.917562,41.092841,237.5 14.917377,41.092929,238.4 14.917083,41.093068,239.7 14.916879,41.093165,240.5 14.91679,41.093207,240.8 14.916465,41.093361,241.8 14.916213,41.093478,242.5 14.9161,41.093524,242.7 14.915939,41.093591,243 14.915791,41.093652,243.1 14.915503,41.09377,243.1 14.91539,41.093817,243.1 14.915261,41.09387,243 14.915033,41.093964,242.7 14.914927,41.094008,242.6 14.91476,41.094076,242.6 14.914587,41.094148,242.4 14.914471,41.094196,242.2 14.914232,41.094294,241.9 14.914056,41.094367,241.7 14.913772,41.094484,241.5 14.913661,41.094529,241.4 14.913553,41.094574,241.3 14.9133,41.094678,241.1 14.913252,41.094698,241.1 14.913203,41.094718,241.1 14.913105,41.094758,241 14.912867,41.094856,240.9 14.91273,41.094913,240.9 14.91254,41.094991,241 14.91243,41.095037,241 14.912132,41.095159,241.4 14.912057,41.09519,241.6 14.911988,41.095219,241.8 14.912083,41.095251,241.5 14.912022,41.095593,240.6 14.912058,41.095734,240.3 14.912113,41.095952,239.8 14.91214,41.096011,239.6 14.9122,41.096106,239.2 14.912221,41.096142,239 14.912338,41.096252,238.3 14.91244,41.096343,237.7 14.912501,41.09641,237.3 14.912583,41.096499,236.6 14.91268,41.096592,235.9 14.912846,41.096769,234.7 14.912849,41.096839,234.5 14.912819,41.096917,234.2 14.912762,41.09698,234.1 14.912692,41.09703,234 14.91254,41.097118,233.7 14.911979,41.09749,233.1 14.911559,41.097816,232.6 14.911388,41.09795,232.1 14.911208,41.098086,231.7 14.91102,41.098246,230.9 14.910889,41.098346,230.4 14.910561,41.098609,229.1 14.910349,41.098783,228.4 14.910195,41.098902,227.9 14.910045,41.099033,227.7 14.909899,41.09916,227.8 14.909668,41.099344,228.9 14.909374,41.099569,231.5 14.909234,41.099658,232.6 14.90917,41.099697,233.1 14.90907,41.09978,233.7 14.908996,41.09987,234 14.908943,41.099963,234.2 14.908885,41.100095,234.3 14.908692,41.100347,233.5 14.908571,41.100488,232.7 14.908456,41.100631,231.5 14.90836,41.100709,230.5 14.908219,41.100826,228.9 14.908176,41.100881,228.3 14.908125,41.101012,227.2 14.908134,41.10121,225.3 14.908141,41.101395,224.2 14.908098,41.10167,223 14.907989,41.101987,221.8 14.907911,41.102214,221 14.907892,41.102386,220.3 14.907902,41.102896,219 14.907907,41.10314,218.6 14.907908,41.103215,218.5 14.90791,41.103293,218.4 14.907898,41.103373,218.3 14.907876,41.103452,218.2 14.907834,41.103597,218 14.907814,41.103665,217.9 14.907757,41.103864,217.7 14.907703,41.104049,217.2 14.907685,41.104112,217 14.907626,41.104316,216.6 14.907565,41.104529,216.3 14.90749,41.104788,215.8 14.907476,41.104836,215.7 14.907382,41.105163,214.7 14.907361,41.105234,214.6 14.907339,41.105309,214.4 14.907317,41.105387,214.2 14.907264,41.105454,214.1 14.907202,41.105512,214 14.907104,41.105602,213.8 14.907019,41.105681,213.7 14.906986,41.105734,213.5 14.906929,41.105841,213.3 14.906863,41.105965,212.7 14.906816,41.10603,212.5 14.906752,41.106083,212.2 14.906364,41.106394,211 14.905952,41.10668,209.2 14.905709,41.106813,208.1 14.905525,41.106873,207.3 14.90532,41.106882,206.6 14.905223,41.106886,206.3 14.905131,41.10689,206 14.904978,41.106959,205.3 14.904855,41.107063,204.6 14.904803,41.107128,204.4 14.90443,41.107595,202.7 14.904396,41.107675,202.7 14.904405,41.107745,202.6 14.904444,41.107886,202.5 14.904475,41.107958,202.4 14.904498,41.108028,201.9 14.904518,41.10809,201.6 14.904534,41.108143,201.2 14.904393,41.108228,200.6 14.904307,41.108218,200.4 14.904255,41.108208,200.3 14.904195,41.108211,200.1 14.904002,41.108246,199.7 14.90369,41.108294,199.6 14.903356,41.108376,199.9 14.903311,41.108388,200 14.903126,41.108433,200.5 14.903036,41.108456,200.8 14.902905,41.108488,201.2 14.902817,41.10851,201.6 14.902533,41.10858,203.2 14.902417,41.108612,204 14.902268,41.108656,205.1 14.902088,41.10871,206.8 14.901984,41.10874,207.9 14.901891,41.108768,208.9 14.9018,41.108795,210 14.901712,41.108821,211.1 14.901651,41.108839,211.8 14.901562,41.108865,212.9 14.90137,41.108922,215.2 14.901168,41.108982,217.6 14.90109,41.109005,218.4 14.900962,41.109043,219.8 14.900788,41.109094,221.7 14.900558,41.109162,224 14.900346,41.109225,225.9 14.900152,41.109282,227.6 14.900096,41.109299,228 14.899951,41.109341,229.1 14.899736,41.109405,230.5 14.899446,41.109491,232.2 14.899279,41.10954,233.1 14.899213,41.10956,233.5 14.898892,41.109655,235.4 14.898662,41.109723,236.7 14.898402,41.109796,238.1 14.898054,41.10989,239.4 14.897843,41.109947,239.8 14.897633,41.110003,240 14.897585,41.110021,240 14.897439,41.110077,239.9 14.897382,41.110099,239.9 14.897272,41.110142,239.9 14.897169,41.110181,239.9 14.896652,41.11038,239.8 14.896594,41.110403,239.9 14.896337,41.110501,239.9 14.895995,41.110633,240.2 14.895593,41.110735,240.8 14.895148,41.110818,241.5 14.894572,41.110883,242.8 14.894512,41.11089,243 14.894293,41.110915,243.6 14.894006,41.110947,244.4 14.893969,41.110957,244.5 14.893908,41.110973,244.6 14.893877,41.110981,244.7 14.893679,41.111034,245.2 14.893491,41.111084,245.8 14.893291,41.111136,246.3 14.893042,41.111202,247 14.892842,41.111255,247.6 14.89249,41.111342,248.2 14.892065,41.111408,247.8 14.891677,41.111467,246.9 14.891513,41.111492,246.5 14.891359,41.111513,246.4 14.891171,41.111534,246.6 14.89093,41.111561,246.9 14.890794,41.111577,247 14.890743,41.111582,247.1 14.890682,41.111589,247.2 14.890654,41.111592,247.2 14.890489,41.111611,247.4 14.890305,41.111632,247.6 14.890088,41.111656,247.9 14.88999,41.111667,248 14.889641,41.111703,248.5 14.889278,41.111727,249.1 14.889026,41.111743,249.7 14.888774,41.11176,250.3 14.888622,41.11177,250.7 14.888232,41.111796,252.2 14.88795,41.111798,253.3 14.887856,41.111794,253.7 14.887431,41.111771,255.6 14.887037,41.111751,257.3 14.886661,41.111732,258.8 14.886259,41.111732,260.5 14.885974,41.111752,261.7 14.885936,41.111754,261.8 14.8856,41.111778,263.2 14.885352,41.111796,264.2 14.885004,41.11182,265.7 14.884622,41.111858,267.4 14.884275,41.111896,269.1 14.883953,41.111931,270.8 14.883576,41.111973,273.1 14.883432,41.111947,273.9 14.883414,41.111942,274 14.883337,41.11192,274.4 14.883281,41.111904,274.7 14.883193,41.111879,275.2 14.883134,41.111862,275.6 14.882977,41.111816,276.7 14.882812,41.111769,277.8 14.882548,41.111693,279.7 14.882258,41.111609,281.8 14.882021,41.111541,283.6 14.881859,41.111494,284.7 14.881732,41.111457,285.6 14.881483,41.111385,287.4 14.881458,41.111378,287.5 14.881317,41.111338,288.4 14.881125,41.11129,289.4 14.881109,41.11129,289.4 14.881048,41.11129,289.4 14.881022,41.11129,289.4 14.880816,41.11129,289.5 14.880595,41.11129,290.1 14.880418,41.111198,290.9 14.880348,41.111192,291.1 14.880082,41.111167,292.5 14.879955,41.111155,293.2 14.879885,41.111149,293.6 14.879638,41.111126,295.1 14.879454,41.111109,296.3 14.879376,41.111102,296.8 14.87922,41.111107,297.8 14.879118,41.111117,298.4 14.878998,41.111127,299.2 14.878848,41.111141,300.2 14.878587,41.111165,301.7 14.878399,41.111182,302.8 14.878213,41.111138,303.9 14.877966,41.111073,305.2 14.877727,41.111011,306.5 14.877484,41.110947,307.7 14.87732,41.110904,308.3 14.877157,41.110861,308.8 14.876987,41.110817,309.1 14.876794,41.110766,309.3 14.876694,41.11074,309.3 14.876534,41.110707,309.1 14.876208,41.110682,308.5 14.876083,41.110672,308.2 14.875814,41.110652,307.5 14.8757,41.110643,307.2 14.875574,41.110633,306.7 14.875562,41.110632,306.7 14.875537,41.11063,306.6 14.875402,41.11062,306.1 14.87527,41.11061,305.6 14.874964,41.110586,304.1 14.874449,41.110546,301.7 14.874042,41.110514,300 14.873652,41.110484,299 14.873359,41.110462,298.6 14.872886,41.110418,298.5 14.872303,41.110325,299.3 14.872008,41.110279,300.1 14.87195,41.11027,300.3 14.871889,41.11026,300.5 14.871769,41.110241,300.8 14.871712,41.110232,301 14.871484,41.110196,301.6 14.871196,41.11015,302.4 14.870909,41.110105,303.3 14.870739,41.110078,303.9 14.870506,41.110041,304.8 14.870448,41.110032,305 14.870329,41.110013,305.4 14.870042,41.109968,306.3 14.869927,41.10995,306.7 14.86987,41.109941,306.9 14.869246,41.109842,307.9 14.869055,41.109812,307.6 14.868759,41.109765,306.9 14.868349,41.1097,305.6 14.868085,41.109659,304.8 14.867905,41.109624,304.3 14.867817,41.109598,304.2 14.867557,41.109503,303.7 14.867233,41.109341,303.3 14.867069,41.109259,303.2 14.866674,41.10905,303 14.866523,41.108969,302.9 14.866305,41.108851,302.9 14.866167,41.108777,302.9 14.866106,41.108744,302.9 14.866049,41.108713,302.9 14.865938,41.108654,302.9 14.865833,41.108597,302.9 14.865781,41.108569,302.9 14.865684,41.108517,302.9 14.865591,41.108467,303 14.865449,41.10839,303.1 14.865156,41.108541,301.5 14.864993,41.108619,300.3 14.864927,41.108648,299.9 14.864856,41.108682,299.4 14.864306,41.108939,296.3 14.863979,41.109093,294.6 14.863626,41.109257,293.2 14.863361,41.109378,292.5 14.863188,41.10946,292 14.863025,41.109539,291.6 14.862866,41.109614,291.5 14.862557,41.10977,291.4 14.862494,41.109816,291.4 14.862383,41.109913,291.4 14.862311,41.11003,291.4 14.862237,41.110212,291.7 14.862203,41.110333,292.1 14.862101,41.110673,293.1 14.862088,41.110727,293.3 14.862076,41.110782,293.4 14.862039,41.110942,293.8 14.861944,41.111207,294.4 14.861862,41.111358,294.5 14.861754,41.111501,294.6 14.861657,41.11159,294.5 14.861488,41.111715,294.5 14.861428,41.111757,294.4 14.861363,41.111797,294.4 14.861086,41.11195,294.3 14.861019,41.111984,294.3 14.860578,41.112233,294.2 14.860126,41.112475,293.7 14.859825,41.112641,293.5 14.859574,41.112761,293.2 14.859213,41.112913,292.7 14.859062,41.112971,292.5 14.858622,41.113124,291.9 14.858553,41.11315,291.7 14.858423,41.1132,291.5 14.858296,41.113239,291.3 14.858031,41.113344,290.9 14.857992,41.113358,290.8 14.857876,41.113403,290.4 14.857806,41.113413,290.2 14.857748,41.113426,289.9 14.857536,41.113471,289.2 14.857485,41.113488,289.1 14.85734,41.113538,288.7 14.85708,41.113627,287.8 14.856658,41.113772,285.2 14.856577,41.1138,284.7 14.856324,41.113887,282.6 14.856148,41.113966,281.1 14.855512,41.114283,275.8 14.854933,41.114646,271.4 14.854297,41.115046,267.4 14.853855,41.115325,265.5 14.853409,41.115572,263.9 14.852809,41.115755,262.6 14.852167,41.115951,261.7 14.851753,41.116077,261.3 14.851674,41.116101,261.2 14.851188,41.116249,259.7 14.850961,41.116318,258.7 14.85092,41.11633,258.5 14.850904,41.116334,258.4 14.850934,41.11627,257.8 14.850922,41.11626,257.7 14.850853,41.116204,256.9 14.850691,41.116069,255.2 14.850638,41.116025,254.6 14.850435,41.115857,253.1 14.850276,41.115726,252.4 14.849891,41.115336,250.2 14.849634,41.115071,249 14.84951,41.114971,248.6 14.849303,41.11483,248 14.849031,41.114646,247.2 14.848752,41.114457,246.1 14.848391,41.114212,244.5 14.847909,41.113865,242.3 14.847598,41.113678,242.2 14.847135,41.113414,241.9 14.846921,41.113297,241.5 14.846838,41.113267,241.2 14.846683,41.11321,240.6 14.846452,41.113125,239.7 14.846312,41.113074,239.2 14.845832,41.112898,236.7 14.845206,41.112669,232.3 14.844648,41.112498,230.5 14.844265,41.112454,230.5 14.844181,41.112422,230.8 14.844117,41.112382,231 14.844028,41.112293,231.8 14.844005,41.112247,232.2 14.843984,41.112204,232.6 14.843929,41.112095,233.6 14.843858,41.111921,235.4 14.843847,41.111753,236.8 14.84384,41.11164,237.7 14.843838,41.111606,237.9 14.843831,41.11149,238.8 14.843829,41.111461,239 14.843824,41.111375,239.8 14.843821,41.111322,240.3 14.843813,41.111196,241.4 14.843808,41.111122,242 14.843797,41.110939,243.6 14.843793,41.110879,244.1 14.843781,41.110684,245.8 14.843776,41.110595,246.5 14.84377,41.110509,247.2 14.843761,41.110363,248.3 14.843703,41.11012,250.2 14.84369,41.110092,250.4 14.843578,41.10987,252.3 14.843468,41.109688,254 14.843297,41.109483,255.8 14.843105,41.109298,257.4 14.84291,41.109108,258.6 14.842706,41.108911,259.3 14.842503,41.108792,259 14.842369,41.10874,258.5 14.842267,41.108701,258 14.842233,41.108665,257.8 14.842206,41.10862,257.6 14.842181,41.108516,257.1 14.842131,41.108271,255.8 14.842081,41.108215,255.5 14.842027,41.108155,255.2 14.841882,41.10806,254.6 14.841439,41.107894,254 14.841268,41.107829,253.9 14.841186,41.107799,253.9 14.841101,41.107773,253.9 14.840933,41.107789,254 14.840539,41.107807,253.9 14.840466,41.107803,254 14.840323,41.107796,254.1 14.840198,41.107803,254.2 14.84007,41.107827,254.2 14.839888,41.107862,254.3 14.839774,41.107883,254.4 14.839668,41.107903,254.6 14.839554,41.107929,254.7 14.839455,41.107979,254.8 14.839263,41.108077,254.8 14.838801,41.108312,254.9 14.838693,41.108367,254.8 14.838418,41.108506,254.8 14.838254,41.108589,254.8 14.838143,41.108632,254.8 14.838087,41.108654,254.8 14.837677,41.108788,254.5 14.837545,41.108799,254.2 14.837198,41.108829,253.5 14.836843,41.10886,252.3 14.836767,41.108865,251.9 14.836544,41.108856,250.9 14.836129,41.10884,248.8 14.835747,41.108824,245.9 14.835644,41.108859,245 14.835567,41.108904,244.2 14.835407,41.108998,242.9 14.83516,41.109143,241.9 14.834997,41.109239,241.5 14.834919,41.109285,241.4 14.834846,41.109327,241.4 14.834661,41.109513,241.4 14.834485,41.109849,240.6 14.834402,41.10993,239.9 14.834299,41.110028,238.4 14.834118,41.1102,235.5 14.834049,41.110265,234.3 14.833818,41.110445,230.9 14.833653,41.11057,228.4 14.833345,41.110743,224.8 14.833245,41.110794,224.2 14.833066,41.110883,223.6 14.83295,41.110912,223.3 14.832736,41.110918,223.1 14.83263,41.110908,223.1 14.832527,41.110898,223.1 14.832332,41.110888,223.2 14.832237,41.110897,223.5 14.832057,41.110915,224.1 14.831837,41.110958,225.2 14.831774,41.110975,225.6 14.831601,41.111023,226.8 14.831551,41.111038,227.2 14.831374,41.111081,228.9 14.831335,41.111086,229.3 14.831198,41.111104,230.8 14.831112,41.111115,231.7 14.831082,41.111119,232 14.831022,41.111127,232.5 14.83091,41.111142,233.4 14.830831,41.111152,234 14.830754,41.111162,234.6 14.83056,41.111187,236.2 14.830525,41.111192,236.5 14.830406,41.111209,237.6 14.830227,41.111246,239.3 14.830201,41.111251,239.6 14.830172,41.111257,239.8 14.830123,41.111267,240.2 14.830093,41.111273,240.5 14.829926,41.111307,241.6 14.829828,41.111327,242.2 14.829675,41.111359,243.4 14.829514,41.111391,244.7 14.829483,41.111398,244.9 14.829399,41.111428,245.6 14.829272,41.111474,246.4 14.82912,41.11153,246.9 14.829035,41.111561,247.2 14.829061,41.111588,247.2 14.829185,41.111634,247.4 14.829433,41.111726,247.3 14.82974,41.111863,246.6 14.829983,41.111993,245.3 14.830096,41.112052,244.6 14.830277,41.112149,243.4 14.83033,41.112259,242.7 14.830387,41.112379,242.1 14.830444,41.112497,241.5 14.830579,41.112746,240.2 14.830661,41.112861,239.5 14.830747,41.11298,238.7 14.830932,41.113262,237.2 14.831015,41.113548,236.1 14.831055,41.113684,235.6 14.831095,41.113822,235.2 14.831147,41.11396,234.8 14.831179,41.11403,234.7 14.83136,41.114261,234.9 14.831404,41.114306,235.1 14.831445,41.114346,235.2 14.831604,41.114506,235.5 14.831733,41.114635,235.9 14.831843,41.114745,236.3 14.832077,41.115031,237.1 14.832345,41.115358,237.5 14.832605,41.115676,237.3 14.832678,41.115765,237.2 14.83279,41.115902,236.9 14.832831,41.115947,236.8 14.832974,41.11609,236.2 14.83312,41.116236,235.6 14.833225,41.116341,235.1 14.833592,41.116708,233.6 14.8337,41.116817,233.3 14.833812,41.11693,233.2 14.833914,41.117036,233.2 14.834057,41.117185,233.2 14.834233,41.11737,233.2 14.834513,41.117662,233.3 14.834592,41.117745,233.5 14.834725,41.117883,233.9 14.834849,41.118126,234.6 14.834904,41.118242,235 14.835004,41.118488,235.5 14.835054,41.11886,234.3 14.835047,41.119007,233.3 14.835042,41.119104,232.7 14.834942,41.119309,230.9 14.834843,41.119473,229.3 14.834824,41.119504,229 14.834689,41.119731,227.8 14.834588,41.119831,227.6 14.834502,41.119889,227.6 14.834467,41.119911,227.6 14.834444,41.119927,227.6 14.83441,41.119949,227.6 14.834391,41.119962,227.6 14.834366,41.119978,227.6 14.834275,41.120038,227.8 14.8342,41.120088,227.9 14.833912,41.120278,228.6 14.833601,41.120484,229 14.833505,41.120548,229 14.833318,41.120662,228.7 14.833165,41.120745,228.4 14.83314,41.120758,228.3 14.833055,41.120786,228.1 14.832924,41.120814,227.8 14.832688,41.120863,227.5 14.832567,41.120889,227.5 14.832321,41.120941,227.6 14.832212,41.120964,227.7 14.832099,41.120987,227.7 14.832038,41.121,227.6 14.831663,41.121079,227.1 14.831599,41.121093,227 14.831535,41.121106,226.9 14.83145,41.121175,226.7 14.831429,41.121218,226.6 14.831343,41.121336,226.3 14.831271,41.121401,226.1 14.831236,41.121434,225.9 14.831089,41.121558,225.2 14.830953,41.121653,224.5 14.830927,41.121672,224.3 14.830738,41.121804,223 14.830615,41.12189,221.8 14.830601,41.1219,221.7 14.830576,41.121917,221.4 14.830545,41.121939,221 14.830507,41.121965,220.5 14.830324,41.122093,218.1 14.829976,41.122336,214.7 14.829605,41.122596,212.7 14.82939,41.122746,211.9 14.829332,41.122786,211.8 14.829107,41.122944,211.8 14.828999,41.123019,212.2 14.828843,41.123112,212.6 14.828787,41.12314,212.7 14.828727,41.12317,212.4 14.828667,41.1232,212.2 14.828535,41.123266,211.4 14.82845,41.123288,211 14.828357,41.123293,210.6 14.828244,41.123286,210.1 14.827907,41.123263,208.2 14.827816,41.123244,207.5 14.827735,41.1232,206.8 14.827589,41.123086,205.9 14.827462,41.122959,205.9 14.82739,41.122931,206.1 14.827319,41.122975,206.2 14.827247,41.123018,206.4 14.827176,41.123062,206.5 14.82699,41.123196,207.8 14.826941,41.123214,208.2 14.82681,41.123249,209.6 14.826731,41.123259,210.4 14.826576,41.123279,212 14.826489,41.123283,212.9 14.826357,41.123272,214.3 14.826317,41.123269,214.7 14.82621,41.12326,215.8 14.826134,41.123254,216.4 14.826093,41.123251,216.7 14.825889,41.123281,217.8 14.825826,41.123306,218.1 14.825678,41.123366,218.5 14.825561,41.123412,218.6 14.825507,41.123458,218.5 14.825331,41.123614,218 14.825185,41.123744,217.7 14.825108,41.123813,217.5 14.825066,41.12385,217.4 14.824832,41.12402,216.7 14.82462,41.124154,215.8 14.824502,41.124197,215.3 14.824107,41.124257,213.6 14.823954,41.12428,213.2 14.823669,41.124324,213.1 14.823601,41.124334,213.2 14.823423,41.124361,213.5 14.82328,41.124383,213.9 14.823216,41.124434,214.3 14.823237,41.124471,214.5 14.823234,41.12447,214.5 14.823122,41.124407,214.9 14.823109,41.124409,214.9 14.823086,41.124413,215 14.823073,41.124415,215.1 14.823058,41.124417,215.1 14.823028,41.124422,215.3 14.822981,41.124429,215.5 14.822872,41.124445,215.9 14.822686,41.124474,216.3 14.822638,41.124481,216.4 14.822288,41.124535,216.3 14.822108,41.124562,216.1 14.822095,41.124564,216.1 14.822029,41.124575,215.9 14.821996,41.124585,215.8 14.821855,41.124625,215.2 14.821479,41.124732,213.5 14.821281,41.124789,212.7 14.821067,41.12485,211.9 14.820677,41.124962,210.4 14.820513,41.125002,209.6 14.820227,41.125001,207.4 14.820126,41.124985,206.4 14.81965,41.124911,201.6 14.819557,41.124896,200.6 14.819003,41.124863,195.3 14.818586,41.124921,193.4 14.818069,41.125086,194.3 14.817697,41.125248,196.4 14.817394,41.125335,198.2 14.817281,41.125356,199.1 14.817181,41.125374,199.9 14.817133,41.125383,200.3 14.817032,41.125401,201.1 14.816961,41.125414,201.7 14.816896,41.125426,202.2 14.816765,41.125449,203 14.816691,41.125463,203.4 14.816615,41.125474,203.8 14.816456,41.125471,204.6 14.816307,41.125468,205.1 14.816109,41.125465,205.6 14.815991,41.125463,205.7 14.815564,41.125456,205.4 14.815347,41.125452,205.2 14.815192,41.125449,205 14.81472,41.125441,204.5 14.814072,41.125435,203.6 14.81353,41.125475,202.8 14.812901,41.125522,202 14.812633,41.125542,201.7 14.812285,41.125568,201.3 14.812113,41.12558,201 14.811747,41.125624,200.1 14.811137,41.125697,197.8 14.810913,41.1257,196.5 14.810803,41.125691,195.7 14.810689,41.125682,194.8 14.810182,41.125646,191.5 14.810058,41.125646,191 14.80983,41.125646,190 14.809614,41.125646,188.9 14.809508,41.125646,188.3 14.809189,41.125663,185.3 14.808951,41.125733,182.7 14.808596,41.125837,179.1 14.808484,41.12587,178.2 14.807945,41.126029,173.5 14.807688,41.126087,171.2 14.807469,41.126112,169.3 14.807226,41.126141,167.5 14.806965,41.126171,165.7 14.806413,41.126236,162.3 14.806166,41.126264,161 14.805745,41.126294,159.4 14.80541,41.126313,157.3 14.805285,41.12632,156.4 14.804754,41.126349,153.1 14.804468,41.126365,151.7 14.804174,41.126395,150.6 14.803495,41.126506,150 14.802919,41.126601,150.6 14.802485,41.126699,152 14.802417,41.126726,152.3 14.802276,41.126762,153.1 14.802213,41.126776,153.5 14.802154,41.126788,153.8 14.802041,41.126812,154.5 14.801935,41.126835,155 14.801837,41.126855,155.6 14.801581,41.126909,156.9 14.801428,41.126942,157.8 14.801375,41.126953,158.1 14.801167,41.127001,159.4 14.800918,41.127063,161.1 14.800743,41.127107,162.4 14.800628,41.127136,163.4 14.800441,41.127182,164.9 14.800284,41.127218,166 14.800245,41.127225,166.3 14.799992,41.127267,168.4 14.799751,41.127296,170.4 14.799717,41.127294,170.7 14.79947,41.127284,172.3 14.799183,41.127273,173.6 14.79889,41.127261,175.3 14.798545,41.127247,177.7 14.798346,41.127239,178.8 14.79806,41.127214,180.3 14.797733,41.127169,181.9 14.797448,41.127129,183.1 14.79726,41.127101,183.8 14.797219,41.127092,183.7 14.797188,41.127086,183.6 14.797083,41.127057,183.4 14.797113,41.126955,183.8 14.797174,41.126706,184.7 14.797207,41.126432,185.6 14.797227,41.126275,186.1 14.797235,41.126211,186.2 14.797268,41.125969,186.9 14.797291,41.125792,187.4 14.797311,41.125642,187.9 14.797347,41.125373,188.6 14.797377,41.125146,189.2 14.797314,41.12491,189.7 14.797245,41.124712,190 14.797181,41.124524,190.1 14.797149,41.12445,190 14.797025,41.12432,189.1 14.796972,41.124255,188.5 14.796919,41.124183,188 14.796793,41.124016,186.7 14.796539,41.123782,186.1 14.796487,41.123735,186.1 14.796336,41.123693,186 14.796202,41.123693,185.9 14.796095,41.123697,185.9 14.79584,41.12378,185.7 14.795582,41.123895,185.5 14.795387,41.123982,185.3 14.795295,41.124022,185.1 14.795204,41.124063,185 14.795041,41.124135,184.8 14.79498,41.124162,184.7 14.794924,41.124188,184.6 14.79481,41.124239,184.4 14.794757,41.124262,184.3 14.79447,41.124391,183.8 14.794204,41.12451,183.4 14.793936,41.12463,183.1 14.793819,41.124682,182.9 14.793705,41.124733,182.7 14.793588,41.124786,182.5 14.793342,41.124896,182.2 14.793223,41.124949,182 14.793029,41.125036,181.7 14.792894,41.125101,181.5 14.792588,41.125256,181 14.79254,41.125281,181 14.792244,41.125431,180.5 14.792138,41.125485,180.3 14.791985,41.125563,180 14.791686,41.125715,179.4 14.791597,41.125762,179.3 14.791504,41.125813,179.1 14.791456,41.12584,179 14.791262,41.125946,178.5 14.791215,41.125972,178.4 14.790982,41.126099,177.9 14.790884,41.126147,177.7 14.790681,41.126244,177.2 14.79051,41.126327,176.8 14.790174,41.126515,176.2 14.789879,41.126676,175.5 14.78983,41.126703,175.4 14.789738,41.126753,175.1 14.789558,41.126852,174.6 14.789214,41.127043,173.7 14.789114,41.127098,173.5 14.788916,41.127207,173 14.78852,41.127427,172 14.78847,41.127457,171.9 14.78819,41.127625,171 14.787993,41.127743,170.4 14.787798,41.12786,169.8 14.78767,41.127937,169.4 14.787539,41.128015,169 14.787194,41.128223,168 14.787026,41.128323,167.5 14.786851,41.128434,167.1 14.786611,41.128597,166.5 14.786526,41.128651,166.2 14.786415,41.128721,165.8 14.786374,41.128748,165.7 14.786282,41.128806,165.4 14.786182,41.12887,165 14.786067,41.128943,164.6 14.78588,41.129062,164 14.785479,41.129317,162.8 14.785094,41.129562,162.4 14.785037,41.129599,162.4 14.784529,41.12993,162.5 14.78447,41.129967,162.5 14.784352,41.130039,162.6 14.784231,41.130078,162.6 14.784093,41.130045,162.7 14.78402,41.130028,162.8 14.783744,41.129962,163.1 14.783554,41.129917,163.4 14.7833,41.129857,163.8 14.783204,41.129835,164 14.783056,41.129799,164.3 14.782804,41.12974,164.9 14.782641,41.129701,165.2 14.782145,41.129698,165 14.781924,41.129769,164.5 14.78172,41.129884,164 14.781681,41.129897,163.9 14.781548,41.129962,163.6 14.781487,41.129997,163.4 14.781249,41.130092,162.7 14.781096,41.130161,162.2 14.781027,41.130188,162 
				</coordinates>
			</LineString>
		</Placemark>
		<Placemark id="06581368B33730DF70E9">
			<name> Partenza, Piazza Roma</name>
			<snippet></snippet>
			<LookAt>
				<longitude>14.77956729475753</longitude>
				<latitude>41.13159564709125</latitude>
				<altitude>170.1297477562181</altitude>
				<heading>0</heading>
				<tilt>0</tilt>
				<gx:fovy>30.00000000002677</gx:fovy>
				<range>781.3202119921336</range>
				<altitudeMode>absolute</altitudeMode>
			</LookAt>
			<styleUrl>#__managed_style_1842EB66D23773656687</styleUrl>
			<Point>
				<coordinates>14.77778662869735,41.13129863586067,144.6555504136222</coordinates>
			</Point>
		</Placemark>
		<Placemark id="4DB9B349AF3773658703">
			<name>Apice Vecchio</name>
			<snippet></snippet>
			<LookAt>
				<longitude>14.93305741451333</longitude>
				<latitude>41.12125550000876</latitude>
				<altitude>206.4644682390337</altitude>
				<heading>0</heading>
				<tilt>0</tilt>
				<gx:fovy>30</gx:fovy>
				<range>862.8976667755342</range>
				<altitudeMode>absolute</altitudeMode>
			</LookAt>
			<styleUrl>#__managed_style_07529A56643773656684</styleUrl>
			<Point>
				<coordinates>14.93203332676153,41.12054565838525,220.7111182605516</coordinates>
			</Point>
		</Placemark>
		<Placemark id="03B996BB493730DFD1AD">
			<name>Ponte Appiano</name>
			<snippet></snippet>
			<LookAt>
				<longitude>14.8755511220112</longitude>
				<latitude>41.0976127253469</latitude>
				<altitude>262.9657432127975</altitude>
				<heading>0</heading>
				<tilt>0</tilt>
				<gx:fovy>30</gx:fovy>
				<range>11508.73201392358</range>
				<altitudeMode>absolute</altitudeMode>
			</LookAt>
			<styleUrl>#__managed_style_9687DE76363773656688</styleUrl>
			<Point>
				<coordinates>14.93306599136962,41.08610744491008,180.6860201779024</coordinates>
			</Point>
		</Placemark>
		<Placemark id="6DCCE092563773658703">
			<name> Un Palatium di Federico II</name>
			<snippet></snippet>
			<LookAt>
				<longitude>14.8755511220112</longitude>
				<latitude>41.0976127253469</latitude>
				<altitude>262.9657432127975</altitude>
				<heading>0</heading>
				<tilt>0</tilt>
				<gx:fovy>30</gx:fovy>
				<range>11508.73201392358</range>
				<altitudeMode>absolute</altitudeMode>
			</LookAt>
			<styleUrl>#__managed_style_07529A56643773656684</styleUrl>
			<Point>
				<coordinates>14.90859325066134,41.10028782506199,230.8833232715756</coordinates>
			</Point>
		</Placemark>
		<Placemark id="7F445F1E3E3773658703">
			<name>L’insediamento di Nuceriola</name>
			<snippet></snippet>
			<LookAt>
				<longitude>14.83335025566782</longitude>
				<latitude>41.10490715526224</latitude>
				<altitude>262.3976423373822</altitude>
				<heading>0</heading>
				<tilt>0</tilt>
				<gx:fovy>30</gx:fovy>
				<range>4758.823958864668</range>
				<altitudeMode>absolute</altitudeMode>
			</LookAt>
			<styleUrl>#__managed_style_07529A56643773656684</styleUrl>
			<Point>
				<coordinates>14.85946847410689,41.11193655814319,296.1310814075985</coordinates>
			</Point>
		</Placemark>
		<Placemark id="02C88EBFD23730E177DE">
			<name>POI 1 - Masseria San Cumano e i resti del passato</name>
			<snippet></snippet>
			<LookAt>
				<longitude>14.8168660057957</longitude>
				<latitude>41.11137735743017</latitude>
				<altitude>236.5954380078906</altitude>
				<heading>0</heading>
				<tilt>0</tilt>
				<gx:fovy>30</gx:fovy>
				<range>4784.626004155143</range>
				<altitudeMode>absolute</altitudeMode>
			</LookAt>
			<styleUrl>#__managed_style_07529A56643773656684</styleUrl>
			<Point>
				<coordinates>14.83498097703434,41.10962020055663,240.368982825263</coordinates>
			</Point>
		</Placemark>
		<Placemark id="0DE7EE72893730E1B6A6">
			<name>MUSA</name>
			<snippet></snippet>
			<LookAt>
				<longitude>14.82373812732862</longitude>
				<latitude>41.1157636369643</latitude>
				<altitude>232.0998039636271</altitude>
				<heading>0</heading>
				<tilt>0</tilt>
				<gx:fovy>30.00000000002677</gx:fovy>
				<range>3307.527609679965</range>
				<altitudeMode>absolute</altitudeMode>
			</LookAt>
			<styleUrl>#__managed_style_07529A56643773656684</styleUrl>
			<Point>
				<coordinates>14.80065055794867,41.1249016489435,231.0803913957965</coordinates>
			</Point>
		</Placemark>
		<Placemark id="92499879133773658703">
			<name>Arco di Traiano</name>
			<snippet></snippet>
			<LookAt>
				<longitude>14.77927096835139</longitude>
				<latitude>41.13226359959456</latitude>
				<altitude>141.6066660442156</altitude>
				<heading>0</heading>
				<tilt>0</tilt>
				<gx:fovy>30</gx:fovy>
				<range>435.3546760766767</range>
				<altitudeMode>absolute</altitudeMode>
			</LookAt>
			<styleUrl>#__managed_style_3EAD9AC54B3773658719</styleUrl>
			<Point>
				<coordinates>14.77906188649373,41.13248102854112,140.0743055801286</coordinates>
			</Point>
		</Placemark>
	</Folder>
</Document>
</kml>
