<?xml version="1.0" encoding="UTF-8"?>
<kml xmlns="http://www.opengis.net/kml/2.2" xmlns:gx="http://www.google.com/kml/ext/2.2" xmlns:kml="http://www.opengis.net/kml/2.2" xmlns:atom="http://www.w3.org/2005/Atom">
<Document id="142i2CTJ-D5JvK_OBIXMJVa5yMqaZgmYa">
	<name>Via Appia 2 | Benevento - Apice</name>
	<gx:CascadingStyle kml:id="__managed_style_2EF98DDB13368267D2A8">
		<Style>
			<IconStyle>
				<scale>1.2</scale>
				<Icon>
					<href>https://earth.google.com/earth/document/icon?color=1976d2&amp;id=2000&amp;scale=4</href>
				</Icon>
				<hotSpot x="64" y="128" xunits="pixels" yunits="insetPixels"/>
			</IconStyle>
			<LabelStyle>
			</LabelStyle>
			<LineStyle>
				<color>ff2dc0fb</color>
				<width>4.8</width>
			</LineStyle>
			<PolyStyle>
				<color>40ffffff</color>
			</PolyStyle>
			<BalloonStyle>
			</BalloonStyle>
		</Style>
	</gx:CascadingStyle>
	<gx:CascadingStyle kml:id="__managed_style_1A688EAB54368267D2A8">
		<Style>
			<IconStyle>
				<Icon>
					<href>https://earth.google.com/earth/document/icon?color=1976d2&amp;id=2000&amp;scale=4</href>
				</Icon>
				<hotSpot x="64" y="128" xunits="pixels" yunits="insetPixels"/>
			</IconStyle>
			<LabelStyle>
			</LabelStyle>
			<LineStyle>
				<color>ff2dc0fb</color>
				<width>3.2</width>
			</LineStyle>
			<PolyStyle>
				<color>40ffffff</color>
			</PolyStyle>
			<BalloonStyle>
			</BalloonStyle>
		</Style>
	</gx:CascadingStyle>
	<StyleMap id="__managed_style_07D3C7CA54368267D2A8">
		<Pair>
			<key>normal</key>
			<styleUrl>#__managed_style_1A688EAB54368267D2A8</styleUrl>
		</Pair>
		<Pair>
			<key>highlight</key>
			<styleUrl>#__managed_style_2EF98DDB13368267D2A8</styleUrl>
		</Pair>
	</StyleMap>
	<gx:CascadingStyle kml:id="__managed_style_2EE185F4FD368267D2A7">
		<Style>
			<IconStyle>
				<scale>1.2</scale>
				<Icon>
					<href>https://earth.google.com/earth/document/icon?color=1976d2&amp;id=2000&amp;scale=4</href>
				</Icon>
				<hotSpot x="64" y="128" xunits="pixels" yunits="insetPixels"/>
			</IconStyle>
			<LabelStyle>
			</LabelStyle>
			<LineStyle>
				<color>ff2dc0fb</color>
				<width>4.8</width>
			</LineStyle>
			<PolyStyle>
				<color>40ffffff</color>
			</PolyStyle>
			<BalloonStyle>
				<displayMode>hide</displayMode>
			</BalloonStyle>
		</Style>
	</gx:CascadingStyle>
	<gx:CascadingStyle kml:id="__managed_style_16DE29311A368267D2A7">
		<Style>
			<IconStyle>
				<Icon>
					<href>https://earth.google.com/earth/document/icon?color=1976d2&amp;id=2000&amp;scale=4</href>
				</Icon>
				<hotSpot x="64" y="128" xunits="pixels" yunits="insetPixels"/>
			</IconStyle>
			<LabelStyle>
			</LabelStyle>
			<LineStyle>
				<color>ff2dc0fb</color>
				<width>3.2</width>
			</LineStyle>
			<PolyStyle>
				<color>40ffffff</color>
			</PolyStyle>
			<BalloonStyle>
				<displayMode>hide</displayMode>
			</BalloonStyle>
		</Style>
	</gx:CascadingStyle>
	<StyleMap id="__managed_style_0F242E0338368267D2A7">
		<Pair>
			<key>normal</key>
			<styleUrl>#__managed_style_16DE29311A368267D2A7</styleUrl>
		</Pair>
		<Pair>
			<key>highlight</key>
			<styleUrl>#__managed_style_2EE185F4FD368267D2A7</styleUrl>
		</Pair>
	</StyleMap>
	<Placemark id="535A149268000001">
		<name>Percorso appia 2.1</name>
		<LookAt>
			<longitude>14.8526052902931</longitude>
			<latitude>41.10643733095137</latitude>
			<altitude>269.9822078995863</altitude>
			<heading>6.354384420555306e-09</heading>
			<tilt>45.0209125981324</tilt>
			<gx:fovy>35</gx:fovy>
			<range>4061.28687472141</range>
			<altitudeMode>absolute</altitudeMode>
		</LookAt>
		<styleUrl>#__managed_style_0F242E0338368267D2A7</styleUrl>
		<LineString>
			<coordinates>
				14.7826210961614,41.12950358966005,159.2312257892224 14.78390873178744,41.12857657696008,162.3992559761029 14.78545241320046,41.12751858251664,166.972775312838 14.78597070200499,41.12717539233417,169.6468983917792 14.78646032136561,41.12685180382552,172.475850564715 14.7867424996875,41.12663982194668,173.738963091395 14.78707912482314,41.12630189804448,175.284183375723 14.78761029161453,41.12585022246594,177.5671388996432 14.78842471509007,41.12512449200812,180.9016245419425 14.78922790525335,41.12444444004289,182.4519959444588 14.7899729374612,41.12384020807063,185.9952073658405 14.7903690041307,41.12352937298427,186.7640543381406 14.79074506975672,41.12324807980318,187.7269589015999 14.79126841054153,41.12277031137351,189.1891019272954 14.79138351991362,41.12270044602366,189.5016569615426 14.7917386772247,41.12238301445137,190.4289562422912 14.79207549857751,41.12202776246843,192.283164846055 14.79234749557304,41.12168244185516,194.0070151899688 14.79260143455148,41.1215138930923,195.1275220024833 14.79281481582871,41.12145082560991,195.2220609970765 14.79315651003868,41.12166366358831,194.0028141807671 14.79359017055254,41.121979233475,191.3741575519331 14.79432260850445,41.12239017106202,187.3380755807624 14.79511697477839,41.12283580388519,182.8910461959299 14.79543984507774,41.12305646496102,181.2473071276941 14.79655651050081,41.12374524497822,179.9204025196974 14.79703843478739,41.12400451587293,182.1029391138836 14.79727679241606,41.12420856271149,184.2341242371609 14.79765350949112,41.12425768297715,186.2480929564513 14.79779781209626,41.12421462359026,187.0029146829643 14.79827835920397,41.12409045859118,187.9897512791889 14.79855382389211,41.12399245333438,188.5014417298501 14.79906887442697,41.12392128718115,188.2654041730259 14.79956835366774,41.12377031953337,187.7494492704263 14.79980205361323,41.12365548376431,186.9192469161387 14.79998718631762,41.1235750705315,186.2852360100691 14.80036762871732,41.12356420251365,184.2388156908159 14.80058695134904,41.12354185420865,183.3106800529583 14.80071655630585,41.12338076184593,182.9834192902634 14.80082319898821,41.12316807363364,181.2762742421129 14.80095974971466,41.12273804713347,179.245771505614 14.80104939897098,41.12252304705797,178.0683923700823 14.80112022889286,41.12238666562379,177.5428200185415 14.80131951699289,41.1221794136318,176.4096764715944 14.80157713169937,41.12192883214172,175.0338299364275 14.8018172261147,41.12168649898698,173.3074535128692 14.80210009072677,41.12138621960479,170.8838867719993 14.80229609226939,41.12115906181221,168.9624404405466 14.8024666685875,41.12098278193162,167.8759982567822 14.80268051093317,41.12083081056229,166.6656518324337 14.80291302368241,41.12062589660493,165.7725650437296 14.80305181634547,41.12052199183995,165.2298817063871 14.80319939685642,41.12040917350331,165.0296467813837 14.80368362753506,41.11999646769776,164.6256235100167 14.80402740916046,41.11975934381272,165.0753348814313 14.80502583246857,41.11900203625314,164.5406228261039 14.80529276738171,41.11881213951963,164.2517304529325 14.80551253786598,41.11866472201248,164.4357598024753 14.80576581637314,41.11854966913736,164.3026481700081 14.80605798543059,41.11847232665048,164.1766728049484 14.80651113453997,41.11841689883669,164.3026682820644 14.8067763272561,41.11841736131622,164.2345653158047 14.80704864718626,41.11840268653294,163.7840634034989 14.8076109142861,41.11833624049104,164.0275349475592 14.8080405174092,41.11814550807492,165.0752879929101 14.80824649269998,41.11802634862593,166.1949092100635 14.80847161568949,41.11799210083805,167.1074604756946 14.80870103664796,41.11790031152523,168.4387556515345 14.80910066419497,41.11778741235118,171.8525499036693 14.80956616098571,41.11764728586168,178.7934197127688 14.81004847738019,41.11746682934465,184.3699956392855 14.81038551336599,41.11730063548396,187.3966725285206 14.8106804753633,41.11712461681173,190.1519567347412 14.81098038294821,41.11691921757784,192.9915445483883 14.81113227721759,41.11685494670304,194.1447634513924 14.81163035708436,41.11664645725627,197.8232966259952 14.81204274767292,41.11641947217991,201.5156102230894 14.81236878375331,41.11630058011796,204.2128660358164 14.81266802380309,41.1162235392218,206.2600638118778 14.81295760168902,41.11616918752659,206.6302479239858 14.81340416285824,41.11601230552392,210.6597743720387 14.81392030786769,41.11580031981562,213.6638419912495 14.81415981328389,41.11570419706216,214.9693350936305 14.81457979196511,41.11554982183996,216.7297637380578 14.81474495394036,41.11548467725637,217.8271453158376 14.81507489586378,41.11536306531381,220.3215713267358 14.815287000627,41.11525687520151,222.3496726169435 14.81550112056422,41.11510734672587,224.7438823252711 14.81563095359397,41.11498482713415,225.7234310448046 14.81603737623457,41.11476833675136,226.1984048267779 14.8163868946424,41.11461878686445,225.8668474755769 14.81658293438283,41.11452373468028,225.6382728567685 14.81695843039887,41.11425633721552,225.4748299502854 14.81725477496271,41.11404166980855,225.4837146835033 14.81760207160764,41.11380029498413,226.0931249968038 14.81781371450061,41.11362703588684,226.4687628416124 14.81803936847573,41.1134456383157,226.7757076929487 14.81818471374184,41.11331450810092,228.477538137654 14.81827128964538,41.11319825152037,227.9232714838088 14.81839549485056,41.11306893715997,228.9377244499658 14.8185544861406,41.11304540311468,229.3412197985996 14.81886669137726,41.11323729399324,228.5280833000006 14.81890967191093,41.11332907554519,228.6473295433643 14.81883326877048,41.11345308130293,228.1108507690183 14.81856495551444,41.11367531047766,227.3618199368466 14.81841159052114,41.11382429345699,226.4260865534688 14.81847543033308,41.11383209103202,226.8261142537038 14.81885755052862,41.11370134794455,227.9033894521873 14.81922259640933,41.11356306572669,229.6088146981333 14.81952917784398,41.11348377261717,230.8925232096764 14.81988693829569,41.11340902598234,232.5095374519372 14.82002207545431,41.11337217601855,233.04055723392 14.82031993181928,41.11323775114486,233.6903133775441 14.82065471494802,41.11308277716879,234.5069017427244 14.82151139598371,41.11277023679006,234.1365960727087 14.82236003273772,41.11232574516312,233.9416867344808 14.82269024555779,41.11223009938652,233.8940791715831 14.82347681239006,41.11206720823142,234.9644338733206 14.82465458264386,41.11193107175831,238.2923906161851 14.82550796879696,41.11191296637513,239.5284439548387 14.82734442545319,41.1117462103965,242.0010592604896 14.8279944221692,41.1116598985082,242.7786513331375 14.82877706923466,41.1115380571128,243.2374279836865 14.83229811281676,41.11091637112348,221.1383438989427 14.83273738813736,41.11086857623995,220.243086606713 14.83357550576108,41.11032356125261,224.9108326805784 14.83445007389291,41.11005135761651,229.5785787544437 
			</coordinates>
		</LineString>
	</Placemark>
	<Placemark id="535A149269000002">
		<name>percorso Appia 2.2</name>
		<LookAt>
			<longitude>14.93022845031483</longitude>
			<latitude>41.08733676122162</latitude>
			<altitude>200.5756533814544</altitude>
			<heading>-8.991860872254811</heading>
			<tilt>23.9549227823944</tilt>
			<gx:fovy>35</gx:fovy>
			<range>816.9491885695606</range>
			<altitudeMode>absolute</altitudeMode>
		</LookAt>
		<styleUrl>#__managed_style_0F242E0338368267D2A7</styleUrl>
		<LineString>
			<coordinates>
				14.83436051405117,41.11005005335936,236.0064476137281 14.83480354035821,41.10953227694051,238.2926056979129 14.83520375521355,41.10910572144208,239.0463186541335 14.83563029836944,41.10889600019632,241.7457065711699 14.83630212140209,41.10886289577615,246.0206694321029 14.8369755561681,41.10884714435512,248.4714437760066 14.83762614705334,41.10879252752056,249.8358813203783 14.83804409430977,41.10873587958436,250.112637990799 14.8384090989998,41.10854198693012,250.028456818362 14.83889025641197,41.10824332375637,251.2218839191323 14.83943245113447,41.1080111444747,249.7328396933436 14.83973067568503,41.10790229177642,249.4827408681255 14.84027069313249,41.10773876866634,248.7314561063681 14.8400294284404,41.10724418475503,250.9579880365722 14.84045283808627,41.10714707472538,250.6550342733471 14.84101782697428,41.10693508586457,251.6273952945159 14.84124970494942,41.10661413199489,252.9653225132201 14.84171267227957,41.10629024415972,255.6002321935392 14.84202125244106,41.10597889091798,258.0312729632682 14.84266641471113,41.10544327996033,262.7882298568522 14.8434007507511,41.10484177072367,267.7258741586516 14.8438276439155,41.10465097727815,270.0649895575334 14.84448971298085,41.10444350968969,275.5186834783012 14.84476650799758,41.1043361058062,277.235488792556 14.84528316073213,41.1040726884497,281.0149540789897 14.84581272446222,41.10372258495062,285.9327395536453 14.84624953744149,41.10340629666472,291.1483084991931 14.84670515435181,41.1031271562499,296.2276220646016 14.84706431498019,41.10283132337285,300.6630947283214 14.84740706455391,41.10249934763907,306.1986826675084 14.84766524364224,41.10221631803823,311.4441604391088 14.84772593667332,41.1019940902731,312.3057534565731 14.8477517992495,41.10169089361252,316.2946493579217 14.84781025439474,41.10132384777896,321.0835856941751 14.84848781979183,41.10094087593427,323.8194706331013 14.84975324052059,41.10033970103733,330.2550920358069 14.85015997322897,41.10001893476699,331.2671460256487 14.85123700701087,41.10001908060391,326.7602380088772 14.85256082583815,41.09996421728658,320.1782934520664 14.85444220007802,41.09989050983493,315.0412188999071 14.85484985881393,41.09992809950541,314.4209596197461 14.85567033783436,41.10033582412802,315.2988847982389 14.85616945624672,41.10075097962497,313.7064693535583 14.85646047815409,41.10123600865496,313.2952632558756 14.85704371264923,41.10192442300225,311.4769150567585 14.85803212755345,41.10284498555308,313.0883929579256 14.86179493345835,41.10625614789546,315.3176856112602 14.8630869169597,41.10719796574097,305.3265530870627 14.86543786232124,41.10841141507653,299.0461146243557 14.86774571896441,41.10967340193864,300.3300224740046 14.86916547461366,41.10977108819432,304.9464316641081 14.87067103627958,41.11003160284373,300.4278168320287 14.8727682928082,41.11040777597417,296.2864606880629 14.87524828791394,41.11058376583804,302.7397373300046 14.87726168476468,41.11080585462164,305.9256475479957 14.87818270457086,41.11114156590958,301.3426367636376 14.87909676913174,41.11113045795849,296.4818402907847 14.87994667841611,41.11108345664544,291.7382106724439 14.88049624729959,41.11123458470295,288.9050019526248 14.88204233141179,41.11156690000725,280.4658658842424 14.88254914755994,41.11175575587905,277.4028447028027 14.88331108886956,41.1119723039377,272.4175585498578 14.88423200810567,41.11195276143217,267.3451826366364 14.88569706949024,41.11179909955773,260.5530451802065 14.88696862932571,41.1117688425236,255.5327752406172 14.88825950239177,41.1118267334011,249.6977617363846 14.88945168291005,41.11169696890595,246.8210349263313 14.89064662339615,41.11159553699498,243.838353981413 14.89153307243848,41.11150114295188,242.6456301914844 14.89231241105472,41.11140534910506,244.1991174844166 14.89303131675999,41.11122159464241,243.9271066255157 14.89384844291813,41.11099882836265,241.2146017631599 14.89570745799043,41.11075570612252,237.9498236874323 14.89714594604238,41.11022179244096,236.8881840403252 14.89858010566652,41.10979429500956,234.1918504566942 14.90037853915,41.10920832847082,222.341857964799 14.90195615939967,41.10876155100024,204.5271710962311 14.90336919943773,41.10840797036472,196.4691706914605 14.90415136408073,41.10821746996161,196.692122019226 14.90452694741132,41.10818622681612,197.9312332180035 14.90441495815587,41.10788609478282,197.5334443558849 14.90445427615345,41.10759871097454,197.0118196316272 14.90482386078289,41.10710094421071,198.7820327751665 14.90502918703172,41.1069048066569,199.3754897589624 14.90556513172564,41.10685445341622,201.36529925154 14.90577345957411,41.10677777644387,202.3134026671025 14.9061800144767,41.1065030319039,204.2727590335098 14.9066930650222,41.10607390839463,206.857375818658 14.90708071828813,41.10566438921222,208.2077222370666 14.90739258353756,41.10532525065447,208.9768272058684 14.90745999930427,41.10475708937285,211.4801422971991 14.90773382011181,41.10399246503403,212.8991204293406 14.90791873016472,41.1033640241715,213.6689019028117 14.90795420950611,41.10282698097168,214.5693182734562 14.90791146674378,41.10239840201974,215.7908405050312 14.90794854249215,41.10209544204217,217.5524362131674 14.90812881362283,41.10175643621383,218.535394477246 14.90816008236982,41.1010905666486,222.9837533670338 14.90825315902271,41.10081660334836,226.311864438136 14.908633765808,41.10045289034394,227.5170150017966 14.90899701701135,41.09994965643535,228.3985607394481 14.90924931082547,41.0996598603383,228.0823609442373 14.909760599922,41.09926308153667,226.710674130344 14.91036544619516,41.09874186019852,227.7835672884848 14.9112825756084,41.09805049992943,229.9783285526595 14.91209176593366,41.09740232234199,230.5922401781384 14.91271955372757,41.09702368931836,232.4956979735338 14.91289067658366,41.09688402372495,233.0360467152098 14.91282905422356,41.09671023670889,232.7872374848863 14.91255421088873,41.09647835047076,235.7218533738589 14.91215145671078,41.09601249990084,238.7078120874094 14.91200619577848,41.09524376098042,240.2531057778428 14.91214545387891,41.09518057385861,239.8045953325758 14.91257916001468,41.09499192070336,238.5896975104224 14.91461536578289,41.0941430005372,239.438486716405 14.9155653317059,41.093762894351,240.8034092927852 14.91688104175207,41.09317168952892,237.848528421211 14.91801668607877,41.09263474256098,232.9896934432414 14.91917639806303,41.09212303759184,224.1091827924102 14.9198521939721,41.09186021977089,222.3898229952004 14.92070950602417,41.0917554717323,221.6833388099637 14.92139469850199,41.09171951218291,218.8177652590561 14.92181040075743,41.09155094266352,214.7777133940365 14.9222040001821,41.09133957576777,211.4275924111435 14.92268360402528,41.09099251304005,209.8786671188059 14.92279408139567,41.09090890380477,210.4881946343116 14.92317304121702,41.09079363779909,212.6390294572601 14.92357707705373,41.09068906271622,214.5742184754582 14.92404043426125,41.09046609166386,218.2523741935753 14.92454493428199,41.09021139760175,220.7499999354415 14.92540363612214,41.08985308087158,220.0609358281937 14.92614750835423,41.08945802014567,220.395116796217 14.92677811630011,41.089117662323,219.201721004445 14.92764085486338,41.08867751572737,214.5498735195572 14.92856718622628,41.08815883080095,206.5441224361557 14.92904575230299,41.08796918401934,204.6919162912489 14.92991022031022,41.08763831920849,201.4950014681952 14.93049424535309,41.08742160703971,200.146012392193 14.93140025826235,41.08708119856839,196.1250265867695 14.93189911434455,41.08687991394618,192.8931814521954 14.9321838404536,41.0867267918665,191.3721207256079 
			</coordinates>
		</LineString>
	</Placemark>
	<Placemark id="0133430EE23681E207EF">
		<name>POI 0 – Lungo l’Appia da Beneventum a Ponte Rotto</name>
		<LookAt>
			<longitude>14.78381817807579</longitude>
			<latitude>41.12918370185723</latitude>
			<altitude>160.5747782568429</altitude>
			<heading>0</heading>
			<tilt>0</tilt>
			<gx:fovy>30</gx:fovy>
			<range>666.6794945252332</range>
			<altitudeMode>absolute</altitudeMode>
		</LookAt>
		<styleUrl>#__managed_style_07D3C7CA54368267D2A8</styleUrl>
		<Point>
			<coordinates>14.78244189767155,41.1295174787208,161.0667813852588</coordinates>
		</Point>
	</Placemark>
	<Placemark id="0F0E1F48C83681E32082">
		<name>POI 1bis - Speco dell’acquedotto del Serino </name>
		<LookAt>
			<longitude>14.78724634652297</longitude>
			<latitude>41.12496821317348</latitude>
			<altitude>162.3346792657105</altitude>
			<heading>0</heading>
			<tilt>0</tilt>
			<gx:fovy>30</gx:fovy>
			<range>4858.886661662255</range>
			<altitudeMode>absolute</altitudeMode>
		</LookAt>
		<styleUrl>#__managed_style_07D3C7CA54368267D2A8</styleUrl>
		<Point>
			<coordinates>14.80361274855313,41.11941618386817,168.7782129298855</coordinates>
		</Point>
	</Placemark>
	<Placemark id="0386CD34FD3681E3D283">
		<name>POI 1 - Masseria San Cumano e i resti del passato</name>
		<LookAt>
			<longitude>14.8168660057957</longitude>
			<latitude>41.11137735743017</latitude>
			<altitude>236.5954380078906</altitude>
			<heading>0</heading>
			<tilt>0</tilt>
			<gx:fovy>30</gx:fovy>
			<range>4784.626004155143</range>
			<altitudeMode>absolute</altitudeMode>
		</LookAt>
		<styleUrl>#__managed_style_07D3C7CA54368267D2A8</styleUrl>
		<Point>
			<coordinates>14.83498097703434,41.10962020055663,240.368982825263</coordinates>
		</Point>
	</Placemark>
	<Placemark id="0BE356EF403681E42A53">
		<name>POI 2 - Il persistere dell’antico. La Via Appia a San Cumano</name>
		<LookAt>
			<longitude>14.8168660057957</longitude>
			<latitude>41.11137735743017</latitude>
			<altitude>236.5954380078906</altitude>
			<heading>0</heading>
			<tilt>0</tilt>
			<gx:fovy>30</gx:fovy>
			<range>4784.626004155143</range>
			<altitudeMode>absolute</altitudeMode>
		</LookAt>
		<styleUrl>#__managed_style_07D3C7CA54368267D2A8</styleUrl>
		<Point>
			<coordinates>14.84113920388095,41.10691319323116,252.3464836928331</coordinates>
		</Point>
	</Placemark>
	<Placemark id="034FC2A1423681E487B6">
		<name>POI 3 – L’insediamento di Nuceriola</name>
		<LookAt>
			<longitude>14.83335025566782</longitude>
			<latitude>41.10490715526224</latitude>
			<altitude>262.3976423373822</altitude>
			<heading>0</heading>
			<tilt>0</tilt>
			<gx:fovy>30</gx:fovy>
			<range>4758.823958864668</range>
			<altitudeMode>absolute</altitudeMode>
		</LookAt>
		<styleUrl>#__managed_style_07D3C7CA54368267D2A8</styleUrl>
		<Point>
			<coordinates>14.84653082556694,41.10321996748269,296.1310814075985</coordinates>
		</Point>
	</Placemark>
	<Placemark id="07962E118D3681E4C913">
		<name>POI 4 - Una divinità tra i campi</name>
		<LookAt>
			<longitude>14.83335025566782</longitude>
			<latitude>41.10490715526224</latitude>
			<altitude>262.3976423373822</altitude>
			<heading>0</heading>
			<tilt>0</tilt>
			<gx:fovy>30</gx:fovy>
			<range>4758.823958864668</range>
			<altitudeMode>absolute</altitudeMode>
		</LookAt>
		<styleUrl>#__managed_style_07D3C7CA54368267D2A8</styleUrl>
		<Point>
			<coordinates>14.85134065638911,41.10007061173128,325.3617430207547</coordinates>
		</Point>
	</Placemark>
	<Placemark id="0682ED29C73681E5130D">
		<name>POI 5 – Giunti al IV miglio </name>
		<LookAt>
			<longitude>14.83335025566782</longitude>
			<latitude>41.10490715526224</latitude>
			<altitude>262.3976423373822</altitude>
			<heading>0</heading>
			<tilt>0</tilt>
			<gx:fovy>30</gx:fovy>
			<range>4758.823958864668</range>
			<altitudeMode>absolute</altitudeMode>
		</LookAt>
		<styleUrl>#__managed_style_07D3C7CA54368267D2A8</styleUrl>
		<Point>
			<coordinates>14.85493220758294,41.09999965696014,315.7753299064986</coordinates>
		</Point>
	</Placemark>
	<Placemark id="08AD305E513681E56FC3">
		<name>POI 6 – Una masseria dello Stato Pontificio</name>
		<LookAt>
			<longitude>14.82864977777646</longitude>
			<latitude>41.10541353455523</latitude>
			<altitude>260.9262960109667</altitude>
			<heading>0</heading>
			<tilt>0</tilt>
			<gx:fovy>30</gx:fovy>
			<range>5665.431518589612</range>
			<altitudeMode>absolute</altitudeMode>
		</LookAt>
		<styleUrl>#__managed_style_07D3C7CA54368267D2A8</styleUrl>
		<Point>
			<coordinates>14.85681203165842,41.10167659918557,311.0768430638821</coordinates>
		</Point>
	</Placemark>
	<Placemark id="071372FAF43681E5BF96">
		<name>POI 7 – Un restauro antico. I miliari di Adriano</name>
		<LookAt>
			<longitude>14.85397961998735</longitude>
			<latitude>41.10433575116291</latitude>
			<altitude>270.8582130125887</altitude>
			<heading>0</heading>
			<tilt>0</tilt>
			<gx:fovy>30</gx:fovy>
			<range>9965.660158947576</range>
			<altitudeMode>absolute</altitudeMode>
		</LookAt>
		<styleUrl>#__managed_style_07D3C7CA54368267D2A8</styleUrl>
		<Point>
			<coordinates>14.86745801682604,41.10959627261634,300.2570186889564</coordinates>
		</Point>
	</Placemark>
	<Placemark id="07059B2E283681E622BB">
		<name>POI 8 – Panorami da San Giovanni</name>
		<LookAt>
			<longitude>14.85735565878295</longitude>
			<latitude>41.10178493158549</latitude>
			<altitude>309.935474773781</altitude>
			<heading>0</heading>
			<tilt>0</tilt>
			<gx:fovy>30</gx:fovy>
			<range>2599.430440426804</range>
			<altitudeMode>absolute</altitudeMode>
		</LookAt>
		<styleUrl>#__managed_style_07D3C7CA54368267D2A8</styleUrl>
		<Point>
			<coordinates>14.85983587631099,41.10459449434932,319.968256305236</coordinates>
		</Point>
	</Placemark>
	<Placemark id="0FC4AF12413681E6745C">
		<name>POI 9 – Vita e Pastorizia lungo la via Appia</name>
		<LookAt>
			<longitude>14.84968223511754</longitude>
			<latitude>41.09751447136269</latitude>
			<altitude>330.2718128205555</altitude>
			<heading>0</heading>
			<tilt>0</tilt>
			<gx:fovy>30</gx:fovy>
			<range>11441.42649043235</range>
			<altitudeMode>absolute</altitudeMode>
		</LookAt>
		<styleUrl>#__managed_style_07D3C7CA54368267D2A8</styleUrl>
		<Point>
			<coordinates>14.87600917757681,41.11101679280047,306.2177640435026</coordinates>
		</Point>
	</Placemark>
	<Placemark id="08DDB180373681E6AE63">
		<name>POI 10 – Una statua tra le case</name>
		<LookAt>
			<longitude>14.84968223511754</longitude>
			<latitude>41.09751447136269</latitude>
			<altitude>330.2718128205555</altitude>
			<heading>0</heading>
			<tilt>0</tilt>
			<gx:fovy>30</gx:fovy>
			<range>11441.42649043235</range>
			<altitudeMode>absolute</altitudeMode>
		</LookAt>
		<styleUrl>#__managed_style_07D3C7CA54368267D2A8</styleUrl>
		<Point>
			<coordinates>14.88134172541263,41.11154689854559,284.4489929243987</coordinates>
		</Point>
	</Placemark>
	<Placemark id="002BA3FA953681E6D634">
		<name>POI 11 – Tombe sulla strada</name>
		<LookAt>
			<longitude>14.84968223511754</longitude>
			<latitude>41.09751447136269</latitude>
			<altitude>330.2718128205555</altitude>
			<heading>0</heading>
			<tilt>0</tilt>
			<gx:fovy>30</gx:fovy>
			<range>11441.42649043235</range>
			<altitudeMode>absolute</altitudeMode>
		</LookAt>
		<styleUrl>#__managed_style_07D3C7CA54368267D2A8</styleUrl>
		<Point>
			<coordinates>14.88804551188403,41.11175386014381,251.9472761689586</coordinates>
		</Point>
	</Placemark>
	<Placemark id="08ABD9D17A3681E726A0">
		<name>POI 12 – Chiese e reimpieghi</name>
		<LookAt>
			<longitude>14.8755511220112</longitude>
			<latitude>41.0976127253469</latitude>
			<altitude>262.9657432127975</altitude>
			<heading>0</heading>
			<tilt>0</tilt>
			<gx:fovy>30</gx:fovy>
			<range>11508.73201392358</range>
			<altitudeMode>absolute</altitudeMode>
		</LookAt>
		<styleUrl>#__managed_style_07D3C7CA54368267D2A8</styleUrl>
		<Point>
			<coordinates>14.90352290847553,41.10868001857465,197.3517844051886</coordinates>
		</Point>
	</Placemark>
	<Placemark id="08C525206A3681E757CB">
		<name>POI 13 – Un Palatium di Federico II</name>
		<LookAt>
			<longitude>14.8755511220112</longitude>
			<latitude>41.0976127253469</latitude>
			<altitude>262.9657432127975</altitude>
			<heading>0</heading>
			<tilt>0</tilt>
			<gx:fovy>30</gx:fovy>
			<range>11508.73201392358</range>
			<altitudeMode>absolute</altitudeMode>
		</LookAt>
		<styleUrl>#__managed_style_07D3C7CA54368267D2A8</styleUrl>
		<Point>
			<coordinates>14.90859325066134,41.10028782506199,230.8833232715756</coordinates>
		</Point>
	</Placemark>
	<Placemark id="09804B9DD93681E797F6">
		<name>POI 14 - Il Ponte Rotto sul fiume Calore</name>
		<LookAt>
			<longitude>14.8755511220112</longitude>
			<latitude>41.0976127253469</latitude>
			<altitude>262.9657432127975</altitude>
			<heading>0</heading>
			<tilt>0</tilt>
			<gx:fovy>30</gx:fovy>
			<range>11508.73201392358</range>
			<altitudeMode>absolute</altitudeMode>
		</LookAt>
		<styleUrl>#__managed_style_07D3C7CA54368267D2A8</styleUrl>
		<Point>
			<coordinates>14.93306599136962,41.08610744491008,180.6860201779024</coordinates>
		</Point>
	</Placemark>
</Document>
</kml>
